{"type": "FeatureCollection", "features": [{"type": "Feature", "properties": {"id": 1, "name": "I. kerület"}, "geometry": {"type": "Polygon", "coordinates": [[[19.0244249, 47.5017295], [19.0238074, 47.49505], [19.0261969, 47.4953074], [19.0313888, 47.4867775], [19.0327423, 47.4863665], [19.0338842, 47.4862766], [19.0372812, 47.4869966], [19.0387617, 47.4860889], [19.0411835, 47.4857054], [19.0418427, 47.4860066], [19.0426009, 47.4869325], [19.0438321, 47.4873283], [19.0468657, 47.4873688], [19.0475373, 47.4870983], [19.0513614, 47.4888863], [19.0487215, 47.4911837], [19.0447988, 47.4966665], [19.0428396, 47.5011509], [19.0421679, 47.5056015], [19.0423588, 47.5077016], [19.0275073, 47.5080309], [19.026598, 47.5076463], [19.0249003, 47.5061362], [19.0244379, 47.5049879], [19.0241962, 47.5034336], [19.0244249, 47.5017295]]]}}, {"type": "Feature", "properties": {"id": 2, "name": "II. kerület"}, "geometry": {"type": "Polygon", "coordinates": [[[18.9251057, 47.5441443], [18.9297897, 47.5418333], [18.9317773, 47.542664], [18.9357518, 47.5433397], [18.9351763, 47.5386352], [18.9343186, 47.5356412], [18.9348292, 47.5335871], [18.9467279, 47.5268554], [18.9472883, 47.5257319], [18.9495876, 47.5279241], [18.9521909, 47.5282293], [18.9559726, 47.5261863], [18.9576881, 47.5247179], [18.9598242, 47.5244033], [18.9664582, 47.5220029], [18.9729958, 47.5202206], [18.9906507, 47.5176216], [18.9947843, 47.5176576], [18.9962265, 47.5173976], [18.9991969, 47.5162063], [19.0085929, 47.5099631], [19.0119588, 47.5099008], [19.0209355, 47.5084322], [19.0248478, 47.5060708], [19.026598, 47.5076463], [19.0275073, 47.5080309], [19.0423588, 47.5077016], [19.042713, 47.5115985], [19.0403881, 47.5220728], [19.042187, 47.5267887], [19.0332553, 47.5281282], [19.0267626, 47.5307343], [19.025994, 47.5302346], [19.0254275, 47.5302984], [19.0246811, 47.5311597], [19.0235441, 47.5302267], [19.0177859, 47.5295295], [19.0172675, 47.532714], [19.0156933, 47.5338124], [19.0147932, 47.5365165], [19.0134012, 47.5379281], [19.011768, 47.5390863], [19.0063812, 47.540205], [19.0065629, 47.5406608], [19.0084507, 47.541764], [19.0102593, 47.5416725], [19.0109775, 47.5419495], [19.0080787, 47.5433183], [19.0083625, 47.5441483], [19.0057191, 47.546083], [19.0045191, 47.548678], [19.0044581, 47.5506773], [19.0011924, 47.553047], [19.0017468, 47.5542734], [19.0018684, 47.555908], [19.0008974, 47.5554472], [18.9998143, 47.5541355], [18.998824, 47.5546034], [18.9969678, 47.5569944], [18.9962236, 47.5587623], [18.992614, 47.563089], [18.989667, 47.565593], [18.987092, 47.569181], [18.9802793, 47.5732606], [18.978744, 47.573825], [18.9777788, 47.5731709], [18.9772115, 47.5739078], [18.9690264, 47.5762426], [18.959585, 47.5778639], [18.9496287, 47.5779797], [18.9425905, 47.578906], [18.9394691, 47.5756486], [18.9288432, 47.5724407], [18.9366692, 47.5602344], [18.9381149, 47.5571891], [18.9335623, 47.5559461], [18.9353549, 47.5547501], [18.9373316, 47.5540581], [18.9383912, 47.553168], [18.940496, 47.5527905], [18.9408943, 47.552074], [18.9404651, 47.5515941], [18.9408244, 47.5507918], [18.9332235, 47.5463736], [18.9300003, 47.5459961], [18.9251057, 47.5441443]]]}}, {"type": "Feature", "properties": {"id": 3, "name": "III. kerület"}, "geometry": {"type": "Polygon", "coordinates": [[[18.976838, 47.57484], [18.9777788, 47.5731709], [18.978744, 47.573825], [18.9802793, 47.5732606], [18.987092, 47.569181], [18.989667, 47.565593], [18.992614, 47.563089], [18.9962236, 47.5587623], [18.9969678, 47.5569944], [18.998824, 47.5546034], [18.9998143, 47.5541355], [19.0008974, 47.5554472], [19.0018684, 47.555908], [19.0017468, 47.5542734], [19.0011924, 47.553047], [19.0044581, 47.5506773], [19.0045191, 47.548678], [19.0057191, 47.546083], [19.0083625, 47.5441483], [19.0080787, 47.5433183], [19.0109775, 47.5419495], [19.0102593, 47.5416725], [19.0084507, 47.541764], [19.0065629, 47.5406608], [19.0063812, 47.540205], [19.011768, 47.5390863], [19.0134012, 47.5379281], [19.0147932, 47.5365165], [19.0156933, 47.5338124], [19.0172675, 47.532714], [19.0177859, 47.5295295], [19.0235441, 47.5302267], [19.0246811, 47.5311597], [19.0254275, 47.5302984], [19.025994, 47.5302346], [19.0267626, 47.5307343], [19.0332553, 47.5281282], [19.042187, 47.5267887], [19.0484717, 47.5348062], [19.0563509, 47.5417497], [19.0634771, 47.5540737], [19.0674065, 47.5636017], [19.0681075, 47.5709381], [19.0696863, 47.5795681], [19.0728392, 47.5893223], [19.0712811, 47.5894956], [19.0718181, 47.5975358], [19.074347, 47.6041918], [19.0767223, 47.6068533], [19.0748459, 47.6075711], [19.0719511, 47.6076328], [19.0665465, 47.6086504], [19.0664286, 47.6083514], [19.0602037, 47.6094768], [19.0537493, 47.6090335], [19.0461887, 47.610102], [19.0381747, 47.609626], [19.0373362, 47.6089718], [19.0252812, 47.6045889], [19.029707, 47.5996609], [19.0328391, 47.5922054], [19.0324459, 47.5917327], [19.0331236, 47.5914609], [19.0333855, 47.5908566], [19.0344669, 47.5869376], [19.0260212, 47.5881532], [19.01985, 47.5876438], [19.0167944, 47.5871633], [19.0158674, 47.5866597], [19.0150177, 47.5869491], [19.0136873, 47.586677], [19.0103743, 47.5855655], [19.0016873, 47.5834365], [18.9997551, 47.5835448], [18.9969086, 47.5859382], [18.993828, 47.5837556], [18.9830234, 47.5890291], [18.9777865, 47.5857341], [18.9850891, 47.5831117], [18.9829852, 47.5816325], [18.9834912, 47.5810371], [18.977512, 47.575754], [18.976838, 47.57484]]]}}, {"type": "Feature", "properties": {"id": 4, "name": "IV. kerület"}, "geometry": {"type": "Polygon", "coordinates": [[[19.0671975, 47.5631371], [19.0784815, 47.5598989], [19.0844536, 47.5537001], [19.0850901, 47.5532512], [19.086098, 47.5542956], [19.1027273, 47.5423249], [19.1036881, 47.5441264], [19.1111678, 47.563259], [19.1104735, 47.5633118], [19.1139196, 47.5703834], [19.1203782, 47.5867754], [19.1216979, 47.5913547], [19.1218303, 47.5967588], [19.1234631, 47.599848], [19.118315, 47.60326], [19.1086333, 47.6058353], [19.10726, 47.6072473], [19.1090625, 47.6103547], [19.0992826, 47.6131468], [19.0885455, 47.6045492], [19.076668, 47.5918706], [19.0745731, 47.5891295], [19.0728392, 47.5893223], [19.0696863, 47.5795681], [19.0681075, 47.5709381], [19.0671975, 47.5631371]]]}}, {"type": "Feature", "properties": {"id": 5, "name": "V. kerület"}, "geometry": {"type": "Polygon", "coordinates": [[[19.0420223, 47.5147097], [19.042713, 47.5115985], [19.0421679, 47.5056015], [19.0424448, 47.5030511], [19.0432119, 47.5000468], [19.0447988, 47.4966665], [19.0487215, 47.4911837], [19.0549817, 47.4857658], [19.0604114, 47.4885684], [19.0617372, 47.4898977], [19.061762, 47.4902598], [19.0613956, 47.4917144], [19.059825, 47.4945652], [19.0589318, 47.4957964], [19.0551614, 47.497552], [19.0548547, 47.4979537], [19.0550682, 47.5087338], [19.0551977, 47.509831], [19.0556447, 47.5104698], [19.0436777, 47.5146939], [19.0420223, 47.5147097]]]}}, {"type": "Feature", "properties": {"id": 6, "name": "VI. kerület"}, "geometry": {"type": "Polygon", "coordinates": [[[19.0551977, 47.509831], [19.0549798, 47.4977342], [19.0554605, 47.4976456], [19.072651, 47.5075613], [19.0808372, 47.5112158], [19.0723516, 47.5185558], [19.0673341, 47.5163955], [19.067026, 47.5166412], [19.0661392, 47.5162078], [19.0637132, 47.5178869], [19.0595925, 47.5157544], [19.0551977, 47.509831]]]}}, {"type": "Feature", "properties": {"id": 7, "name": "VII. kerület"}, "geometry": {"type": "Polygon", "coordinates": [[[19.0551614, 47.497552], [19.0589318, 47.4957964], [19.0599627, 47.494314], [19.079543, 47.4995209], [19.0847297, 47.5019901], [19.0850121, 47.5017434], [19.0911378, 47.5019853], [19.0808372, 47.5112158], [19.072651, 47.5075613], [19.0659654, 47.5035182], [19.0624818, 47.5018505], [19.0600336, 47.5000979], [19.0551614, 47.497552]]]}}, {"type": "Feature", "properties": {"id": 8, "name": "VIII. kerület"}, "geometry": {"type": "Polygon", "coordinates": [[[19.0599627, 47.494314], [19.0615157, 47.4914467], [19.0617711, 47.4901336], [19.0615618, 47.4897519], [19.0634599, 47.4888219], [19.0695994, 47.4859567], [19.098662, 47.4756182], [19.1070524, 47.4856723], [19.1086381, 47.4882949], [19.1090905, 47.4966447], [19.1082765, 47.5001775], [19.1030314, 47.499654], [19.1025579, 47.5003264], [19.1018815, 47.5004685], [19.0911378, 47.5019853], [19.0850121, 47.5017434], [19.0847297, 47.5019901], [19.079543, 47.4995209], [19.0599627, 47.494314]]]}}, {"type": "Feature", "properties": {"id": 9, "name": "IX. kerület"}, "geometry": {"type": "Polygon", "coordinates": [[[19.0549817, 47.4857658], [19.0640654, 47.4783738], [19.0658161, 47.4760395], [19.0669219, 47.4737051], [19.067444, 47.4714015], [19.0673519, 47.4678078], [19.0669219, 47.4664256], [19.0639288, 47.4619344], [19.0665397, 47.4614376], [19.0718633, 47.4613526], [19.0737247, 47.461022], [19.0781114, 47.4583241], [19.0830818, 47.4536917], [19.0843676, 47.4515116], [19.0878896, 47.4399582], [19.0890048, 47.4399579], [19.0934333, 47.4413702], [19.1283295, 47.4647109], [19.0893191, 47.4790972], [19.0695994, 47.4859567], [19.0615618, 47.4897519], [19.0604114, 47.4885684], [19.0549817, 47.4857658]]]}}, {"type": "Feature", "properties": {"id": 10, "name": "X. kerület"}, "geometry": {"type": "Polygon", "coordinates": [[[19.098662, 47.4756182], [19.1266461, 47.4654516], [19.1266467, 47.4658296], [19.1317013, 47.4665883], [19.141804, 47.4642937], [19.1512367, 47.4636984], [19.1558357, 47.4623787], [19.1665593, 47.4600451], [19.1726661, 47.4581723], [19.1731959, 47.4592224], [19.1686804, 47.4610828], [19.1691328, 47.4628021], [19.1779986, 47.4640089], [19.1786873, 47.4672948], [19.1924152, 47.4589337], [19.2093667, 47.4778318], [19.2160158, 47.4848291], [19.2168859, 47.4861585], [19.21894, 47.4881987], [19.2216553, 47.4923208], [19.1721699, 47.5021823], [19.1667977, 47.506726], [19.1599138, 47.5057299], [19.113843, 47.5010223], [19.1082765, 47.5001775], [19.1090905, 47.4966447], [19.1086381, 47.4882949], [19.1070524, 47.4856723], [19.098662, 47.4756182]]]}}, {"type": "Feature", "properties": {"id": 11, "name": "XI. kerület"}, "geometry": {"type": "Polygon", "coordinates": [[[18.9699958, 47.4511847], [18.9713582, 47.4500052], [18.9774221, 47.4472602], [18.9785156, 47.4472023], [18.9779368, 47.4453272], [18.9791894, 47.4409308], [18.9792097, 47.4378484], [18.9774284, 47.4319279], [18.9762365, 47.4300716], [18.9743988, 47.4294941], [18.9756688, 47.4286283], [18.9780045, 47.4277786], [18.9923012, 47.4279311], [18.993843, 47.4282236], [18.997447, 47.4305407], [18.999984, 47.4316809], [19.0047686, 47.431883], [19.008597, 47.4396675], [19.0106727, 47.4418576], [19.010921, 47.4427273], [19.0122416, 47.4434379], [19.0147526, 47.4485436], [19.020041, 47.4470517], [19.0215814, 47.4463008], [19.023947, 47.4440623], [19.0263716, 47.4424967], [19.0270822, 47.4415306], [19.0322247, 47.4391632], [19.0323802, 47.4385041], [19.0348976, 47.4389568], [19.0382912, 47.434254], [19.0407277, 47.4332164], [19.0403877, 47.4314056], [19.0409444, 47.4303945], [19.0437521, 47.4305452], [19.0477985, 47.4298103], [19.050735, 47.4365704], [19.052455, 47.4464607], [19.0531615, 47.4483651], [19.0564173, 47.4533102], [19.0639288, 47.4619344], [19.0669219, 47.4664256], [19.0673519, 47.4678078], [19.067444, 47.4714015], [19.0669219, 47.4737051], [19.0658161, 47.4760395], [19.0640654, 47.4783738], [19.0513614, 47.4888863], [19.0475373, 47.4870983], [19.0468657, 47.4873688], [19.0438321, 47.4873283], [19.0426009, 47.4869325], [19.0417597, 47.4859436], [19.0408638, 47.4856709], [19.0386512, 47.4861259], [19.0372812, 47.4869966], [19.0338842, 47.4862766], [19.0327423, 47.4863665], [19.0314026, 47.4867645], [19.0304323, 47.4882602], [19.0263135, 47.4880638], [19.024188, 47.4872245], [19.0223238, 47.4859404], [19.0220322, 47.484868], [19.0230151, 47.4830801], [19.0228258, 47.4828223], [19.022031, 47.4829908], [19.0195465, 47.4848189], [19.017807, 47.4854002], [19.0173066, 47.4853816], [19.0184937, 47.484427], [19.0197563, 47.4840491], [19.0197963, 47.4837828], [19.0164694, 47.4838926], [19.0137835, 47.4827896], [19.0117362, 47.4835075], [19.0102509, 47.4846545], [19.0095462, 47.4845917], [19.0066883, 47.4837433], [19.0052137, 47.483779], [19.0049036, 47.4818239], [19.0043531, 47.4810498], [18.9995348, 47.4821824], [18.9984092, 47.4816712], [18.9931416, 47.4811792], [18.99247, 47.4806866], [18.9921078, 47.4785499], [18.9885515, 47.4773374], [18.9870055, 47.4763325], [18.979986, 47.4810478], [18.9780679, 47.4813185], [18.9779907, 47.4789114], [18.9767407, 47.479012], [18.9758198, 47.4795383], [18.9708406, 47.4768857], [18.9702877, 47.4761415], [18.978875, 47.4688119], [18.9826683, 47.4607778], [18.9810547, 47.4552125], [18.9774326, 47.4550674], [18.9699958, 47.4511847]]]}}, {"type": "Feature", "properties": {"id": 12, "name": "XII. kerület"}, "geometry": {"type": "Polygon", "coordinates": [[[18.9268967, 47.5222438], [18.9334747, 47.5207347], [18.9353292, 47.5226409], [18.9353344, 47.5220605], [18.9427854, 47.5187886], [18.9447868, 47.5175182], [18.9429264, 47.5171486], [18.94163, 47.5146954], [18.939853, 47.5124792], [18.9382532, 47.5124029], [18.938325, 47.5121508], [18.935428, 47.5093544], [18.9338566, 47.5070997], [18.9411609, 47.5048969], [18.9442502, 47.5033266], [18.9436269, 47.5022151], [18.9438693, 47.5012049], [18.9455163, 47.4993342], [18.9451344, 47.4986268], [18.9445106, 47.4983273], [18.9449557, 47.497839], [18.9445975, 47.4969936], [18.9398544, 47.4978647], [18.9359282, 47.4915402], [18.941698, 47.4884174], [18.9415237, 47.4870192], [18.9470626, 47.4824417], [18.9523104, 47.4843], [18.9550643, 47.4863048], [18.9579134, 47.4851966], [18.9636819, 47.4822826], [18.9673041, 47.4796792], [18.9702877, 47.4761415], [18.9708406, 47.4768857], [18.9758198, 47.4795383], [18.9767407, 47.479012], [18.9779907, 47.4789114], [18.9779043, 47.481051], [18.9783322, 47.4813322], [18.979986, 47.4810478], [18.9870055, 47.4763325], [18.9885515, 47.4773374], [18.9921078, 47.4785499], [18.99247, 47.4806866], [18.9931416, 47.4811792], [18.9984092, 47.4816712], [18.9995348, 47.4821824], [19.0043531, 47.4810498], [19.0049036, 47.4818239], [19.0052137, 47.483779], [19.0066883, 47.4837433], [19.0095462, 47.4845917], [19.0102509, 47.4846545], [19.0117362, 47.4835075], [19.0137835, 47.4827896], [19.0164694, 47.4838926], [19.0197963, 47.4837828], [19.0197563, 47.4840491], [19.0184937, 47.484427], [19.0173066, 47.4853816], [19.017807, 47.4854002], [19.0195465, 47.4848189], [19.022031, 47.4829908], [19.0228258, 47.4828223], [19.0230151, 47.4830801], [19.0220191, 47.4850082], [19.0222625, 47.4858469], [19.022825, 47.4863965], [19.0263135, 47.4880638], [19.0304323, 47.4882602], [19.0261969, 47.4953074], [19.0238074, 47.49505], [19.0244412, 47.5019904], [19.0241991, 47.5035163], [19.0248478, 47.5060708], [19.0209355, 47.5084322], [19.0119588, 47.5099008], [19.0085929, 47.5099631], [18.9991969, 47.5162063], [18.9967304, 47.5172527], [18.994927, 47.5176499], [18.9906507, 47.5176216], [18.9729958, 47.5202206], [18.9664582, 47.5220029], [18.9598242, 47.5244033], [18.9576881, 47.5247179], [18.9559726, 47.5261863], [18.9521909, 47.5282293], [18.9495876, 47.5279241], [18.9472883, 47.5257319], [18.9467279, 47.5268554], [18.9348292, 47.5335871], [18.934308, 47.5322041], [18.9348768, 47.5308911], [18.935328, 47.5226433], [18.9303547, 47.5246384], [18.9293087, 47.5242418], [18.9279539, 47.5243459], [18.9268967, 47.5222438]]]}}, {"type": "Feature", "properties": {"id": 13, "name": "XIII. kerület"}, "geometry": {"type": "Polygon", "coordinates": [[[19.0452562, 47.5141302], [19.0556447, 47.5104698], [19.0595925, 47.5157544], [19.0637132, 47.5178869], [19.0659061, 47.5162069], [19.067026, 47.5166412], [19.0673341, 47.5163955], [19.0718119, 47.5185171], [19.0796978, 47.5216092], [19.0831107, 47.522538], [19.08863, 47.5253662], [19.086466, 47.5266449], [19.0965661, 47.5443351], [19.09606, 47.5449945], [19.0973526, 47.5462042], [19.086098, 47.5542956], [19.0850901, 47.5532512], [19.0844536, 47.5537001], [19.0784815, 47.5598989], [19.0671975, 47.5631371], [19.0634771, 47.5540737], [19.0563509, 47.5417497], [19.0558515, 47.5350208], [19.0538263, 47.5280947], [19.0452562, 47.5141302]]]}}, {"type": "Feature", "properties": {"id": 14, "name": "XIV. kerület"}, "geometry": {"type": "Polygon", "coordinates": [[[19.0723516, 47.5185558], [19.09122, 47.5019339], [19.1018815, 47.5004685], [19.1025579, 47.5003264], [19.1030314, 47.499654], [19.1570525, 47.5055627], [19.1556328, 47.5095809], [19.1537068, 47.5126042], [19.1448931, 47.5226992], [19.1454422, 47.5258453], [19.1274798, 47.5313357], [19.118496, 47.5332649], [19.1027273, 47.5423249], [19.0973526, 47.5462042], [19.09606, 47.5449945], [19.0965661, 47.5443351], [19.086466, 47.5266449], [19.08863, 47.5253662], [19.0831107, 47.522538], [19.0796978, 47.5216092], [19.0723516, 47.5185558]]]}}, {"type": "Feature", "properties": {"id": 15, "name": "XV. kerület"}, "geometry": {"type": "Polygon", "coordinates": [[[19.1027273, 47.5423249], [19.118496, 47.5332649], [19.1274798, 47.5313357], [19.1455023, 47.5258485], [19.1523466, 47.5295496], [19.1603533, 47.5351997], [19.1611467, 47.5359987], [19.1612284, 47.5366988], [19.1626009, 47.5368883], [19.168435, 47.5408894], [19.180781, 47.5482346], [19.1717513, 47.5529982], [19.1611232, 47.5595248], [19.1629549, 47.5606664], [19.1743919, 47.5642885], [19.157766, 47.5762296], [19.151554, 47.5739475], [19.145354, 47.5781449], [19.1538362, 47.5849905], [19.1381137, 47.5956474], [19.1403634, 47.596402], [19.1381081, 47.5998434], [19.1358257, 47.5990781], [19.1279713, 47.5979524], [19.1234631, 47.599848], [19.1218303, 47.5967588], [19.1216979, 47.5913547], [19.1203782, 47.5867754], [19.1139196, 47.5703834], [19.1104735, 47.5633118], [19.1111678, 47.563259], [19.1036881, 47.5441264], [19.1027273, 47.5423249]]]}}, {"type": "Feature", "properties": {"id": 16, "name": "XVI. kerület"}, "geometry": {"type": "Polygon", "coordinates": [[[19.1448931, 47.5226992], [19.1537068, 47.5126042], [19.1556328, 47.5095809], [19.1570525, 47.5055627], [19.1667977, 47.506726], [19.1721699, 47.5021823], [19.2216553, 47.4923208], [19.2373253, 47.4983083], [19.2391847, 47.4987423], [19.2486183, 47.5033776], [19.2536886, 47.5067956], [19.2536901, 47.5071736], [19.2635991, 47.5083478], [19.2632895, 47.5108125], [19.258454, 47.5203581], [19.2509817, 47.5300362], [19.2449305, 47.5369425], [19.2211482, 47.5327422], [19.2144052, 47.5369648], [19.2104793, 47.5400124], [19.2094161, 47.5403195], [19.2034636, 47.5373749], [19.1985332, 47.5398106], [19.1949325, 47.5375716], [19.1914463, 47.5394247], [19.190302, 47.5389938], [19.1773626, 47.5461324], [19.168435, 47.5408894], [19.1626009, 47.5368883], [19.1612284, 47.5366988], [19.1611467, 47.5359987], [19.1603533, 47.5351997], [19.1523466, 47.5295496], [19.1454422, 47.5258453], [19.1448931, 47.5226992]]]}}, {"type": "Feature", "properties": {"id": 17, "name": "XVII. kerület"}, "geometry": {"type": "Polygon", "coordinates": [[[19.1958834, 47.4627495], [19.2055078, 47.4582841], [19.2083158, 47.4587537], [19.2111205, 47.4580921], [19.2253589, 47.4503971], [19.2248464, 47.4501093], [19.2282029, 47.4485795], [19.2349406, 47.4474284], [19.2371882, 47.4500895], [19.2450494, 47.448936], [19.2478452, 47.4466444], [19.2517482, 47.4401677], [19.2556741, 47.4397764], [19.2618437, 47.4386248], [19.2808994, 47.4363091], [19.2889328, 47.4469392], [19.2922813, 47.4506399], [19.296168, 47.4537382], [19.3012638, 47.4571781], [19.3076148, 47.4564439], [19.3134043, 47.4570728], [19.3210963, 47.4591207], [19.3304118, 47.4597947], [19.3349258, 47.4632105], [19.3310621, 47.4674813], [19.3304343, 47.4700795], [19.3304895, 47.4727847], [19.3298221, 47.4776748], [19.3267677, 47.481062], [19.3223766, 47.4841854], [19.3177177, 47.4892007], [19.3149612, 47.4916024], [19.314189, 47.4930236], [19.3132712, 47.4987803], [19.3138981, 47.5031401], [19.3169913, 47.5065963], [19.3206035, 47.5096125], [19.3208537, 47.510182], [19.3183484, 47.5153487], [19.3094424, 47.5141679], [19.2962425, 47.5113089], [19.2910678, 47.5106302], [19.2839258, 47.5109626], [19.261558, 47.5079214], [19.2536901, 47.5071736], [19.2536886, 47.5067956], [19.2486183, 47.5033776], [19.2391847, 47.4987423], [19.2373253, 47.4983083], [19.2216553, 47.4923208], [19.21894, 47.4881987], [19.2168859, 47.4861585], [19.2160158, 47.4848291], [19.1958834, 47.4627495]]]}}, {"type": "Feature", "properties": {"id": 18, "name": "XVIII. kerület"}, "geometry": {"type": "Polygon", "coordinates": [[[19.1541008, 47.4447309], [19.1609421, 47.4417309], [19.1571149, 47.4385874], [19.1598186, 47.4369476], [19.1719792, 47.4315339], [19.1591201, 47.4254406], [19.1591193, 47.4250626], [19.1647626, 47.4201179], [19.1724202, 47.4140477], [19.1661928, 47.4118644], [19.1732743, 47.4067276], [19.1673782, 47.4046541], [19.1741851, 47.3999292], [19.1720507, 47.398528], [19.1755111, 47.3960121], [19.1801296, 47.3990926], [19.1989987, 47.3853659], [19.2012313, 47.389152], [19.2058415, 47.3954749], [19.2138444, 47.4003387], [19.2151514, 47.4015423], [19.2156642, 47.4029099], [19.2178394, 47.4008766], [19.2261432, 47.4074409], [19.2171288, 47.4127721], [19.228147, 47.4215846], [19.2316902, 47.4241808], [19.2347718, 47.4231533], [19.2364054, 47.426036], [19.2387264, 47.4239034], [19.2379199, 47.4222537], [19.2417795, 47.4209303], [19.2430906, 47.4197761], [19.2438266, 47.4202496], [19.2469876, 47.4192067], [19.2547071, 47.4289332], [19.260142, 47.4271733], [19.2657695, 47.4382332], [19.2517482, 47.4401677], [19.2478452, 47.4466444], [19.2450494, 47.448936], [19.2371882, 47.4500895], [19.2349406, 47.4474284], [19.2282029, 47.4485795], [19.2248464, 47.4501093], [19.2253589, 47.4503971], [19.2111205, 47.4580921], [19.2083158, 47.4587537], [19.2055078, 47.4582841], [19.1958834, 47.4627495], [19.1924152, 47.4589337], [19.1786873, 47.4672948], [19.1779986, 47.4640089], [19.1691328, 47.4628021], [19.1686804, 47.4610828], [19.1731959, 47.4592224], [19.1726661, 47.4581723], [19.1665593, 47.4600451], [19.1624283, 47.4572202], [19.1630928, 47.4569419], [19.1611412, 47.4555734], [19.1614975, 47.4525166], [19.160847, 47.4506522], [19.1541008, 47.4447309]]]}}, {"type": "Feature", "properties": {"id": 19, "name": "XIX. kerület"}, "geometry": {"type": "Polygon", "coordinates": [[[19.1138748, 47.4550652], [19.1368589, 47.4398045], [19.1417556, 47.4372618], [19.149308, 47.4325195], [19.1525242, 47.4301046], [19.1529665, 47.430398], [19.1585631, 47.4254411], [19.1591201, 47.4254406], [19.1719792, 47.4315339], [19.1598186, 47.4369476], [19.1571149, 47.4385874], [19.1609421, 47.4417309], [19.1541008, 47.4447309], [19.160847, 47.4506522], [19.1614975, 47.4525166], [19.1611412, 47.4555734], [19.1630928, 47.4569419], [19.1624283, 47.4572202], [19.1665593, 47.4600451], [19.1558357, 47.4623787], [19.1512367, 47.4636984], [19.141804, 47.4642937], [19.1317013, 47.4665883], [19.1266467, 47.4658296], [19.1269751, 47.4652226], [19.1283295, 47.4647109], [19.1138748, 47.4550652]]]}}, {"type": "Feature", "properties": {"id": 20, "name": "XX. kerület"}, "geometry": {"type": "Polygon", "coordinates": [[[19.0878896, 47.4399582], [19.0889157, 47.4336782], [19.091441, 47.4281724], [19.0919967, 47.4283737], [19.0916882, 47.4292742], [19.0947585, 47.4299122], [19.0979812, 47.428533], [19.0974147, 47.428149], [19.0996588, 47.4258674], [19.100878, 47.426252], [19.1016083, 47.4254813], [19.1023184, 47.4261983], [19.1033851, 47.4264783], [19.1030862, 47.4270874], [19.1033989, 47.4271192], [19.104487, 47.4245755], [19.1063162, 47.4218847], [19.1086048, 47.4197611], [19.1097274, 47.4193763], [19.1136756, 47.4220578], [19.1181574, 47.4182411], [19.1163136, 47.4157503], [19.1206332, 47.4115844], [19.1247772, 47.4136679], [19.1196115, 47.4191221], [19.1293886, 47.4250877], [19.1299548, 47.4250873], [19.142725, 47.415869], [19.1591193, 47.4250626], [19.1591201, 47.4254406], [19.1585631, 47.4254411], [19.1529665, 47.430398], [19.1525242, 47.4301046], [19.149308, 47.4325195], [19.1417556, 47.4372618], [19.1368589, 47.4398045], [19.1138748, 47.4550652], [19.0934333, 47.4413702], [19.0890048, 47.4399579], [19.0878896, 47.4399582]]]}}, {"type": "Feature", "properties": {"id": 21, "name": "XXI. kerület"}, "geometry": {"type": "Polygon", "coordinates": [[[19.0166532, 47.3898082], [19.0188672, 47.3880904], [19.0224447, 47.3890829], [19.0240622, 47.3871571], [19.0276588, 47.3884606], [19.0303509, 47.3853211], [19.0382316, 47.3883735], [19.0397003, 47.3874372], [19.0415517, 47.3856395], [19.0420962, 47.3858493], [19.0439653, 47.3850196], [19.0449088, 47.3864985], [19.0479811, 47.3888067], [19.0508724, 47.3873791], [19.0536513, 47.393375], [19.061817, 47.3916405], [19.0628242, 47.392037], [19.0645702, 47.3934571], [19.0605141, 47.3976623], [19.0675476, 47.4008292], [19.0708615, 47.4027654], [19.0736061, 47.4032923], [19.0752637, 47.4040697], [19.0836191, 47.4048849], [19.0851718, 47.4018908], [19.0940016, 47.3910256], [19.1003254, 47.3891334], [19.1052232, 47.3869689], [19.1077418, 47.3899777], [19.1089316, 47.3930568], [19.1091427, 47.3947976], [19.1080555, 47.3974909], [19.1048824, 47.4020461], [19.1001911, 47.412962], [19.098204, 47.4160335], [19.0943083, 47.4201758], [19.0929681, 47.4225323], [19.091441, 47.4281724], [19.0889157, 47.4336782], [19.0882633, 47.4387537], [19.0843676, 47.4515116], [19.0830818, 47.4536917], [19.0781114, 47.4583241], [19.07435, 47.4607893], [19.0718633, 47.4613526], [19.0673464, 47.4613702], [19.0639288, 47.4619344], [19.0564173, 47.4533102], [19.0531615, 47.4483651], [19.052455, 47.4464607], [19.050735, 47.4365704], [19.0477985, 47.4298103], [19.0455135, 47.4229454], [19.045096, 47.415038], [19.0414142, 47.4065922], [19.0339786, 47.3965612], [19.0280483, 47.3929094], [19.0189473, 47.3900972], [19.0166532, 47.3898082]]]}}, {"type": "Feature", "properties": {"id": 22, "name": "XXII. kerület"}, "geometry": {"type": "Polygon", "coordinates": [[[18.9513396, 47.3925554], [18.9516279, 47.3907922], [18.9527813, 47.3874725], [18.9548797, 47.383642], [18.9536034, 47.3832432], [18.9534771, 47.3828832], [18.9545372, 47.3812114], [18.9553262, 47.3782385], [18.9572236, 47.375829], [18.9623767, 47.3726234], [18.9725816, 47.3807642], [18.9801151, 47.3838027], [18.9947161, 47.3869779], [19.0189473, 47.3900972], [19.0280483, 47.3929094], [19.0339786, 47.3965612], [19.0414142, 47.4065922], [19.045096, 47.415038], [19.0455135, 47.4229454], [19.0477985, 47.4298103], [19.0437521, 47.4305452], [19.0409444, 47.4303945], [19.0403877, 47.4314056], [19.0407277, 47.4332164], [19.0382912, 47.434254], [19.0348976, 47.4389568], [19.0323802, 47.4385041], [19.0322247, 47.4391632], [19.0270822, 47.4415306], [19.0263716, 47.4424967], [19.023947, 47.4440623], [19.0215814, 47.4463008], [19.020041, 47.4470517], [19.0147526, 47.4485436], [19.0122416, 47.4434379], [19.010921, 47.4427273], [19.0106727, 47.4418576], [19.008597, 47.4396675], [19.0047686, 47.431883], [18.999984, 47.4316809], [18.997447, 47.4305407], [18.993843, 47.4282236], [18.9919205, 47.4278919], [18.9781125, 47.4277598], [18.9756688, 47.4286283], [18.9743988, 47.4294941], [18.9697342, 47.4269169], [18.9570469, 47.4185927], [18.9568328, 47.4143328], [18.9614572, 47.4048422], [18.9624741, 47.3993087], [18.9540778, 47.3971046], [18.9521989, 47.3955586], [18.9515303, 47.3939995], [18.9513396, 47.3925554]]]}}, {"type": "Feature", "properties": {"id": 23, "name": "XXIII. kerület"}, "geometry": {"type": "Polygon", "coordinates": [[[19.091441, 47.4281724], [19.0929681, 47.4225323], [19.0943083, 47.4201758], [19.098204, 47.4160335], [19.1001911, 47.412962], [19.1048824, 47.4020461], [19.1080555, 47.3974909], [19.1091427, 47.3947976], [19.1089316, 47.3930568], [19.1077418, 47.3899777], [19.0981731, 47.378676], [19.1018817, 47.3767082], [19.128191, 47.3598382], [19.1336412, 47.3560299], [19.1404776, 47.3496899], [19.1450455, 47.3530824], [19.1507446, 47.3567436], [19.179723, 47.3610728], [19.192576, 47.3739836], [19.1989987, 47.3853659], [19.1801296, 47.3990926], [19.1755111, 47.3960121], [19.1720507, 47.398528], [19.1741851, 47.3999292], [19.1673782, 47.4046541], [19.1732743, 47.4067276], [19.1661928, 47.4118644], [19.1724202, 47.4140477], [19.165457, 47.4195345], [19.1591193, 47.4250626], [19.142725, 47.415869], [19.1299548, 47.4250873], [19.1293886, 47.4250877], [19.1196115, 47.4191221], [19.1247772, 47.4136679], [19.1206332, 47.4115844], [19.1163136, 47.4157503], [19.1181574, 47.4182411], [19.1136756, 47.4220578], [19.1097274, 47.4193763], [19.1086048, 47.4197611], [19.1063162, 47.4218847], [19.104487, 47.4245755], [19.1033989, 47.4271192], [19.1030862, 47.4270874], [19.1033851, 47.4264783], [19.1023184, 47.4261983], [19.1016083, 47.4254813], [19.100878, 47.426252], [19.0996588, 47.4258674], [19.0974147, 47.428149], [19.0979812, 47.428533], [19.0947585, 47.4299122], [19.0916882, 47.4292742], [19.0919967, 47.4283737], [19.091441, 47.4281724]]]}}, {"type": "Feature", "properties": {"id": 1001, "name": "Csobánka"}, "geometry": {"type": "Polygon", "coordinates": [[[18.9092745, 47.6457856], [18.9107832, 47.6451667], [18.9122705, 47.6452841], [18.9140153, 47.6446553], [18.9182703, 47.641856], [18.9194293, 47.6407758], [18.9197515, 47.639843], [18.919479, 47.6397043], [18.9206672, 47.6386139], [18.9218205, 47.638247], [18.9276087, 47.6340485], [18.9330482, 47.6293381], [18.9367162, 47.627516], [18.9434545, 47.6209831], [18.9470722, 47.6193284], [18.9485165, 47.6177939], [18.949281, 47.614843], [18.953876, 47.6111465], [18.9552202, 47.6115395], [18.9578355, 47.6137375], [18.9584964, 47.6152487], [18.9600554, 47.6161743], [18.9620684, 47.6165935], [18.9621665, 47.618671], [18.9633023, 47.6192786], [18.9654025, 47.6197175], [18.966172, 47.6210425], [18.9674095, 47.621157], [18.968673, 47.622054], [18.9689215, 47.62266], [18.9705522, 47.6232892], [18.9756522, 47.6269412], [18.9775246, 47.6276082], [18.979714, 47.6288911], [18.9796368, 47.6308267], [18.9783092, 47.632626], [18.979083, 47.638397], [18.9802498, 47.639091], [18.982523, 47.639661], [18.9836474, 47.6408519], [18.9857466, 47.6419617], [18.9841438, 47.6427386], [18.9821351, 47.6452021], [18.979484, 47.6466771], [18.9787795, 47.6469297], [18.9739515, 47.646762], [18.9738617, 47.6509852], [18.9731071, 47.6515179], [18.9721577, 47.6529024], [18.9744358, 47.6535322], [18.976998, 47.653467], [18.9843329, 47.6517399], [18.9845099, 47.6520443], [18.9826442, 47.6526595], [18.9823233, 47.6531287], [18.9808102, 47.6533448], [18.9817031, 47.6543318], [18.9776911, 47.6560859], [18.9748799, 47.6545599], [18.9739929, 47.65537], [18.9712154, 47.6542792], [18.9709029, 47.6552195], [18.9676903, 47.6551364], [18.9657129, 47.6559731], [18.96369, 47.6562865], [18.9601184, 47.6581303], [18.9580619, 47.6587373], [18.9565377, 47.6603383], [18.9532889, 47.6665479], [18.9472834, 47.6707542], [18.9470706, 47.6724656], [18.9458591, 47.672068], [18.9426525, 47.6697775], [18.9417, 47.6708639], [18.9411793, 47.6724328], [18.9404665, 47.672317], [18.9402429, 47.6734451], [18.9392193, 47.6737835], [18.9391737, 47.6742974], [18.9368543, 47.6754966], [18.9364386, 47.6761874], [18.9353013, 47.6764881], [18.931675, 47.6794967], [18.9276188, 47.6809139], [18.9209025, 47.6844279], [18.919061, 47.6847135], [18.917866, 47.6844275], [18.9163495, 47.68452], [18.9142691, 47.685212], [18.9166975, 47.6793234], [18.9178669, 47.6774958], [18.9200985, 47.6633136], [18.9187789, 47.6566583], [18.9092745, 47.6457856]]]}}]}