{"type": "FeatureCollection", "features": [{"type": "Feature", "properties": {"kind": "egyedi", "name": "Albert utca 7.", "hrsz": "173037", "ref": "2. melléklet 1.", "approx": true, "street": "Albert utca", "number": "7"}, "geometry": {"type": "Point", "coordinates": [19.1127346, 47.4462637]}}, {"type": "Feature", "properties": {"kind": "egyedi", "name": "Alkotmány utca 41.", "hrsz": "176954", "ref": "2. melléklet 2.", "approx": true, "street": "Alkotmány utca", "number": "41"}, "geometry": {"type": "Point", "coordinates": [19.1141215, 47.4337814]}}, {"type": "Feature", "properties": {"kind": "egyedi", "name": "Bádogos utca 51.", "hrsz": "173730", "ref": "2. melléklet 3.", "approx": true, "street": "Bádogos utca", "number": "51"}, "geometry": {"type": "Point", "coordinates": [19.1168352, 47.4433844]}}, {"type": "Feature", "properties": {"kind": "egyedi", "name": "Baross utca 59.", "hrsz": "171078", "ref": "2. melléklet 4.", "approx": true, "street": "Baross utca", "number": "59"}, "geometry": {"type": "Point", "coordinates": [19.1045464, 47.4311155]}}, {"type": "Feature", "properties": {"kind": "egyedi", "name": "Baross utca 78.", "hrsz": "171067", "ref": "2. melléklet 5.", "approx": true, "street": "Baross utca", "number": "78"}, "geometry": {"type": "Point", "coordinates": [19.09706, 47.4382266]}}, {"type": "Feature", "properties": {"kind": "egyedi", "name": "Baross utca 99.", "hrsz": "177641", "ref": "2. melléklet 6.", "approx": false, "street": "Baross utca", "number": "99"}, "geometry": {"type": "Point", "coordinates": [19.1036435, 47.4321318]}}, {"type": "Feature", "properties": {"kind": "egyedi", "name": "Bem utca 21.", "hrsz": "172692", "ref": "2. melléklet 7.", "approx": true, "street": "Bem utca", "number": "21"}, "geometry": {"type": "Point", "coordinates": [19.115468, 47.4395564]}}, {"type": "Feature", "properties": {"kind": "egyedi", "name": "Bethlen utca 6.", "hrsz": "171422", "ref": "2. melléklet 8.", "approx": true, "street": "Bethlen utca", "number": "6"}, "geometry": {"type": "Point", "coordinates": [19.1105925, 47.4368246]}}, {"type": "Feature", "properties": {"kind": "egyedi", "name": "Bocskai utca 12a.", "hrsz": "172431", "ref": "2. melléklet 9.", "approx": true, "street": "Bocskai utca", "number": "12a"}, "geometry": {"type": "Point", "coordinates": [19.1094407, 47.4406351]}}, {"type": "Feature", "properties": {"kind": "egyedi", "name": "Csoma utca 20.", "hrsz": "175389", "ref": "2. melléklet 10.", "approx": false, "street": "Csoma utca", "number": "20"}, "geometry": {"type": "Point", "coordinates": [19.1256557, 47.4429687]}}, {"type": "Feature", "properties": {"kind": "egyedi", "name": "Csoma utca 34.", "hrsz": "175396", "ref": "2. melléklet 11.", "approx": false, "street": "Csoma utca", "number": "34"}, "geometry": {"type": "Point", "coordinates": [19.1268434, 47.4421446]}}, {"type": "Feature", "properties": {"kind": "egyedi", "name": "Csoma utca 60.", "hrsz": "175411", "ref": "2. melléklet 12.", "approx": false, "street": "Csoma utca", "number": "60"}, "geometry": {"type": "Point", "coordinates": [19.1292363, 47.4404333]}}, {"type": "Feature", "properties": {"kind": "egyedi", "name": "Csoma utca 62.", "hrsz": "175412", "ref": "2. melléklet 13.", "approx": false, "street": "Csoma utca", "number": "62"}, "geometry": {"type": "Point", "coordinates": [19.1293547, 47.4403491]}}, {"type": "Feature", "properties": {"kind": "egyedi", "name": "Damjanich utca 47.", "hrsz": "176658", "ref": "2. melléklet 14.", "approx": false, "street": "Damjanich utca", "number": "47"}, "geometry": {"type": "Point", "coordinates": [19.1184842, 47.434612]}}, {"type": "Feature", "properties": {"kind": "egyedi", "name": "Dessewffy utca 48.", "hrsz": "176724", "ref": "2. melléklet 15.", "approx": true, "street": "Dessewffy utca", "number": "48"}, "geometry": {"type": "Point", "coordinates": [19.116402, 47.4375196]}}, {"type": "Feature", "properties": {"kind": "egyedi", "name": "Dobos utca 17.", "hrsz": "171463", "ref": "2. melléklet 16.", "approx": true, "street": "Dobos utca", "number": "17"}, "geometry": {"type": "Point", "coordinates": [19.1139975, 47.4395396]}}, {"type": "Feature", "properties": {"kind": "egyedi", "name": "Dobos utca 19.", "hrsz": "171464", "ref": "2. melléklet 17.", "approx": true, "street": "Dobos utca", "number": "19"}, "geometry": {"type": "Point", "coordinates": [19.1139975, 47.4395396]}}, {"type": "Feature", "properties": {"kind": "egyedi", "name": "Emília utca 11.", "hrsz": "172026", "ref": "2. melléklet 18.", "approx": false, "street": "Emília utca", "number": "11"}, "geometry": {"type": "Point", "coordinates": [19.1052594, 47.4438184]}}, {"type": "Feature", "properties": {"kind": "egyedi", "name": "Eötvös utca 16.", "hrsz": "171928", "ref": "2. melléklet 19.", "approx": true, "street": "Eötvös utca", "number": "16"}, "geometry": {"type": "Point", "coordinates": [19.1047502, 47.445772]}}, {"type": "Feature", "properties": {"kind": "egyedi", "name": "Erdő utca 6.", "hrsz": "171674", "ref": "2. melléklet 20.", "approx": false, "street": "Erdő utca", "number": "6"}, "geometry": {"type": "Point", "coordinates": [19.1001231, 47.4449741]}}, {"type": "Feature", "properties": {"kind": "egyedi", "name": "Frangepán utca 113.", "hrsz": "179773", "ref": "2. melléklet 21.", "approx": true, "street": "Frangepán utca", "number": "113"}, "geometry": {"type": "Point", "coordinates": [19.117335, 47.4208743]}}, {"type": "Feature", "properties": {"kind": "egyedi", "name": "Gábor utca 11.", "hrsz": "172154", "ref": "2. melléklet 22.", "approx": true, "street": "Gábor utca", "number": "11"}, "geometry": {"type": "Point", "coordinates": [19.1085516, 47.4444463]}}, {"type": "Feature", "properties": {"kind": "egyedi", "name": "Gólya utca 2.", "hrsz": "171577", "ref": "2. melléklet 23.", "approx": true, "street": "Gólya utca", "number": "2"}, "geometry": {"type": "Point", "coordinates": [19.1048178, 47.441252]}}, {"type": "Feature", "properties": {"kind": "egyedi", "name": "Hitel Márton utca 14.", "hrsz": "173125", "ref": "2. melléklet 24.", "approx": true, "street": "Hitel Márton utca", "number": "14"}, "geometry": {"type": "Point", "coordinates": [19.110493, 47.4478383]}}, {"type": "Feature", "properties": {"kind": "egyedi", "name": "Hitel Márton utca 16.", "hrsz": "173124", "ref": "2. melléklet 25.", "approx": true, "street": "Hitel Márton utca", "number": "16"}, "geometry": {"type": "Point", "coordinates": [19.110493, 47.4478383]}}, {"type": "Feature", "properties": {"kind": "egyedi", "name": "Hosszú utca 12.", "hrsz": "172303", "ref": "2. melléklet 26.", "approx": true, "street": "Hosszú utca", "number": "12"}, "geometry": {"type": "Point", "coordinates": [19.1132919, 47.4458832]}}, {"type": "Feature", "properties": {"kind": "egyedi", "name": "Hosszú utca 46.", "hrsz": "172338", "ref": "2. melléklet 27.", "approx": true, "street": "Hosszú utca", "number": "46"}, "geometry": {"type": "Point", "coordinates": [19.1132919, 47.4458832]}}, {"type": "Feature", "properties": {"kind": "egyedi", "name": "Hosszú utca 47.", "hrsz": "172280", "ref": "2. melléklet 28.", "approx": true, "street": "Hosszú utca", "number": "47"}, "geometry": {"type": "Point", "coordinates": [19.1132919, 47.4458832]}}, {"type": "Feature", "properties": {"kind": "egyedi", "name": "Hosszú utca 50.", "hrsz": "172340", "ref": "2. melléklet 29.", "approx": true, "street": "Hosszú utca", "number": "50"}, "geometry": {"type": "Point", "coordinates": [19.1132919, 47.4458832]}}, {"type": "Feature", "properties": {"kind": "egyedi", "name": "Hosszú utca 62.", "hrsz": "172999", "ref": "2. melléklet 30.", "approx": false, "street": "Hosszú utca", "number": "62"}, "geometry": {"type": "Point", "coordinates": [19.1117925, 47.4446939]}}, {"type": "Feature", "properties": {"kind": "egyedi", "name": "Hosszú utca 121.", "hrsz": "174707", "ref": "2. melléklet 31.", "approx": true, "street": "Hosszú utca", "number": "121"}, "geometry": {"type": "Point", "coordinates": [19.1132919, 47.4458832]}}, {"type": "Feature", "properties": {"kind": "egyedi", "name": "Ilona utca 15.", "hrsz": "172212", "ref": "2. melléklet 32.", "approx": true, "street": "Ilona utca", "number": "15"}, "geometry": {"type": "Point", "coordinates": [19.1090937, 47.4440742]}}, {"type": "Feature", "properties": {"kind": "egyedi", "name": "János utca 77.", "hrsz": "171990", "ref": "2. melléklet 33.", "approx": true, "street": "János utca", "number": "77"}, "geometry": {"type": "Point", "coordinates": [19.1048702, 47.4430741]}}, {"type": "Feature", "properties": {"kind": "egyedi", "name": "Jókai Mór utca 38.", "hrsz": "172120", "ref": "2. melléklet 34.", "approx": true, "street": "Jókai Mór utca", "number": "38"}, "geometry": {"type": "Point", "coordinates": [19.1130271, 47.4428466]}}, {"type": "Feature", "properties": {"kind": "egyedi", "name": "Jókai Mór utca 69.", "hrsz": "172942", "ref": "2. melléklet 35.", "approx": false, "street": "Jókai Mór utca", "number": "69"}, "geometry": {"type": "Point", "coordinates": [19.1127559, 47.4433556]}}, {"type": "Feature", "properties": {"kind": "egyedi", "name": "Klapka utca 97.", "hrsz": "176617", "ref": "2. melléklet 38.", "approx": true, "street": "Klapka utca", "number": "97"}, "geometry": {"type": "Point", "coordinates": [19.1111489, 47.4285397]}}, {"type": "Feature", "properties": {"kind": "egyedi", "name": "Kossuth Lajos utca 18.", "hrsz": "171038", "ref": "2. melléklet 39.", "approx": false, "street": "Kossuth Lajos utca", "number": "18"}, "geometry": {"type": "Point", "coordinates": [19.0991925, 47.4354521]}}, {"type": "Feature", "properties": {"kind": "egyedi", "name": "Kossuth Lajos utca 35.", "hrsz": "170204/82", "ref": "2. melléklet 40.", "approx": false, "street": "Kossuth Lajos utca", "number": "35"}, "geometry": {"type": "Point", "coordinates": [19.1030329, 47.4381319]}}, {"type": "Feature", "properties": {"kind": "egyedi", "name": "Kossuth Lajos u. 37/a.", "hrsz": "170204/79", "ref": "2. melléklet 40a.", "approx": true, "street": "Kossuth Lajos u.", "number": "37/a"}, "geometry": {"type": "Point", "coordinates": [19.102591, 47.4375655]}}, {"type": "Feature", "properties": {"kind": "egyedi", "name": "Kossuth Lajos utca 49.", "hrsz": "170442", "ref": "2. melléklet 41.", "approx": false, "street": "Kossuth Lajos utca", "number": "49"}, "geometry": {"type": "Point", "coordinates": [19.105148, 47.439193]}}, {"type": "Feature", "properties": {"kind": "egyedi", "name": "Kossuthfalva utca 14.", "hrsz": "175290", "ref": "2. melléklet 42.", "approx": false, "street": "Kossuthfalva utca", "number": "14"}, "geometry": {"type": "Point", "coordinates": [19.1263901, 47.4436357]}}, {"type": "Feature", "properties": {"kind": "egyedi", "name": "Kölcsey utca 21.", "hrsz": "176118", "ref": "2. melléklet 43.", "approx": false, "street": "Kölcsey utca", "number": "21"}, "geometry": {"type": "Point", "coordinates": [19.1212939, 47.4403507]}}, {"type": "Feature", "properties": {"kind": "egyedi", "name": "Kövező utca 12.", "hrsz": "171489", "ref": "2. melléklet 44.", "approx": false, "street": "Kövező utca", "number": "12"}, "geometry": {"type": "Point", "coordinates": [19.1087404, 47.4386581]}}, {"type": "Feature", "properties": {"kind": "egyedi", "name": "Lázár utca 20.", "hrsz": "176242", "ref": "2. melléklet 45.", "approx": false, "street": "Lázár utca", "number": "20"}, "geometry": {"type": "Point", "coordinates": [19.1199026, 47.438081]}}, {"type": "Feature", "properties": {"kind": "egyedi", "name": "Mártírok útja 39.", "hrsz": "174216", "ref": "2. melléklet 45a.", "approx": false, "street": "Mártírok útja", "number": "39"}, "geometry": {"type": "Point", "coordinates": [19.1143828, 47.4484938]}}, {"type": "Feature", "properties": {"kind": "egyedi", "name": "Mártírok útja 47.", "hrsz": "174157", "ref": "2. melléklet 45b.", "approx": false, "street": "Mártírok útja", "number": "47"}, "geometry": {"type": "Point", "coordinates": [19.1154701, 47.4477422]}}, {"type": "Feature", "properties": {"kind": "egyedi", "name": "Mártonffy utca 29.", "hrsz": "173840", "ref": "2. melléklet 46.", "approx": false, "street": "Mártonffy utca", "number": "29"}, "geometry": {"type": "Point", "coordinates": [19.1189268, 47.4421318]}}, {"type": "Feature", "properties": {"kind": "egyedi", "name": "Mikszáth utca 6.", "hrsz": "172778", "ref": "2. melléklet 47.", "approx": false, "street": "Mikszáth utca", "number": "6"}, "geometry": {"type": "Point", "coordinates": [19.116388, 47.4410385]}}, {"type": "Feature", "properties": {"kind": "egyedi", "name": "Mikszáth utca 8.", "hrsz": "172777", "ref": "2. melléklet 48.", "approx": false, "street": "Mikszáth utca", "number": "8"}, "geometry": {"type": "Point", "coordinates": [19.1166804, 47.4411921]}}, {"type": "Feature", "properties": {"kind": "egyedi", "name": "Nagysándor József utca 61.", "hrsz": "171398", "ref": "2. melléklet 49.", "approx": true, "street": "Nagysándor József utca", "number": "61"}, "geometry": {"type": "Point", "coordinates": [19.1026515, 47.4319277]}}, {"type": "Feature", "properties": {"kind": "egyedi", "name": "Nagysándor József utca 76.", "hrsz": "176780", "ref": "2. melléklet 50.", "approx": true, "street": "Nagysándor József utca", "number": "76"}, "geometry": {"type": "Point", "coordinates": [19.1026515, 47.4319277]}}, {"type": "Feature", "properties": {"kind": "egyedi", "name": "Nagysándor József utca 102.", "hrsz": "176178", "ref": "2. melléklet 51.", "approx": false, "street": "Nagysándor József utca", "number": "102"}, "geometry": {"type": "Point", "coordinates": [19.1162056, 47.4390162]}}, {"type": "Feature", "properties": {"kind": "egyedi", "name": "Nagysándor József utca 117.", "hrsz": "172721", "ref": "2. melléklet 52.", "approx": true, "street": "Nagysándor József utca", "number": "117"}, "geometry": {"type": "Point", "coordinates": [19.1026515, 47.4319277]}}, {"type": "Feature", "properties": {"kind": "egyedi", "name": "Ősz utca 15.", "hrsz": "171891", "ref": "2. melléklet 53.", "approx": false, "street": "Ősz utca", "number": "15"}, "geometry": {"type": "Point", "coordinates": [19.1026202, 47.4444266]}}, {"type": "Feature", "properties": {"kind": "egyedi", "name": "Pannónia utca 22.", "hrsz": "174022", "ref": "2. melléklet 54.", "approx": true, "street": "Pannónia utca", "number": "22"}, "geometry": {"type": "Point", "coordinates": [19.1206724, 47.4470613]}}, {"type": "Feature", "properties": {"kind": "egyedi", "name": "Perczel Mór utca 15.", "hrsz": "176143", "ref": "2. melléklet 55.", "approx": false, "street": "Perczel Mór utca", "number": "15"}, "geometry": {"type": "Point", "coordinates": [19.1195074, 47.4404325]}}, {"type": "Feature", "properties": {"kind": "egyedi", "name": "Pirók Gyula utca 28.", "hrsz": "176068", "ref": "2. melléklet 56.", "approx": true, "street": "Pirók Gyula utca", "number": "28"}, "geometry": {"type": "Point", "coordinates": [19.1252645, 47.4377293]}}, {"type": "Feature", "properties": {"kind": "egyedi", "name": "Rákóczi utca 25.", "hrsz": "171937", "ref": "2. melléklet 57.", "approx": false, "street": "Rákóczi utca", "number": "25"}, "geometry": {"type": "Point", "coordinates": [19.1045085, 47.4447477]}}, {"type": "Feature", "properties": {"kind": "egyedi", "name": "Rákóczi utca 27.", "hrsz": "171936", "ref": "2. melléklet 58.", "approx": false, "street": "Rákóczi utca", "number": "27"}, "geometry": {"type": "Point", "coordinates": [19.1046265, 47.4448348]}}, {"type": "Feature", "properties": {"kind": "egyedi", "name": "Rákóczi utca 31a.", "hrsz": "171934", "ref": "2. melléklet 59.", "approx": false, "street": "Rákóczi utca", "number": "31a"}, "geometry": {"type": "Point", "coordinates": [19.1050127, 47.4450942]}}, {"type": "Feature", "properties": {"kind": "egyedi", "name": "Rákóczi utca 31b.", "hrsz": "172069", "ref": "2. melléklet 60.", "approx": true, "street": "Rákóczi utca", "number": "31b"}, "geometry": {"type": "Point", "coordinates": [19.1145655, 47.4512819]}}, {"type": "Feature", "properties": {"kind": "egyedi", "name": "Rákóczi utca 37.", "hrsz": "172065", "ref": "2. melléklet 61.", "approx": false, "street": "Rákóczi utca", "number": "37"}, "geometry": {"type": "Point", "coordinates": [19.1058603, 47.4456456]}}, {"type": "Feature", "properties": {"kind": "egyedi", "name": "Sas utca 26.", "hrsz": "172794", "ref": "2. melléklet 62.", "approx": true, "street": "Sas utca", "number": "26"}, "geometry": {"type": "Point", "coordinates": [19.117598, 47.4428427]}}, {"type": "Feature", "properties": {"kind": "egyedi", "name": "Sárrét utca 6.", "hrsz": "172110", "ref": "2. melléklet 63.", "approx": false, "street": "Sárrét utca", "number": "6"}, "geometry": {"type": "Point", "coordinates": [19.1066033, 47.4448747]}}, {"type": "Feature", "properties": {"kind": "egyedi", "name": "Sebestyén utca 7.", "hrsz": "172315", "ref": "2. melléklet 64.", "approx": true, "street": "Sebestyén utca", "number": "7"}, "geometry": {"type": "Point", "coordinates": [19.1082929, 47.4414636]}}, {"type": "Feature", "properties": {"kind": "egyedi", "name": "Sebestyén utca 24.", "hrsz": "172378", "ref": "2. melléklet 65.", "approx": false, "street": "Sebestyén utca", "number": "24"}, "geometry": {"type": "Point", "coordinates": [19.1091988, 47.442002]}}, {"type": "Feature", "properties": {"kind": "egyedi", "name": "Szabadság utca 63.", "hrsz": "176847", "ref": "2. melléklet 66.", "approx": true, "street": "Szabadság utca", "number": "63"}, "geometry": {"type": "Point", "coordinates": [19.1154691, 47.4337649]}}, {"type": "Feature", "properties": {"kind": "egyedi", "name": "Székelyhíd utca 8.", "hrsz": "177255", "ref": "2. melléklet 67.", "approx": false, "street": "Székelyhíd utca", "number": "8"}, "geometry": {"type": "Point", "coordinates": [19.1148914, 47.4303585]}}, {"type": "Feature", "properties": {"kind": "egyedi", "name": "Szent Erzsébet tér 6.", "hrsz": "171531", "ref": "2. melléklet 68.", "approx": false, "street": "Szent Erzsébet tér", "number": "6"}, "geometry": {"type": "Point", "coordinates": [19.1077406, 47.4396576]}}, {"type": "Feature", "properties": {"kind": "egyedi", "name": "Szent Erzsébet tér 7.", "hrsz": "171532", "ref": "2. melléklet 69.", "approx": false, "street": "Szent Erzsébet tér", "number": "7"}, "geometry": {"type": "Point", "coordinates": [19.1077562, 47.4397498]}}, {"type": "Feature", "properties": {"kind": "egyedi", "name": "Szent Imre herceg utca 6.", "hrsz": "171964", "ref": "2. melléklet 70.", "approx": true, "street": "Szent Imre herceg utca", "number": "6"}, "geometry": {"type": "Point", "coordinates": [19.1056955, 47.4417068]}}, {"type": "Feature", "properties": {"kind": "egyedi", "name": "Szent Imre herceg utca 41.", "hrsz": "172408", "ref": "2. melléklet 71.", "approx": true, "street": "Szent Imre herceg utca", "number": "41"}, "geometry": {"type": "Point", "coordinates": [19.1056955, 47.4417068]}}, {"type": "Feature", "properties": {"kind": "egyedi", "name": "Szent Imre herceg utca 47.", "hrsz": "172438", "ref": "2. melléklet 72.", "approx": false, "street": "Szent Imre herceg utca", "number": "47"}, "geometry": {"type": "Point", "coordinates": [19.1087436, 47.4396493]}}, {"type": "Feature", "properties": {"kind": "egyedi", "name": "Szent Imre herceg utca 56.", "hrsz": "171486", "ref": "2. melléklet 73.", "approx": true, "street": "Szent Imre herceg utca", "number": "56"}, "geometry": {"type": "Point", "coordinates": [19.1056955, 47.4417068]}}, {"type": "Feature", "properties": {"kind": "egyedi", "name": "Szent Imre herceg utca 75.", "hrsz": "172651", "ref": "2. melléklet 74.", "approx": false, "street": "Szent Imre herceg utca", "number": "75"}, "geometry": {"type": "Point", "coordinates": [19.1120539, 47.4373957]}}, {"type": "Feature", "properties": {"kind": "egyedi", "name": "Szent Imre herceg utca 81a.", "hrsz": "176785", "ref": "2. melléklet 75.", "approx": true, "street": "Szent Imre herceg utca", "number": "81a"}, "geometry": {"type": "Point", "coordinates": [19.1056955, 47.4417068]}}, {"type": "Feature", "properties": {"kind": "egyedi", "name": "Szent Lajos tér 1. – templom", "hrsz": "176641", "ref": "2. melléklet 76.", "approx": true, "street": "Szent Lajos tér", "number": "1"}, "geometry": {"type": "Point", "coordinates": [19.1187566, 47.4343509]}}, {"type": "Feature", "properties": {"kind": "egyedi", "name": "Tátra tér – Élmunkás ltp.", "hrsz": "172539/1, 172539/2, 172539/3, 72539/4, 72539/5, 172539/6", "ref": "2. melléklet 77.", "approx": false, "street": null, "number": null}, "geometry": {"type": "Point", "coordinates": [19.1140543, 47.4405556]}}, {"type": "Feature", "properties": {"kind": "egyedi", "name": "Téglagyár tér 4.", "hrsz": "170013/7", "ref": "2. melléklet 78.", "approx": false, "street": "Téglagyár tér", "number": "4"}, "geometry": {"type": "Point", "coordinates": [19.0923234, 47.4349981]}}, {"type": "Feature", "properties": {"kind": "egyedi", "name": "Thököly utca 11.", "hrsz": "173113", "ref": "2. melléklet 79.", "approx": true, "street": "Thököly utca", "number": "11"}, "geometry": {"type": "Point", "coordinates": [19.1101045, 47.4465047]}}, {"type": "Feature", "properties": {"kind": "egyedi", "name": "Török Flóris utca 43.", "hrsz": "171627", "ref": "2. melléklet 80.", "approx": true, "street": "Török Flóris utca", "number": "43"}, "geometry": {"type": "Point", "coordinates": [19.1007949, 47.4433704]}}, {"type": "Feature", "properties": {"kind": "egyedi", "name": "Vas Gereben utca 21.", "hrsz": "172345", "ref": "2. melléklet 81.", "approx": false, "street": "Vas Gereben utca", "number": "21"}, "geometry": {"type": "Point", "coordinates": [19.1112145, 47.4437583]}}, {"type": "Feature", "properties": {"kind": "egyedi", "name": "Vécsey utca 3.", "hrsz": "172716", "ref": "2. melléklet 82.", "approx": true, "street": "Vécsey utca", "number": "3"}, "geometry": {"type": "Point", "coordinates": [19.1178444, 47.4365641]}}, {"type": "Feature", "properties": {"kind": "egyedi", "name": "Vécsey utca 8.", "hrsz": "176767", "ref": "2. melléklet 83.", "approx": true, "street": "Vécsey utca", "number": "8"}, "geometry": {"type": "Point", "coordinates": [19.1207922, 47.433991]}}, {"type": "Feature", "properties": {"kind": "egyedi", "name": "Vécsey utca 12.", "hrsz": "176765", "ref": "2. melléklet 84.", "approx": true, "street": "Vécsey utca", "number": "12"}, "geometry": {"type": "Point", "coordinates": [19.1237494, 47.4316393]}}, {"type": "Feature", "properties": {"kind": "egyedi", "name": "Vécsey utca 34.", "hrsz": "176652", "ref": "2. melléklet 85.", "approx": true, "street": "Vécsey utca", "number": "34"}, "geometry": {"type": "Point", "coordinates": [19.1207922, 47.433991]}}, {"type": "Feature", "properties": {"kind": "egyedi", "name": "Vízisport utca 2.", "hrsz": "170023", "ref": "2. melléklet 87.", "approx": false, "street": "Vízisport utca", "number": "2"}, "geometry": {"type": "Point", "coordinates": [19.0903721, 47.4344261]}}, {"type": "Feature", "properties": {"kind": "egyedi", "name": "Vörösmarty utca 36.", "hrsz": "177533", "ref": "2. melléklet 88.", "approx": false, "street": "Vörösmarty utca", "number": "36"}, "geometry": {"type": "Point", "coordinates": [19.1059753, 47.4334441]}}, {"type": "Feature", "properties": {"kind": "egyedi", "name": "Zalán utca 14.", "hrsz": "175548", "ref": "2. melléklet 89.", "approx": false, "street": "Zalán utca", "number": "14"}, "geometry": {"type": "Point", "coordinates": [19.1235744, 47.4425947]}}, {"type": "Feature", "properties": {"kind": "egyedi", "name": "Zalán utca 50.", "hrsz": "175571", "ref": "2. melléklet 90.", "approx": false, "street": "Zalán utca", "number": "50"}, "geometry": {"type": "Point", "coordinates": [19.1271758, 47.4401128]}}, {"type": "Feature", "properties": {"kind": "egyedi", "name": "Zrínyi utca 15.", "hrsz": "171745", "ref": "2. melléklet 91.", "approx": true, "street": "Zrínyi utca", "number": "15"}, "geometry": {"type": "Point", "coordinates": [19.1036465, 47.4465307]}}, {"type": "Feature", "properties": {"kind": "VU", "name": "Szent Imre herceg utca – János utcától a Rákóczi utcáig", "ref": "VU-1", "side": null}, "geometry": {"type": "MultiLineString", "coordinates": [[[19.1042771, 47.4427004], [19.1036961, 47.443108]], [[19.1036961, 47.443108], [19.102965, 47.4436138]]]}}, {"type": "Feature", "properties": {"kind": "VU", "name": "Rákóczi utca – Szent Imre herceg utcától Kende Kanuth utcáig", "ref": "VU-2", "side": null}, "geometry": {"type": "MultiLineString", "coordinates": [[[19.102965, 47.4436138], [19.1041083, 47.4443789]], [[19.1041083, 47.4443789], [19.1053096, 47.4451726]], [[19.1053096, 47.4451726], [19.1076331, 47.4466673]]]}}, {"type": "Feature", "properties": {"kind": "VU", "name": "Hosszú utca – Kende Kanuth utcától Szent Imre herceg utcáig", "ref": "VU-3", "side": null}, "geometry": {"type": "MultiLineString", "coordinates": [[[19.1086401, 47.4428221], [19.1085979, 47.4427939]], [[19.1085979, 47.4427939], [19.1063166, 47.4412694]]]}}, {"type": "Feature", "properties": {"kind": "VU", "name": "Vécsey utca – Nagysándor József utcától a Dessewffy utcáig", "ref": "VU-4", "side": null}, "geometry": {"type": "MultiLineString", "coordinates": [[[19.1154138, 47.4387046], [19.1154384, 47.4386876]], [[19.1154384, 47.4386876], [19.1166045, 47.4376562]], [[19.1166045, 47.4376562], [19.1166461, 47.4376203]]]}}, {"type": "Feature", "properties": {"kind": "VU", "name": "Nagy Győri István utca – Zilah utcától Madách utcáig", "ref": "VU-5", "side": null}, "geometry": {"type": "MultiLineString", "coordinates": [[[19.1055957, 47.4320393], [19.1046081, 47.4329709]]]}}, {"type": "Feature", "properties": {"kind": "VU", "name": "Téglagyártó út, Téglagyártó tér", "ref": "VU-6", "side": null}, "geometry": {"type": "MultiLineString", "coordinates": [[[19.0917917, 47.4346071], [19.0918364, 47.4347889]], [[19.0918364, 47.4347889], [19.0918743, 47.4348168]], [[19.0918743, 47.4348168], [19.0919772, 47.4348501]], [[19.0919772, 47.4348501], [19.0920374, 47.4348684]], [[19.0920374, 47.4348684], [19.0927123, 47.4350178]], [[19.0927123, 47.4350178], [19.0928728, 47.4350817]]]}}, {"type": "Feature", "properties": {"kind": "VU", "name": "Kossuth Lajos utca páratlan oldal – Ady Endre utcától Kossuth Lajos térig", "ref": "VU-7", "side": "páratlan"}, "geometry": {"type": "MultiLineString", "coordinates": [[[19.1044442, 47.4386256], [19.1044031, 47.438603]], [[19.1044031, 47.438603], [19.1035391, 47.438108]], [[19.1035391, 47.438108], [19.1034041, 47.4380306]], [[19.1034041, 47.4380306], [19.1026632, 47.4376068]], [[19.1026632, 47.4376068], [19.102445, 47.437482]], [[19.102445, 47.437482], [19.1023319, 47.4374173]], [[19.1023319, 47.4374173], [19.1020935, 47.4372809]], [[19.1020935, 47.4372809], [19.1020422, 47.4372516]], [[19.1020422, 47.4372516], [19.1019606, 47.4372049]], [[19.1019606, 47.4372049], [19.1016409, 47.4370303]], [[19.1016409, 47.4370303], [19.1013798, 47.4368876]], [[19.1013798, 47.4368876], [19.1012939, 47.4368407]], [[19.1012939, 47.4368407], [19.1010559, 47.4367107]], [[19.1010559, 47.4367107], [19.1008854, 47.4366169]], [[19.1008854, 47.4366169], [19.1007856, 47.436562]], [[19.1007856, 47.436562], [19.1007772, 47.4365396]], [[19.1007772, 47.4365396], [19.1007613, 47.4364971]], [[19.1193383, 47.4479945], [19.1170459, 47.4465068]]]}}, {"type": "Feature", "properties": {"kind": "VU", "name": "Ady Endre utca páratlan oldal Kossuth Lajos utcától Berkenye sétányig", "ref": "VU-8", "side": "páratlan"}, "geometry": {"type": "MultiLineString", "coordinates": [[[19.1049192, 47.4382164], [19.1065214, 47.4369049]]]}}, {"type": "Feature", "properties": {"kind": "VU", "name": "Sebestyén utca – egész", "ref": "VU-9", "side": null}, "geometry": {"type": "MultiLineString", "coordinates": [[[19.1094669, 47.442239], [19.1094031, 47.4422004]], [[19.1094031, 47.4422004], [19.1085916, 47.4416684]], [[19.1085916, 47.4416684], [19.1079118, 47.4412023]], [[19.1079118, 47.4412023], [19.1072238, 47.4407523]], [[19.1072238, 47.4407523], [19.1071841, 47.4407269]], [[19.1071841, 47.4407269], [19.1071663, 47.4406532]]]}}, {"type": "Feature", "properties": {"kind": "VU", "name": "Jókai utca Határ úttól – Kossuth Lajos utcáig", "ref": "VU-10", "side": null}, "geometry": {"type": "MultiLineString", "coordinates": [[[19.1122729, 47.4433747], [19.1122162, 47.4434139]], [[19.1122162, 47.4434139], [19.1121139, 47.4434889]], [[19.1121139, 47.4434889], [19.1116581, 47.443823]], [[19.1116581, 47.443823], [19.1109166, 47.4443505]], [[19.1109166, 47.4443505], [19.1103897, 47.4447141]], [[19.1103897, 47.4447141], [19.110251, 47.4448113]], [[19.110251, 47.4448113], [19.1099159, 47.4450511]], [[19.1099159, 47.4450511], [19.1096924, 47.4452004]], [[19.1096924, 47.4452004], [19.1093926, 47.4454209]], [[19.1093926, 47.4454209], [19.1091674, 47.4455811]], [[19.1091674, 47.4455811], [19.1089187, 47.4457491]], [[19.1089187, 47.4457491], [19.1084672, 47.446066]], [[19.1084672, 47.446066], [19.1081411, 47.4463]], [[19.1081411, 47.4463], [19.1076331, 47.4466673]], [[19.1076331, 47.4466673], [19.107158, 47.4469973]], [[19.107158, 47.4469973], [19.1068687, 47.4471961]], [[19.1068687, 47.4471961], [19.106546, 47.4474409]], [[19.106546, 47.4474409], [19.1059066, 47.447885]], [[19.1059066, 47.447885], [19.105799, 47.4479618]], [[19.105799, 47.4479618], [19.1054164, 47.4482248]], [[19.1054164, 47.4482248], [19.1049851, 47.4485215]], [[19.1049851, 47.4485215], [19.1048502, 47.4486163]], [[19.1048502, 47.4486163], [19.1046095, 47.448779]], [[19.1046095, 47.448779], [19.1045236, 47.4488411]]]}}, {"type": "Feature", "properties": {"kind": "VU", "name": "Dobos utca – Kende Kanuth utcától Jókai Mór utcáig", "ref": "VU-12", "side": null}, "geometry": {"type": "MultiLineString", "coordinates": [[[19.113618, 47.4392768], [19.1136838, 47.4393227]], [[19.1136838, 47.4393227], [19.1142353, 47.4397041]], [[19.1142353, 47.4397041], [19.1152656, 47.440409]], [[19.1152656, 47.440409], [19.115791, 47.44077]], [[19.115791, 47.44077], [19.1158431, 47.440807]], [[19.1158431, 47.440807], [19.1158879, 47.4408396]]]}}, {"type": "Feature", "properties": {"kind": "VU", "name": "Kossuth Lajos utca Nagy Győri István utca – Török Flóris utca közötti szakasza", "ref": "VU-13", "side": null}, "geometry": {"type": "MultiLineString", "coordinates": [[[19.1057364, 47.4393657], [19.105673, 47.4393297]], [[19.105673, 47.4393297], [19.1056506, 47.4393175]], [[19.1056506, 47.4393175], [19.1049365, 47.4389116]], [[19.1049365, 47.4389116], [19.1045215, 47.4386705]], [[19.1045215, 47.4386705], [19.1045062, 47.4386616]], [[19.1045062, 47.4386616], [19.1044442, 47.4386256]], [[19.1007613, 47.4364971], [19.1007153, 47.4364737]], [[19.1007153, 47.4364737], [19.1006751, 47.4364513]], [[19.1006751, 47.4364513], [19.1006422, 47.4364329]], [[19.1006422, 47.4364329], [19.0995673, 47.4358198]]]}}, {"type": "Feature", "properties": {"kind": "VU", "name": "Baross utca 99-103.", "ref": "VU-11"}, "geometry": {"type": "Point", "coordinates": [19.1036435, 47.4321318]}}, {"type": "Feature", "properties": {"kind": "VU", "name": "Baross utca 99-103.", "ref": "VU-11"}, "geometry": {"type": "Point", "coordinates": [19.1045464, 47.4311155]}}, {"type": "Feature", "properties": {"kind": "VU", "name": "Baross utca 99-103.", "ref": "VU-11"}, "geometry": {"type": "Point", "coordinates": [19.1045464, 47.4311155]}}, {"type": "Feature", "properties": {"kind": "TSZ", "name": "Topánka utca – Jókai Mór utca – Nagysándor József utca – Baross utca által határolt terület", "ref": "TSZ"}, "geometry": {"type": "Polygon", "coordinates": [[[19.1065435, 47.4411816], [19.1173617, 47.4400404], [19.1032792, 47.4322858], [19.0973412, 47.4382231], [19.1065435, 47.4411816]]]}}]}