{"type": "FeatureCollection", "features": [{"type": "Feature", "properties": {"code": "BF/Vt-V/101", "reg": "ix-kesz", "conf": 0.999}, "geometry": {"type": "Point", "coordinates": [19.0631717, 47.488021]}}, {"type": "Feature", "properties": {"code": "BF/Vt-V/116", "reg": "ix-kesz", "conf": 0.999}, "geometry": {"type": "Point", "coordinates": [19.0633395, 47.4854942]}}, {"type": "Feature", "properties": {"code": "BF/Vt-V/114/2", "reg": "ix-kesz", "conf": 0.999}, "geometry": {"type": "Point", "coordinates": [19.0667336, 47.4862558]}}, {"type": "Feature", "properties": {"code": "BF/Vt-V/119", "reg": "ix-kesz", "conf": 0.998}, "geometry": {"type": "Point", "coordinates": [19.0680605, 47.4857971]}}, {"type": "Feature", "properties": {"code": "BF/Vt-V/121", "reg": "ix-kesz", "conf": 0.998}, "geometry": {"type": "Point", "coordinates": [19.0645622, 47.4835936]}}, {"type": "Feature", "properties": {"code": "BF/Vt-V/K", "reg": "ix-kesz", "conf": 0.997}, "geometry": {"type": "Point", "coordinates": [19.0652146, 47.4854219]}}, {"type": "Feature", "properties": {"code": "BF/Vt-V/K", "reg": "ix-kesz", "conf": 0.997}, "geometry": {"type": "Point", "coordinates": [19.0662258, 47.4843933]}}, {"type": "Feature", "properties": {"code": "KF/Ln-1/K", "reg": "ix-kesz", "conf": 0.997}, "geometry": {"type": "Point", "coordinates": [19.0732153, 47.4823219]}}, {"type": "Feature", "properties": {"code": "BF/Vt-V/118", "reg": "ix-kesz", "conf": 0.996}, "geometry": {"type": "Point", "coordinates": [19.0615902, 47.4846668]}}, {"type": "Feature", "properties": {"code": "BF/Vt-V/K", "reg": "ix-kesz", "conf": 0.996}, "geometry": {"type": "Point", "coordinates": [19.0670208, 47.4853988]}}, {"type": "Feature", "properties": {"code": "BF/Vt-V/K", "reg": "ix-kesz", "conf": 0.996}, "geometry": {"type": "Point", "coordinates": [19.0651123, 47.4837258]}}, {"type": "Feature", "properties": {"code": "KF/Vt-V/K", "reg": "ix-kesz", "conf": 0.996}, "geometry": {"type": "Point", "coordinates": [19.0710209, 47.4832042]}}, {"type": "Feature", "properties": {"code": "KF/Vt-V/K", "reg": "ix-kesz", "conf": 0.996}, "geometry": {"type": "Point", "coordinates": [19.0693154, 47.4822098]}}, {"type": "Feature", "properties": {"code": "BF/Vt-V/KK", "reg": "ix-kesz", "conf": 0.995}, "geometry": {"type": "Point", "coordinates": [19.0591441, 47.4863994]}}, {"type": "Feature", "properties": {"code": "BF/Vt-V/KK", "reg": "ix-kesz", "conf": 0.995}, "geometry": {"type": "Point", "coordinates": [19.0583957, 47.485976]}}, {"type": "Feature", "properties": {"code": "ZKk/1", "reg": "ix-kesz", "conf": 0.995}, "geometry": {"type": "Point", "coordinates": [19.0601304, 47.4862166]}}, {"type": "Feature", "properties": {"code": "BF/Vt-V/K", "reg": "ix-kesz", "conf": 0.994}, "geometry": {"type": "Point", "coordinates": [19.0596444, 47.4874769]}}, {"type": "Feature", "properties": {"code": "BF/Vt-V/K", "reg": "ix-kesz", "conf": 0.994}, "geometry": {"type": "Point", "coordinates": [19.061194, 47.4851066]}}, {"type": "Feature", "properties": {"code": "BF/Vt-V/K", "reg": "ix-kesz", "conf": 0.994}, "geometry": {"type": "Point", "coordinates": [19.0649432, 47.4859043]}}, {"type": "Feature", "properties": {"code": "BF/Vt-V/K", "reg": "ix-kesz", "conf": 0.994}, "geometry": {"type": "Point", "coordinates": [19.0675116, 47.4844766]}}, {"type": "Feature", "properties": {"code": "Köu-Fk/3", "reg": "ix-kesz", "conf": 0.994}, "geometry": {"type": "Point", "coordinates": [19.0694715, 47.4856512]}}, {"type": "Feature", "properties": {"code": "KF/Vt-V/4", "reg": "ix-kesz", "conf": 0.994}, "geometry": {"type": "Point", "coordinates": [19.0709292, 47.483893]}}, {"type": "Feature", "properties": {"code": "BF/Vt-V/P", "reg": "ix-kesz", "conf": 0.993}, "geometry": {"type": "Point", "coordinates": [19.0639125, 47.4848858]}}, {"type": "Feature", "properties": {"code": "BF/Vt-V/K", "reg": "ix-kesz", "conf": 0.993}, "geometry": {"type": "Point", "coordinates": [19.0689392, 47.4844567]}}, {"type": "Feature", "properties": {"code": "Köu-Fk/1", "reg": "ix-kesz", "conf": 0.993}, "geometry": {"type": "Point", "coordinates": [19.0664631, 47.483063]}}, {"type": "Feature", "properties": {"code": "BF/Vt-V/K", "reg": "ix-kesz", "conf": 0.993}, "geometry": {"type": "Point", "coordinates": [19.066281, 47.4819914]}}, {"type": "Feature", "properties": {"code": "KF/Vt-V/K", "reg": "ix-kesz", "conf": 0.993}, "geometry": {"type": "Point", "coordinates": [19.0712097, 47.4845028]}}, {"type": "Feature", "properties": {"code": "KF/Ln-1/K", "reg": "ix-kesz", "conf": 0.993}, "geometry": {"type": "Point", "coordinates": [19.0728803, 47.4839262]}}, {"type": "Feature", "properties": {"code": "BF/Vt-V/K", "reg": "ix-kesz", "conf": 0.992}, "geometry": {"type": "Point", "coordinates": [19.0626871, 47.4864047]}}, {"type": "Feature", "properties": {"code": "BF/Vt-V/K", "reg": "ix-kesz", "conf": 0.992}, "geometry": {"type": "Point", "coordinates": [19.0648174, 47.4869263]}}, {"type": "Feature", "properties": {"code": "BF/Vt-V/K", "reg": "ix-kesz", "conf": 0.992}, "geometry": {"type": "Point", "coordinates": [19.0628977, 47.483544]}}, {"type": "Feature", "properties": {"code": "Köu-Fk/3", "reg": "ix-kesz", "conf": 0.992}, "geometry": {"type": "Point", "coordinates": [19.0677081, 47.4836504]}}, {"type": "Feature", "properties": {"code": "KF/Ln-1/K", "reg": "ix-kesz", "conf": 0.992}, "geometry": {"type": "Point", "coordinates": [19.0743044, 47.4824016]}}, {"type": "Feature", "properties": {"code": "BF/Vt-V/KK", "reg": "ix-kesz", "conf": 0.991}, "geometry": {"type": "Point", "coordinates": [19.0593846, 47.4849658]}}, {"type": "Feature", "properties": {"code": "BF/Vt-V/K", "reg": "ix-kesz", "conf": 0.991}, "geometry": {"type": "Point", "coordinates": [19.063495, 47.4851033]}}, {"type": "Feature", "properties": {"code": "KF/Ln-1/K", "reg": "ix-kesz", "conf": 0.991}, "geometry": {"type": "Point", "coordinates": [19.0720332, 47.4829469]}}, {"type": "Feature", "properties": {"code": "KF/Vt-V/K", "reg": "ix-kesz", "conf": 0.991}, "geometry": {"type": "Point", "coordinates": [19.0700851, 47.4818802]}}, {"type": "Feature", "properties": {"code": "BF/Vt-V/K", "reg": "ix-kesz", "conf": 0.99}, "geometry": {"type": "Point", "coordinates": [19.0676591, 47.4822866]}}, {"type": "Feature", "properties": {"code": "BF/Vt-V/KK", "reg": "ix-kesz", "conf": 0.989}, "geometry": {"type": "Point", "coordinates": [19.0609786, 47.4835895]}}, {"type": "Feature", "properties": {"code": "KZ-Fk", "reg": "ix-kesz", "conf": 0.989}, "geometry": {"type": "Point", "coordinates": [19.0730793, 47.4819472]}}, {"type": "Feature", "properties": {"code": "KF/Vt-V/K", "reg": "ix-kesz", "conf": 0.988}, "geometry": {"type": "Point", "coordinates": [19.069713, 47.4834259]}}, {"type": "Feature", "properties": {"code": "BF/Vt-V/K", "reg": "ix-kesz", "conf": 0.987}, "geometry": {"type": "Point", "coordinates": [19.0674316, 47.4865863]}}, {"type": "Feature", "properties": {"code": "BF/Vt-V/K", "reg": "ix-kesz", "conf": 0.987}, "geometry": {"type": "Point", "coordinates": [19.0655274, 47.4816243]}}, {"type": "Feature", "properties": {"code": "BF/Vt-V/K", "reg": "ix-kesz", "conf": 0.986}, "geometry": {"type": "Point", "coordinates": [19.0617422, 47.4882996]}}, {"type": "Feature", "properties": {"code": "BF/Vt-V/K", "reg": "ix-kesz", "conf": 0.986}, "geometry": {"type": "Point", "coordinates": [19.0606513, 47.4870397]}}, {"type": "Feature", "properties": {"code": "Zk-Kk/1", "reg": "ix-kesz", "conf": 0.986}, "geometry": {"type": "Point", "coordinates": [19.0657118, 47.4862781]}}, {"type": "Feature", "properties": {"code": "KF/Ln-1/K", "reg": "ix-kesz", "conf": 0.986}, "geometry": {"type": "Point", "coordinates": [19.0737438, 47.4836608]}}, {"type": "Feature", "properties": {"code": "BF/Vt-V/K", "reg": "ix-kesz", "conf": 0.985}, "geometry": {"type": "Point", "coordinates": [19.0629523, 47.4884974]}}, {"type": "Feature", "properties": {"code": "BF/Vt-V/K", "reg": "ix-kesz", "conf": 0.983}, "geometry": {"type": "Point", "coordinates": [19.0670639, 47.483233]}}, {"type": "Feature", "properties": {"code": "BF/Vt-V/K", "reg": "ix-kesz", "conf": 0.972}, "geometry": {"type": "Point", "coordinates": [19.0640266, 47.4825906]}}, {"type": "Feature", "properties": {"code": "BF/Vt-V/114/1", "reg": "ix-kesz", "conf": 0.971}, "geometry": {"type": "Point", "coordinates": [19.0668709, 47.4868529]}}, {"type": "Feature", "properties": {"code": "BF/Vt-V/K", "reg": "ix-kesz", "conf": 0.961}, "geometry": {"type": "Point", "coordinates": [19.0635193, 47.4830441]}}, {"type": "Feature", "properties": {"code": "KZ-Fk", "reg": "ix-kesz", "conf": 0.958}, "geometry": {"type": "Point", "coordinates": [19.0724872, 47.4831477]}}, {"type": "Feature", "properties": {"code": "BF/Vt-V/K", "reg": "ix-kesz", "conf": 0.955}, "geometry": {"type": "Point", "coordinates": [19.061922, 47.4843646]}}, {"type": "Feature", "properties": {"code": "KZ-Fk", "reg": "ix-kesz", "conf": 0.942}, "geometry": {"type": "Point", "coordinates": [19.0744116, 47.482585]}}, {"type": "Feature", "properties": {"code": "KZ-Fk", "reg": "ix-kesz", "conf": 0.923}, "geometry": {"type": "Point", "coordinates": [19.0720133, 47.4823923]}}, {"type": "Feature", "properties": {"code": "BF/Vt-V/K", "reg": "ix-kesz", "conf": 0.919}, "geometry": {"type": "Point", "coordinates": [19.0612512, 47.4862348]}}, {"type": "Feature", "properties": {"code": "KZ-Fk", "reg": "ix-kesz", "conf": 0.915}, "geometry": {"type": "Point", "coordinates": [19.0742813, 47.4819983]}}, {"type": "Feature", "properties": {"code": "KF/Ln-1/K", "reg": "ix-kesz", "conf": 0.999}, "geometry": {"type": "Point", "coordinates": [19.0796654, 47.4816908]}}, {"type": "Feature", "properties": {"code": "KF/Ln-1/K", "reg": "ix-kesz", "conf": 0.998}, "geometry": {"type": "Point", "coordinates": [19.075274, 47.4817376]}}, {"type": "Feature", "properties": {"code": "KF/Ln-1/K", "reg": "ix-kesz", "conf": 0.997}, "geometry": {"type": "Point", "coordinates": [19.0773522, 47.482126]}}, {"type": "Feature", "properties": {"code": "KF/Ln-1/K", "reg": "ix-kesz", "conf": 0.996}, "geometry": {"type": "Point", "coordinates": [19.0754168, 47.4833168]}}, {"type": "Feature", "properties": {"code": "KF/Ln-1/18", "reg": "ix-kesz", "conf": 0.996}, "geometry": {"type": "Point", "coordinates": [19.0780653, 47.4827406]}}, {"type": "Feature", "properties": {"code": "KF/Ln-1/K", "reg": "ix-kesz", "conf": 0.995}, "geometry": {"type": "Point", "coordinates": [19.0762858, 47.4815571]}}, {"type": "Feature", "properties": {"code": "Köu-Fk/1", "reg": "ix-kesz", "conf": 0.993}, "geometry": {"type": "Point", "coordinates": [19.0791062, 47.4821706]}}, {"type": "Feature", "properties": {"code": "KF/Ln-1/K", "reg": "ix-kesz", "conf": 0.993}, "geometry": {"type": "Point", "coordinates": [19.0769522, 47.481664]}}, {"type": "Feature", "properties": {"code": "KF/Ln-1/K", "reg": "ix-kesz", "conf": 0.992}, "geometry": {"type": "Point", "coordinates": [19.0777906, 47.4814537]}}, {"type": "Feature", "properties": {"code": "KF/Ln-1/K", "reg": "ix-kesz", "conf": 0.991}, "geometry": {"type": "Point", "coordinates": [19.0754876, 47.4819908]}}, {"type": "Feature", "properties": {"code": "KF/Ln-1/K", "reg": "ix-kesz", "conf": 0.989}, "geometry": {"type": "Point", "coordinates": [19.0767095, 47.4831192]}}, {"type": "Feature", "properties": {"code": "KF/Ln-1/K", "reg": "ix-kesz", "conf": 0.988}, "geometry": {"type": "Point", "coordinates": [19.0774428, 47.4824469]}}, {"type": "Feature", "properties": {"code": "ZKk/1", "reg": "ix-kesz", "conf": 0.983}, "geometry": {"type": "Point", "coordinates": [19.0764394, 47.4824991]}}, {"type": "Feature", "properties": {"code": "KZ-Fk", "reg": "ix-kesz", "conf": 0.979}, "geometry": {"type": "Point", "coordinates": [19.0780338, 47.4822571]}}, {"type": "Feature", "properties": {"code": "KZ-Fk", "reg": "ix-kesz", "conf": 0.974}, "geometry": {"type": "Point", "coordinates": [19.075277, 47.4835551]}}, {"type": "Feature", "properties": {"code": "KZ-Fk", "reg": "ix-kesz", "conf": 0.968}, "geometry": {"type": "Point", "coordinates": [19.0753095, 47.4831287]}}, {"type": "Feature", "properties": {"code": "KZ-Fk", "reg": "ix-kesz", "conf": 0.906}, "geometry": {"type": "Point", "coordinates": [19.0757015, 47.4818878]}}, {"type": "Feature", "properties": {"code": "KZ-Fk", "reg": "ix-kesz", "conf": 0.897}, "geometry": {"type": "Point", "coordinates": [19.0748439, 47.4825784]}}, {"type": "Feature", "properties": {"code": "KF/Ln-1/K", "reg": "ix-kesz", "conf": 0.999}, "geometry": {"type": "Point", "coordinates": [19.0730199, 47.480001]}}, {"type": "Feature", "properties": {"code": "KF/Vt-V/62/2", "reg": "ix-kesz", "conf": 0.999}, "geometry": {"type": "Point", "coordinates": [19.0703192, 47.4754799]}}, {"type": "Feature", "properties": {"code": "KF/Ln-1/K", "reg": "ix-kesz", "conf": 0.998}, "geometry": {"type": "Point", "coordinates": [19.0719108, 47.4802683]}}, {"type": "Feature", "properties": {"code": "KF/Ln-1/K", "reg": "ix-kesz", "conf": 0.998}, "geometry": {"type": "Point", "coordinates": [19.070602, 47.4801129]}}, {"type": "Feature", "properties": {"code": "KF/Ln-1/57", "reg": "ix-kesz", "conf": 0.998}, "geometry": {"type": "Point", "coordinates": [19.0717631, 47.4790722]}}, {"type": "Feature", "properties": {"code": "Zk-Kk/3", "reg": "ix-kesz", "conf": 0.997}, "geometry": {"type": "Point", "coordinates": [19.0703135, 47.4797221]}}, {"type": "Feature", "properties": {"code": "KF/Ln-1/59/1", "reg": "ix-kesz", "conf": 0.997}, "geometry": {"type": "Point", "coordinates": [19.0728991, 47.4784671]}}, {"type": "Feature", "properties": {"code": "Zk-Kk/1", "reg": "ix-kesz", "conf": 0.996}, "geometry": {"type": "Point", "coordinates": [19.0736989, 47.481173]}}, {"type": "Feature", "properties": {"code": "KF/Ln-1/K", "reg": "ix-kesz", "conf": 0.995}, "geometry": {"type": "Point", "coordinates": [19.073377, 47.4792243]}}, {"type": "Feature", "properties": {"code": "KF/Ln-1/K", "reg": "ix-kesz", "conf": 0.995}, "geometry": {"type": "Point", "coordinates": [19.074513, 47.4786579]}}, {"type": "Feature", "properties": {"code": "Köu-Fk/2", "reg": "ix-kesz", "conf": 0.995}, "geometry": {"type": "Point", "coordinates": [19.0724161, 47.4773088]}}, {"type": "Feature", "properties": {"code": "KF/Ln-1/K", "reg": "ix-kesz", "conf": 0.995}, "geometry": {"type": "Point", "coordinates": [19.0732367, 47.476603]}}, {"type": "Feature", "properties": {"code": "KF/Ln-1/K", "reg": "ix-kesz", "conf": 0.994}, "geometry": {"type": "Point", "coordinates": [19.0729106, 47.4811615]}}, {"type": "Feature", "properties": {"code": "KF/Vt-V/62/1", "reg": "ix-kesz", "conf": 0.994}, "geometry": {"type": "Point", "coordinates": [19.0701899, 47.4758613]}}, {"type": "Feature", "properties": {"code": "KF/Vt-V/K", "reg": "ix-kesz", "conf": 0.993}, "geometry": {"type": "Point", "coordinates": [19.0690343, 47.4753461]}}, {"type": "Feature", "properties": {"code": "KF/Ln-1/61", "reg": "ix-kesz", "conf": 0.993}, "geometry": {"type": "Point", "coordinates": [19.0739563, 47.4768988]}}, {"type": "Feature", "properties": {"code": "KF/Ln-1/K", "reg": "ix-kesz", "conf": 0.992}, "geometry": {"type": "Point", "coordinates": [19.0713805, 47.4811672]}}, {"type": "Feature", "properties": {"code": "KF/Vt-V/K", "reg": "ix-kesz", "conf": 0.992}, "geometry": {"type": "Point", "coordinates": [19.0701816, 47.4775874]}}, {"type": "Feature", "properties": {"code": "KF/Vt-V/K", "reg": "ix-kesz", "conf": 0.992}, "geometry": {"type": "Point", "coordinates": [19.0683512, 47.4768847]}}, {"type": "Feature", "properties": {"code": "KF/Vt-V/K", "reg": "ix-kesz", "conf": 0.991}, "geometry": {"type": "Point", "coordinates": [19.0679484, 47.4777939]}}, {"type": "Feature", "properties": {"code": "KF/Ln-1/K", "reg": "ix-kesz", "conf": 0.991}, "geometry": {"type": "Point", "coordinates": [19.072597, 47.477985]}}, {"type": "Feature", "properties": {"code": "KF/Ln-1/59/2", "reg": "ix-kesz", "conf": 0.991}, "geometry": {"type": "Point", "coordinates": [19.0735164, 47.4776115]}}, {"type": "Feature", "properties": {"code": "KF/Vt-V/60", "reg": "ix-kesz", "conf": 0.99}, "geometry": {"type": "Point", "coordinates": [19.070574, 47.4771156]}}, {"type": "Feature", "properties": {"code": "KF/Ln-1/K", "reg": "ix-kesz", "conf": 0.989}, "geometry": {"type": "Point", "coordinates": [19.0738198, 47.4801943]}}, {"type": "Feature", "properties": {"code": "BF/Vt-V/K", "reg": "ix-kesz", "conf": 0.988}, "geometry": {"type": "Point", "coordinates": [19.0655353, 47.4816362]}}, {"type": "Feature", "properties": {"code": "KF/Vt-V/53", "reg": "ix-kesz", "conf": 0.987}, "geometry": {"type": "Point", "coordinates": [19.0695082, 47.4805628]}}, {"type": "Feature", "properties": {"code": "KF/Vt-V/K", "reg": "ix-kesz", "conf": 0.986}, "geometry": {"type": "Point", "coordinates": [19.0675673, 47.4785694]}}, {"type": "Feature", "properties": {"code": "KZ-Fk", "reg": "ix-kesz", "conf": 0.985}, "geometry": {"type": "Point", "coordinates": [19.0702092, 47.481319]}}, {"type": "Feature", "properties": {"code": "KZ-Fk", "reg": "ix-kesz", "conf": 0.984}, "geometry": {"type": "Point", "coordinates": [19.0738772, 47.4791615]}}, {"type": "Feature", "properties": {"code": "Zk-Kk/3", "reg": "ix-kesz", "conf": 0.978}, "geometry": {"type": "Point", "coordinates": [19.0670472, 47.4786701]}}, {"type": "Feature", "properties": {"code": "KF/Vt-V/K", "reg": "ix-kesz", "conf": 0.974}, "geometry": {"type": "Point", "coordinates": [19.068505, 47.4809339]}}, {"type": "Feature", "properties": {"code": "KF/Vt-V/K", "reg": "ix-kesz", "conf": 0.972}, "geometry": {"type": "Point", "coordinates": [19.0688253, 47.480492]}}, {"type": "Feature", "properties": {"code": "KF/Ln-1/59/1", "reg": "ix-kesz", "conf": 0.963}, "geometry": {"type": "Point", "coordinates": [19.0729271, 47.4784671]}}, {"type": "Feature", "properties": {"code": "KF/Vt-V/K", "reg": "ix-kesz", "conf": 0.956}, "geometry": {"type": "Point", "coordinates": [19.0697534, 47.4793589]}}, {"type": "Feature", "properties": {"code": "KF/Vt-V/K", "reg": "ix-kesz", "conf": 0.953}, "geometry": {"type": "Point", "coordinates": [19.0686985, 47.4760178]}}, {"type": "Feature", "properties": {"code": "KF/Ln-1/K", "reg": "ix-kesz", "conf": 0.951}, "geometry": {"type": "Point", "coordinates": [19.0708238, 47.4790551]}}, {"type": "Feature", "properties": {"code": "KF/Vt-V/K", "reg": "ix-kesz", "conf": 0.949}, "geometry": {"type": "Point", "coordinates": [19.0698037, 47.478299]}}, {"type": "Feature", "properties": {"code": "KZ-Fk", "reg": "ix-kesz", "conf": 0.924}, "geometry": {"type": "Point", "coordinates": [19.0725196, 47.4812323]}}, {"type": "Feature", "properties": {"code": "KZ-Fk", "reg": "ix-kesz", "conf": 0.917}, "geometry": {"type": "Point", "coordinates": [19.0722646, 47.4806166]}}, {"type": "Feature", "properties": {"code": "KZ-Fk", "reg": "ix-kesz", "conf": 0.872}, "geometry": {"type": "Point", "coordinates": [19.0725415, 47.4812323]}}, {"type": "Feature", "properties": {"code": "KF/Ln-1/26", "reg": "ix-kesz", "conf": 1.0}, "geometry": {"type": "Point", "coordinates": [19.0816411, 47.4813249]}}, {"type": "Feature", "properties": {"code": "KF/Ln-1/26", "reg": "ix-kesz", "conf": 1.0}, "geometry": {"type": "Point", "coordinates": [19.0808251, 47.4807233]}}, {"type": "Feature", "properties": {"code": "KF/Ln-1/25", "reg": "ix-kesz", "conf": 1.0}, "geometry": {"type": "Point", "coordinates": [19.0759288, 47.4777106]}}, {"type": "Feature", "properties": {"code": "KF/Ln-1/K", "reg": "ix-kesz", "conf": 0.999}, "geometry": {"type": "Point", "coordinates": [19.0792332, 47.4817051]}}, {"type": "Feature", "properties": {"code": "KF/Ln-1/19", "reg": "ix-kesz", "conf": 0.999}, "geometry": {"type": "Point", "coordinates": [19.0766438, 47.4812338]}}, {"type": "Feature", "properties": {"code": "KF/Ln-1/K", "reg": "ix-kesz", "conf": 0.999}, "geometry": {"type": "Point", "coordinates": [19.0776294, 47.4798727]}}, {"type": "Feature", "properties": {"code": "KF/Ln-1/24", "reg": "ix-kesz", "conf": 0.999}, "geometry": {"type": "Point", "coordinates": [19.0771566, 47.4783572]}}, {"type": "Feature", "properties": {"code": "KF/Ln-1/37", "reg": "ix-kesz", "conf": 0.999}, "geometry": {"type": "Point", "coordinates": [19.0824931, 47.4786786]}}, {"type": "Feature", "properties": {"code": "KF/Ln-T/K", "reg": "ix-kesz", "conf": 0.999}, "geometry": {"type": "Point", "coordinates": [19.0867792, 47.4786878]}}, {"type": "Feature", "properties": {"code": "KF/Ln-1/K", "reg": "ix-kesz", "conf": 0.999}, "geometry": {"type": "Point", "coordinates": [19.0788538, 47.4767563]}}, {"type": "Feature", "properties": {"code": "KF/Ln-T/K", "reg": "ix-kesz", "conf": 0.999}, "geometry": {"type": "Point", "coordinates": [19.0826976, 47.4779725]}}, {"type": "Feature", "properties": {"code": "KF/Ln-1/K", "reg": "ix-kesz", "conf": 0.998}, "geometry": {"type": "Point", "coordinates": [19.0753881, 47.4812053]}}, {"type": "Feature", "properties": {"code": "KF/Ln-1/29/2", "reg": "ix-kesz", "conf": 0.998}, "geometry": {"type": "Point", "coordinates": [19.0782351, 47.4787151]}}, {"type": "Feature", "properties": {"code": "KF/Ln-1/K", "reg": "ix-kesz", "conf": 0.998}, "geometry": {"type": "Point", "coordinates": [19.0789892, 47.4791231]}}, {"type": "Feature", "properties": {"code": "KF/Ln-1/K", "reg": "ix-kesz", "conf": 0.998}, "geometry": {"type": "Point", "coordinates": [19.0806257, 47.4784963]}}, {"type": "Feature", "properties": {"code": "KF/Ln-T/K", "reg": "ix-kesz", "conf": 0.998}, "geometry": {"type": "Point", "coordinates": [19.085593, 47.4783835]}}, {"type": "Feature", "properties": {"code": "KF/Ln-1/29/1", "reg": "ix-kesz", "conf": 0.998}, "geometry": {"type": "Point", "coordinates": [19.0785548, 47.4776143]}}, {"type": "Feature", "properties": {"code": "KF/Ln-1/K", "reg": "ix-kesz", "conf": 0.998}, "geometry": {"type": "Point", "coordinates": [19.0773502, 47.4772001]}}, {"type": "Feature", "properties": {"code": "KF/Ln-1/K", "reg": "ix-kesz", "conf": 0.998}, "geometry": {"type": "Point", "coordinates": [19.0756741, 47.4763727]}}, {"type": "Feature", "properties": {"code": "KF/Ln-1/K", "reg": "ix-kesz", "conf": 0.998}, "geometry": {"type": "Point", "coordinates": [19.0810394, 47.4775157]}}, {"type": "Feature", "properties": {"code": "KF/Ln-1/Ü", "reg": "ix-kesz", "conf": 0.998}, "geometry": {"type": "Point", "coordinates": [19.0813156, 47.4770891]}}, {"type": "Feature", "properties": {"code": "VH/Ln-3/K", "reg": "ix-kesz", "conf": 0.998}, "geometry": {"type": "Point", "coordinates": [19.0814301, 47.4761312]}}, {"type": "Feature", "properties": {"code": "VH/Vi-2/45A", "reg": "ix-kesz", "conf": 0.998}, "geometry": {"type": "Point", "coordinates": [19.0837889, 47.4757944]}}, {"type": "Feature", "properties": {"code": "KF/Ln-T/K", "reg": "ix-kesz", "conf": 0.998}, "geometry": {"type": "Point", "coordinates": [19.0853771, 47.4778957]}}, {"type": "Feature", "properties": {"code": "KF/Ln-T/K", "reg": "ix-kesz", "conf": 0.998}, "geometry": {"type": "Point", "coordinates": [19.0840971, 47.477533]}}, {"type": "Feature", "properties": {"code": "VH/Ln-2/K", "reg": "ix-kesz", "conf": 0.998}, "geometry": {"type": "Point", "coordinates": [19.0774444, 47.475312]}}, {"type": "Feature", "properties": {"code": "VH/Vi-1/64", "reg": "ix-kesz", "conf": 0.998}, "geometry": {"type": "Point", "coordinates": [19.0767843, 47.4750517]}}, {"type": "Feature", "properties": {"code": "VH/Vi-1/65", "reg": "ix-kesz", "conf": 0.998}, "geometry": {"type": "Point", "coordinates": [19.0751696, 47.4746429]}}, {"type": "Feature", "properties": {"code": "VH/Ln-T", "reg": "ix-kesz", "conf": 0.998}, "geometry": {"type": "Point", "coordinates": [19.0821376, 47.4742538]}}, {"type": "Feature", "properties": {"code": "VH/Ln-T", "reg": "ix-kesz", "conf": 0.998}, "geometry": {"type": "Point", "coordinates": [19.0803723, 47.4735874]}}, {"type": "Feature", "properties": {"code": "VH/Vi-1/72A", "reg": "ix-kesz", "conf": 0.998}, "geometry": {"type": "Point", "coordinates": [19.0798597, 47.4725594]}}, {"type": "Feature", "properties": {"code": "VH/K-Rek/47B-1", "reg": "ix-kesz", "conf": 0.998}, "geometry": {"type": "Point", "coordinates": [19.0854108, 47.4731979]}}, {"type": "Feature", "properties": {"code": "KF/Ln-1/K", "reg": "ix-kesz", "conf": 0.997}, "geometry": {"type": "Point", "coordinates": [19.0765303, 47.4816766]}}, {"type": "Feature", "properties": {"code": "KF/Ln-1/K", "reg": "ix-kesz", "conf": 0.997}, "geometry": {"type": "Point", "coordinates": [19.0747124, 47.4813089]}}, {"type": "Feature", "properties": {"code": "KF/Ln-1/K", "reg": "ix-kesz", "conf": 0.997}, "geometry": {"type": "Point", "coordinates": [19.0761386, 47.4808545]}}, {"type": "Feature", "properties": {"code": "KF/Ln-1/K", "reg": "ix-kesz", "conf": 0.997}, "geometry": {"type": "Point", "coordinates": [19.0811576, 47.4789761]}}, {"type": "Feature", "properties": {"code": "KF/Ln-1/K", "reg": "ix-kesz", "conf": 0.997}, "geometry": {"type": "Point", "coordinates": [19.0783515, 47.4783867]}}, {"type": "Feature", "properties": {"code": "KF/Ln-1/K", "reg": "ix-kesz", "conf": 0.997}, "geometry": {"type": "Point", "coordinates": [19.0789228, 47.4786333]}}, {"type": "Feature", "properties": {"code": "KF/Ln-T/K", "reg": "ix-kesz", "conf": 0.997}, "geometry": {"type": "Point", "coordinates": [19.0829322, 47.4773502]}}, {"type": "Feature", "properties": {"code": "KF/Ln-1/38", "reg": "ix-kesz", "conf": 0.997}, "geometry": {"type": "Point", "coordinates": [19.0803641, 47.4772782]}}, {"type": "Feature", "properties": {"code": "KF/Ln-T/K", "reg": "ix-kesz", "conf": 0.997}, "geometry": {"type": "Point", "coordinates": [19.0834733, 47.4774571]}}, {"type": "Feature", "properties": {"code": "VH/Ln-3/47J", "reg": "ix-kesz", "conf": 0.997}, "geometry": {"type": "Point", "coordinates": [19.0888222, 47.47562]}}, {"type": "Feature", "properties": {"code": "ZKk/2", "reg": "ix-kesz", "conf": 0.997}, "geometry": {"type": "Point", "coordinates": [19.0820097, 47.4744907]}}, {"type": "Feature", "properties": {"code": "VH/Ln-T", "reg": "ix-kesz", "conf": 0.997}, "geometry": {"type": "Point", "coordinates": [19.0802637, 47.474163]}}, {"type": "Feature", "properties": {"code": "VH/Ln-T", "reg": "ix-kesz", "conf": 0.997}, "geometry": {"type": "Point", "coordinates": [19.0806623, 47.4739458]}}, {"type": "Feature", "properties": {"code": "VH/Ln-T", "reg": "ix-kesz", "conf": 0.997}, "geometry": {"type": "Point", "coordinates": [19.0812574, 47.4739189]}}, {"type": "Feature", "properties": {"code": "VH/Vi-2/47F", "reg": "ix-kesz", "conf": 0.997}, "geometry": {"type": "Point", "coordinates": [19.0876808, 47.4738246]}}, {"type": "Feature", "properties": {"code": "KF/Ln-1/K", "reg": "ix-kesz", "conf": 0.996}, "geometry": {"type": "Point", "coordinates": [19.0758614, 47.4815673]}}, {"type": "Feature", "properties": {"code": "KF/Ln-1/K", "reg": "ix-kesz", "conf": 0.996}, "geometry": {"type": "Point", "coordinates": [19.0858641, 47.4791837]}}, {"type": "Feature", "properties": {"code": "KF/Ln-1/K", "reg": "ix-kesz", "conf": 0.996}, "geometry": {"type": "Point", "coordinates": [19.0762086, 47.4782774]}}, {"type": "Feature", "properties": {"code": "KF/Ln-1/K", "reg": "ix-kesz", "conf": 0.996}, "geometry": {"type": "Point", "coordinates": [19.0791722, 47.4781963]}}, {"type": "Feature", "properties": {"code": "KF/Ln-1/K", "reg": "ix-kesz", "conf": 0.996}, "geometry": {"type": "Point", "coordinates": [19.0747343, 47.4774029]}}, {"type": "Feature", "properties": {"code": "ZKk/1", "reg": "ix-kesz", "conf": 0.996}, "geometry": {"type": "Point", "coordinates": [19.0832354, 47.4780302]}}, {"type": "Feature", "properties": {"code": "KF/Ln-1/K", "reg": "ix-kesz", "conf": 0.996}, "geometry": {"type": "Point", "coordinates": [19.0798338, 47.4776554]}}, {"type": "Feature", "properties": {"code": "VH/Ln-T", "reg": "ix-kesz", "conf": 0.996}, "geometry": {"type": "Point", "coordinates": [19.0824493, 47.4757933]}}, {"type": "Feature", "properties": {"code": "ZKk/1", "reg": "ix-kesz", "conf": 0.996}, "geometry": {"type": "Point", "coordinates": [19.0812205, 47.4757465]}}, {"type": "Feature", "properties": {"code": "KF/Ln-T/K", "reg": "ix-kesz", "conf": 0.996}, "geometry": {"type": "Point", "coordinates": [19.0862219, 47.4782331]}}, {"type": "Feature", "properties": {"code": "VH/Ln-2/70", "reg": "ix-kesz", "conf": 0.996}, "geometry": {"type": "Point", "coordinates": [19.0766842, 47.4736622]}}, {"type": "Feature", "properties": {"code": "VH/Vt-V/71B", "reg": "ix-kesz", "conf": 0.996}, "geometry": {"type": "Point", "coordinates": [19.0749018, 47.4729604]}}, {"type": "Feature", "properties": {"code": "KF/Ln-1/K", "reg": "ix-kesz", "conf": 0.995}, "geometry": {"type": "Point", "coordinates": [19.0748476, 47.4817473]}}, {"type": "Feature", "properties": {"code": "KF/Ln-1/K", "reg": "ix-kesz", "conf": 0.995}, "geometry": {"type": "Point", "coordinates": [19.074903, 47.4800056]}}, {"type": "Feature", "properties": {"code": "KF/Ln-T/K", "reg": "ix-kesz", "conf": 0.995}, "geometry": {"type": "Point", "coordinates": [19.0818982, 47.4775838]}}, {"type": "Feature", "properties": {"code": "KF/Ln-1/K", "reg": "ix-kesz", "conf": 0.995}, "geometry": {"type": "Point", "coordinates": [19.079963, 47.4768396]}}, {"type": "Feature", "properties": {"code": "ZKk/1", "reg": "ix-kesz", "conf": 0.995}, "geometry": {"type": "Point", "coordinates": [19.0860095, 47.4785842]}}, {"type": "Feature", "properties": {"code": "Zk-Kk/5", "reg": "ix-kesz", "conf": 0.995}, "geometry": {"type": "Point", "coordinates": [19.0903625, 47.4780246]}}, {"type": "Feature", "properties": {"code": "VH/Ln-T", "reg": "ix-kesz", "conf": 0.995}, "geometry": {"type": "Point", "coordinates": [19.0831126, 47.4752525]}}, {"type": "Feature", "properties": {"code": "VH/Ln-T", "reg": "ix-kesz", "conf": 0.995}, "geometry": {"type": "Point", "coordinates": [19.0815376, 47.4742751]}}, {"type": "Feature", "properties": {"code": "Köu-Fk/1", "reg": "ix-kesz", "conf": 0.994}, "geometry": {"type": "Point", "coordinates": [19.0773921, 47.4810112]}}, {"type": "Feature", "properties": {"code": "KF/Ln-1/K", "reg": "ix-kesz", "conf": 0.994}, "geometry": {"type": "Point", "coordinates": [19.082161, 47.4810288]}}, {"type": "Feature", "properties": {"code": "KF/Ln-1/K", "reg": "ix-kesz", "conf": 0.994}, "geometry": {"type": "Point", "coordinates": [19.0830133, 47.480042]}}, {"type": "Feature", "properties": {"code": "Zk-Kk/2", "reg": "ix-kesz", "conf": 0.994}, "geometry": {"type": "Point", "coordinates": [19.0802118, 47.4796426]}}, {"type": "Feature", "properties": {"code": "KF/Ln-1/K", "reg": "ix-kesz", "conf": 0.994}, "geometry": {"type": "Point", "coordinates": [19.082874, 47.4789534]}}, {"type": "Feature", "properties": {"code": "KF/Ln-1/K", "reg": "ix-kesz", "conf": 0.994}, "geometry": {"type": "Point", "coordinates": [19.0844769, 47.4802343]}}, {"type": "Feature", "properties": {"code": "ZKk/1", "reg": "ix-kesz", "conf": 0.994}, "geometry": {"type": "Point", "coordinates": [19.0848493, 47.4778919]}}, {"type": "Feature", "properties": {"code": "ZKk/1", "reg": "ix-kesz", "conf": 0.994}, "geometry": {"type": "Point", "coordinates": [19.0839319, 47.4776851]}}, {"type": "Feature", "properties": {"code": "IT/Vi-1/46/1", "reg": "ix-kesz", "conf": 0.994}, "geometry": {"type": "Point", "coordinates": [19.0927031, 47.4767288]}}, {"type": "Feature", "properties": {"code": "IT/Vi-1/47J", "reg": "ix-kesz", "conf": 0.994}, "geometry": {"type": "Point", "coordinates": [19.0904378, 47.476418]}}, {"type": "Feature", "properties": {"code": "VH/Ln-T", "reg": "ix-kesz", "conf": 0.994}, "geometry": {"type": "Point", "coordinates": [19.0828649, 47.4755396]}}, {"type": "Feature", "properties": {"code": "KF/Ln-1/K", "reg": "ix-kesz", "conf": 0.993}, "geometry": {"type": "Point", "coordinates": [19.0844804, 47.4792672]}}, {"type": "Feature", "properties": {"code": "Zk-Kp", "reg": "ix-kesz", "conf": 0.993}, "geometry": {"type": "Point", "coordinates": [19.0796583, 47.4753081]}}, {"type": "Feature", "properties": {"code": "VH/Ln-T", "reg": "ix-kesz", "conf": 0.993}, "geometry": {"type": "Point", "coordinates": [19.0830315, 47.4745968]}}, {"type": "Feature", "properties": {"code": "VH/K-Rek/47B-2", "reg": "ix-kesz", "conf": 0.993}, "geometry": {"type": "Point", "coordinates": [19.0843931, 47.4744423]}}, {"type": "Feature", "properties": {"code": "KF/Ln-1/K", "reg": "ix-kesz", "conf": 0.992}, "geometry": {"type": "Point", "coordinates": [19.0761935, 47.4811477]}}, {"type": "Feature", "properties": {"code": "KF/Ln-1/K", "reg": "ix-kesz", "conf": 0.992}, "geometry": {"type": "Point", "coordinates": [19.0788874, 47.4805113]}}, {"type": "Feature", "properties": {"code": "VH/Ln-T", "reg": "ix-kesz", "conf": 0.992}, "geometry": {"type": "Point", "coordinates": [19.0824297, 47.474618]}}, {"type": "Feature", "properties": {"code": "VH/Ln-T", "reg": "ix-kesz", "conf": 0.992}, "geometry": {"type": "Point", "coordinates": [19.0799315, 47.4737804]}}, {"type": "Feature", "properties": {"code": "KF/Ln-1/K", "reg": "ix-kesz", "conf": 0.989}, "geometry": {"type": "Point", "coordinates": [19.0773578, 47.4814643]}}, {"type": "Feature", "properties": {"code": "VH/Vi-1/47C-1", "reg": "ix-kesz", "conf": 0.989}, "geometry": {"type": "Point", "coordinates": [19.0815181, 47.473047]}}, {"type": "Feature", "properties": {"code": "VH/Ln-3/K", "reg": "ix-kesz", "conf": 0.989}, "geometry": {"type": "Point", "coordinates": [19.0869697, 47.4746653]}}, {"type": "Feature", "properties": {"code": "VH/Vi-1/47C-2", "reg": "ix-kesz", "conf": 0.988}, "geometry": {"type": "Point", "coordinates": [19.0826926, 47.473245]}}, {"type": "Feature", "properties": {"code": "KZ-Fk", "reg": "ix-kesz", "conf": 0.984}, "geometry": {"type": "Point", "coordinates": [19.0751146, 47.4809876]}}, {"type": "Feature", "properties": {"code": "KF/Ln-1/K", "reg": "ix-kesz", "conf": 0.984}, "geometry": {"type": "Point", "coordinates": [19.0805536, 47.4802483]}}, {"type": "Feature", "properties": {"code": "VH/Vi-1/K", "reg": "ix-kesz", "conf": 0.984}, "geometry": {"type": "Point", "coordinates": [19.0784884, 47.4742554]}}, {"type": "Feature", "properties": {"code": "KZ-Fk", "reg": "ix-kesz", "conf": 0.983}, "geometry": {"type": "Point", "coordinates": [19.076149, 47.4806589]}}, {"type": "Feature", "properties": {"code": "KZ-Fk", "reg": "ix-kesz", "conf": 0.983}, "geometry": {"type": "Point", "coordinates": [19.0821449, 47.479747]}}, {"type": "Feature", "properties": {"code": "KF/Ln-1/K", "reg": "ix-kesz", "conf": 0.982}, "geometry": {"type": "Point", "coordinates": [19.0817291, 47.4781285]}}, {"type": "Feature", "properties": {"code": "VH/Vi-2/45B", "reg": "ix-kesz", "conf": 0.981}, "geometry": {"type": "Point", "coordinates": [19.0817009, 47.4750705]}}, {"type": "Feature", "properties": {"code": "KF/Ln-1/36", "reg": "ix-kesz", "conf": 0.979}, "geometry": {"type": "Point", "coordinates": [19.083396, 47.4793258]}}, {"type": "Feature", "properties": {"code": "KF/Ln-T/KSZ", "reg": "ix-kesz", "conf": 0.979}, "geometry": {"type": "Point", "coordinates": [19.0873188, 47.47875]}}, {"type": "Feature", "properties": {"code": "VH/Ln-2/70", "reg": "ix-kesz", "conf": 0.979}, "geometry": {"type": "Point", "coordinates": [19.0757583, 47.4734692]}}, {"type": "Feature", "properties": {"code": "KZ-Fk", "reg": "ix-kesz", "conf": 0.972}, "geometry": {"type": "Point", "coordinates": [19.0797372, 47.4790573]}}, {"type": "Feature", "properties": {"code": "ZKk/1", "reg": "ix-kesz", "conf": 0.971}, "geometry": {"type": "Point", "coordinates": [19.0822851, 47.4773965]}}, {"type": "Feature", "properties": {"code": "KF/Ln-1/K", "reg": "ix-kesz", "conf": 0.97}, "geometry": {"type": "Point", "coordinates": [19.0769518, 47.4791705]}}, {"type": "Feature", "properties": {"code": "Köu-Fk/1", "reg": "ix-kesz", "conf": 0.968}, "geometry": {"type": "Point", "coordinates": [19.0770171, 47.4811128]}}, {"type": "Feature", "properties": {"code": "KZ-Fk", "reg": "ix-kesz", "conf": 0.966}, "geometry": {"type": "Point", "coordinates": [19.0815699, 47.4806565]}}, {"type": "Feature", "properties": {"code": "Köu-Fk/1", "reg": "ix-kesz", "conf": 0.966}, "geometry": {"type": "Point", "coordinates": [19.0819878, 47.4791108]}}, {"type": "Feature", "properties": {"code": "KF/Ln-1/K", "reg": "ix-kesz", "conf": 0.965}, "geometry": {"type": "Point", "coordinates": [19.0878226, 47.4789931]}}, {"type": "Feature", "properties": {"code": "Köu-Fk/1", "reg": "ix-kesz", "conf": 0.958}, "geometry": {"type": "Point", "coordinates": [19.0782962, 47.4803128]}}, {"type": "Feature", "properties": {"code": "VH/Ln-2/K", "reg": "ix-kesz", "conf": 0.958}, "geometry": {"type": "Point", "coordinates": [19.0782861, 47.4736119]}}, {"type": "Feature", "properties": {"code": "KZ-Fk", "reg": "ix-kesz", "conf": 0.957}, "geometry": {"type": "Point", "coordinates": [19.0750111, 47.4788063]}}, {"type": "Feature", "properties": {"code": "KZ-Fk", "reg": "ix-kesz", "conf": 0.953}, "geometry": {"type": "Point", "coordinates": [19.0791336, 47.4801006]}}, {"type": "Feature", "properties": {"code": "KZ-Fk", "reg": "ix-kesz", "conf": 0.948}, "geometry": {"type": "Point", "coordinates": [19.0786917, 47.4781456]}}, {"type": "Feature", "properties": {"code": "KZ-Fk", "reg": "ix-kesz", "conf": 0.943}, "geometry": {"type": "Point", "coordinates": [19.0807013, 47.4804132]}}, {"type": "Feature", "properties": {"code": "KZ-Fk", "reg": "ix-kesz", "conf": 0.936}, "geometry": {"type": "Point", "coordinates": [19.075011, 47.4788154]}}, {"type": "Feature", "properties": {"code": "KZ-Fk", "reg": "ix-kesz", "conf": 0.928}, "geometry": {"type": "Point", "coordinates": [19.0792592, 47.4793876]}}, {"type": "Feature", "properties": {"code": "VH/Vi-2/K", "reg": "ix-kesz", "conf": 0.927}, "geometry": {"type": "Point", "coordinates": [19.0851962, 47.4746398]}}, {"type": "Feature", "properties": {"code": "VH/Vi-2/K", "reg": "ix-kesz", "conf": 0.92}, "geometry": {"type": "Point", "coordinates": [19.078496, 47.4756767]}}, {"type": "Feature", "properties": {"code": "KZ-Fk", "reg": "ix-kesz", "conf": 0.911}, "geometry": {"type": "Point", "coordinates": [19.0815782, 47.4788791]}}, {"type": "Feature", "properties": {"code": "KZ-Fk", "reg": "ix-kesz", "conf": 0.893}, "geometry": {"type": "Point", "coordinates": [19.0792541, 47.4793888]}}, {"type": "Feature", "properties": {"code": "KZ-Fk", "reg": "ix-kesz", "conf": 0.888}, "geometry": {"type": "Point", "coordinates": [19.0810414, 47.4791191]}}, {"type": "Feature", "properties": {"code": "Zk-Kk/3", "reg": "ix-kesz", "conf": 0.967}, "geometry": {"type": "Point", "coordinates": [19.0699634, 47.4726259]}}, {"type": "Feature", "properties": {"code": "Köu-Fk/2", "reg": "ix-kesz", "conf": 0.935}, "geometry": {"type": "Point", "coordinates": [19.0705457, 47.4722114]}}, {"type": "Feature", "properties": {"code": "VH/Ln-2/72A", "reg": "ix-kesz", "conf": 0.999}, "geometry": {"type": "Point", "coordinates": [19.0803642, 47.4708255]}}, {"type": "Feature", "properties": {"code": "VH/Ln-2/K", "reg": "ix-kesz", "conf": 0.999}, "geometry": {"type": "Point", "coordinates": [19.0789779, 47.4702756]}}, {"type": "Feature", "properties": {"code": "VH/Vi-1/47E-3", "reg": "ix-kesz", "conf": 0.998}, "geometry": {"type": "Point", "coordinates": [19.0860093, 47.4716726]}}, {"type": "Feature", "properties": {"code": "VH/Vi-1/50", "reg": "ix-kesz", "conf": 0.998}, "geometry": {"type": "Point", "coordinates": [19.089793, 47.4695274]}}, {"type": "Feature", "properties": {"code": "VH/Vi-1/51", "reg": "ix-kesz", "conf": 0.998}, "geometry": {"type": "Point", "coordinates": [19.0863527, 47.4692444]}}, {"type": "Feature", "properties": {"code": "VH/Vi-1/72A", "reg": "ix-kesz", "conf": 0.997}, "geometry": {"type": "Point", "coordinates": [19.0798549, 47.4725854]}}, {"type": "Feature", "properties": {"code": "VH/Ln-2/K", "reg": "ix-kesz", "conf": 0.997}, "geometry": {"type": "Point", "coordinates": [19.0793024, 47.4719741]}}, {"type": "Feature", "properties": {"code": "VH/Vi-1/73A", "reg": "ix-kesz", "conf": 0.997}, "geometry": {"type": "Point", "coordinates": [19.0814291, 47.46997]}}, {"type": "Feature", "properties": {"code": "VH/Vi-1/47E-2", "reg": "ix-kesz", "conf": 0.997}, "geometry": {"type": "Point", "coordinates": [19.0864224, 47.4703933]}}, {"type": "Feature", "properties": {"code": "VH/K-Ker", "reg": "ix-kesz", "conf": 0.996}, "geometry": {"type": "Point", "coordinates": [19.0841562, 47.4708192]}}, {"type": "Feature", "properties": {"code": "VH/Vi-1/50", "reg": "ix-kesz", "conf": 0.996}, "geometry": {"type": "Point", "coordinates": [19.0897657, 47.469921]}}, {"type": "Feature", "properties": {"code": "VH/Vi-1/47E-1", "reg": "ix-kesz", "conf": 0.995}, "geometry": {"type": "Point", "coordinates": [19.0879216, 47.4705679]}}, {"type": "Feature", "properties": {"code": "VH/Vi-1/72B", "reg": "ix-kesz", "conf": 0.994}, "geometry": {"type": "Point", "coordinates": [19.0781051, 47.4708451]}}, {"type": "Feature", "properties": {"code": "VH/Ln-2/K", "reg": "ix-kesz", "conf": 0.99}, "geometry": {"type": "Point", "coordinates": [19.0777679, 47.4717091]}}, {"type": "Feature", "properties": {"code": "IT/Vi-1/47H-1", "reg": "ix-kesz", "conf": 0.988}, "geometry": {"type": "Point", "coordinates": [19.0927205, 47.471988]}}, {"type": "Feature", "properties": {"code": "Zk-Kk/4", "reg": "ix-kesz", "conf": 0.984}, "geometry": {"type": "Point", "coordinates": [19.0751124, 47.4697944]}}, {"type": "Feature", "properties": {"code": "VH/Vi-1/72C", "reg": "ix-kesz", "conf": 0.983}, "geometry": {"type": "Point", "coordinates": [19.0765611, 47.4702379]}}, {"type": "Feature", "properties": {"code": "Köu-Fk/3", "reg": "ix-kesz", "conf": 0.981}, "geometry": {"type": "Point", "coordinates": [19.0886451, 47.4698061]}}, {"type": "Feature", "properties": {"code": "VH/K-Rek/47E", "reg": "ix-kesz", "conf": 0.979}, "geometry": {"type": "Point", "coordinates": [19.0880867, 47.4717491]}}, {"type": "Feature", "properties": {"code": "VH/Vi-1/70", "reg": "ix-kesz", "conf": 0.976}, "geometry": {"type": "Point", "coordinates": [19.0769266, 47.4727088]}}, {"type": "Feature", "properties": {"code": "VH/Gksz", "reg": "ix-kesz", "conf": 0.974}, "geometry": {"type": "Point", "coordinates": [19.0830738, 47.4688527]}}, {"type": "Feature", "properties": {"code": "VH/Vi-1/73B", "reg": "ix-kesz", "conf": 0.971}, "geometry": {"type": "Point", "coordinates": [19.0794495, 47.4692299]}}, {"type": "Feature", "properties": {"code": "VH/Vi-1/47C-3", "reg": "ix-kesz", "conf": 0.956}, "geometry": {"type": "Point", "coordinates": [19.0830993, 47.471994]}}, {"type": "Feature", "properties": {"code": "Köu-Fk/3", "reg": "ix-kesz", "conf": 0.84}, "geometry": {"type": "Point", "coordinates": [19.0886549, 47.4697958]}}, {"type": "Feature", "properties": {"code": "VH/Vi-1/49A", "reg": "ix-kesz", "conf": 0.998}, "geometry": {"type": "Point", "coordinates": [19.095852, 47.4715647]}}, {"type": "Feature", "properties": {"code": "IT/Vi-1/47H-2", "reg": "ix-kesz", "conf": 0.997}, "geometry": {"type": "Point", "coordinates": [19.0950177, 47.4726036]}}, {"type": "Feature", "properties": {"code": "IT/Vi-2/92/1", "reg": "ix-kesz", "conf": 0.996}, "geometry": {"type": "Point", "coordinates": [19.097974, 47.4714562]}}, {"type": "Feature", "properties": {"code": "IT/Vi-2/92/3", "reg": "ix-kesz", "conf": 0.99}, "geometry": {"type": "Point", "coordinates": [19.1022865, 47.4721297]}}, {"type": "Feature", "properties": {"code": "IT/Vi-2/92/2", "reg": "ix-kesz", "conf": 0.984}, "geometry": {"type": "Point", "coordinates": [19.0988389, 47.4710076]}}, {"type": "Feature", "properties": {"code": "IT/Vi-1/92/2", "reg": "ix-kesz", "conf": 0.963}, "geometry": {"type": "Point", "coordinates": [19.096868, 47.4722463]}}]}