{
 "type": "FeatureCollection",
 "features": [
  {
   "type": "Feature",
   "properties": {
    "code": "Vi1",
    "regulation": "demo-xi"
   },
   "geometry": {
    "type": "Polygon",
    "coordinates": [
     [
      [
       19.04,
       47.476
      ],
      [
       19.049,
       47.476
      ],
      [
       19.049,
       47.482
      ],
      [
       19.04,
       47.482
      ],
      [
       19.04,
       47.476
      ]
     ]
    ]
   }
  },
  {
   "type": "Feature",
   "properties": {
    "code": "L1",
    "regulation": "demo-xi"
   },
   "geometry": {
    "type": "Polygon",
    "coordinates": [
     [
      [
       19.049,
       47.476
      ],
      [
       19.058,
       47.476
      ],
      [
       19.058,
       47.482
      ],
      [
       19.049,
       47.482
      ],
      [
       19.049,
       47.476
      ]
     ]
    ]
   }
  },
  {
   "type": "Feature",
   "properties": {
    "code": "Z-KP",
    "regulation": "demo-xi"
   },
   "geometry": {
    "type": "Polygon",
    "coordinates": [
     [
      [
       19.04,
       47.472
      ],
      [
       19.046,
       47.472
      ],
      [
       19.046,
       47.476
      ],
      [
       19.04,
       47.476
      ],
      [
       19.04,
       47.472
      ]
     ]
    ]
   }
  },
  {
   "type": "Feature",
   "properties": {
    "code": "L3",
    "regulation": "demo-xi"
   },
   "geometry": {
    "type": "Polygon",
    "coordinates": [
     [
      [
       19.046,
       47.472
      ],
      [
       19.058,
       47.472
      ],
      [
       19.058,
       47.476
      ],
      [
       19.046,
       47.476
      ],
      [
       19.046,
       47.472
      ]
     ]
    ]
   }
  }
 ]
}