{"type": "FeatureCollection", "features": [{"type": "Feature", "properties": {"code": "Vt-V/P-2", "reg": "viii-kesz", "conf": 0.978}, "geometry": {"type": "Point", "coordinates": [19.0687284, 47.4948115]}}, {"type": "Feature", "properties": {"code": "Vt-V/P-1", "reg": "viii-kesz", "conf": 0.977}, "geometry": {"type": "Point", "coordinates": [19.0611933, 47.4942002]}}, {"type": "Feature", "properties": {"code": "Vt-V/P-2", "reg": "viii-kesz", "conf": 0.974}, "geometry": {"type": "Point", "coordinates": [19.063566, 47.4942549]}}, {"type": "Feature", "properties": {"code": "Vt-V/P-1", "reg": "viii-kesz", "conf": 0.974}, "geometry": {"type": "Point", "coordinates": [19.063329, 47.4937389]}}, {"type": "Feature", "properties": {"code": "Vt-V/P-1", "reg": "viii-kesz", "conf": 0.965}, "geometry": {"type": "Point", "coordinates": [19.0664834, 47.4951787]}}, {"type": "Feature", "properties": {"code": "Vt-V/P-1", "reg": "viii-kesz", "conf": 0.963}, "geometry": {"type": "Point", "coordinates": [19.0685249, 47.4939569]}}, {"type": "Feature", "properties": {"code": "Vt-V/P-1", "reg": "viii-kesz", "conf": 0.959}, "geometry": {"type": "Point", "coordinates": [19.0642054, 47.4945842]}}, {"type": "Feature", "properties": {"code": "Vt-V/P-1", "reg": "viii-kesz", "conf": 0.955}, "geometry": {"type": "Point", "coordinates": [19.0669305, 47.4942429]}}, {"type": "Feature", "properties": {"code": "Vt-V/P-1", "reg": "viii-kesz", "conf": 0.944}, "geometry": {"type": "Point", "coordinates": [19.0630097, 47.494613]}}, {"type": "Feature", "properties": {"code": "Kt-Fk", "reg": "viii-kesz", "conf": 0.894}, "geometry": {"type": "Point", "coordinates": [19.0671515, 47.4956891]}}, {"type": "Feature", "properties": {"code": "Vt-V/P-2", "reg": "viii-kesz", "conf": 0.982}, "geometry": {"type": "Point", "coordinates": [19.067164, 47.4912374]}}, {"type": "Feature", "properties": {"code": "Vt-V/P-1", "reg": "viii-kesz", "conf": 0.978}, "geometry": {"type": "Point", "coordinates": [19.063682, 47.4930298]}}, {"type": "Feature", "properties": {"code": "Vt-V/P-1", "reg": "viii-kesz", "conf": 0.978}, "geometry": {"type": "Point", "coordinates": [19.068177, 47.493305]}}, {"type": "Feature", "properties": {"code": "Vt-V/P-M", "reg": "viii-kesz", "conf": 0.974}, "geometry": {"type": "Point", "coordinates": [19.0630048, 47.4911922]}}, {"type": "Feature", "properties": {"code": "Vt-V/P-2", "reg": "viii-kesz", "conf": 0.973}, "geometry": {"type": "Point", "coordinates": [19.0646688, 47.4929554]}}, {"type": "Feature", "properties": {"code": "Vt-V/P-3", "reg": "viii-kesz", "conf": 0.968}, "geometry": {"type": "Point", "coordinates": [19.0621568, 47.4932623]}}, {"type": "Feature", "properties": {"code": "Vt-V/P-1", "reg": "viii-kesz", "conf": 0.958}, "geometry": {"type": "Point", "coordinates": [19.062712, 47.4924728]}}, {"type": "Feature", "properties": {"code": "Vt-V/P-1", "reg": "viii-kesz", "conf": 0.952}, "geometry": {"type": "Point", "coordinates": [19.0665705, 47.4922512]}}, {"type": "Feature", "properties": {"code": "Vt-V/P-3", "reg": "viii-kesz", "conf": 0.945}, "geometry": {"type": "Point", "coordinates": [19.0649424, 47.4914279]}}, {"type": "Feature", "properties": {"code": "Kt-Fk", "reg": "viii-kesz", "conf": 0.932}, "geometry": {"type": "Point", "coordinates": [19.0685776, 47.4901456]}}, {"type": "Feature", "properties": {"code": "Kt-Gy", "reg": "viii-kesz", "conf": 0.924}, "geometry": {"type": "Point", "coordinates": [19.0668554, 47.4901125]}}, {"type": "Feature", "properties": {"code": "Vt-V/P-1", "reg": "viii-kesz", "conf": 0.884}, "geometry": {"type": "Point", "coordinates": [19.0684142, 47.4913391]}}, {"type": "Feature", "properties": {"code": "Kt-Fk", "reg": "viii-kesz", "conf": 0.862}, "geometry": {"type": "Point", "coordinates": [19.0666328, 47.4899994]}}, {"type": "Feature", "properties": {"code": "Kt-Kgy", "reg": "viii-kesz", "conf": 0.981}, "geometry": {"type": "Point", "coordinates": [19.0687197, 47.4891082]}}, {"type": "Feature", "properties": {"code": "Kt-Kgy", "reg": "viii-kesz", "conf": 0.971}, "geometry": {"type": "Point", "coordinates": [19.0683834, 47.4875398]}}, {"type": "Feature", "properties": {"code": "Kt-Kgy", "reg": "viii-kesz", "conf": 0.966}, "geometry": {"type": "Point", "coordinates": [19.0650181, 47.4890904]}}, {"type": "Feature", "properties": {"code": "Vt-V/P-1", "reg": "viii-kesz", "conf": 0.964}, "geometry": {"type": "Point", "coordinates": [19.0631889, 47.4892647]}}, {"type": "Feature", "properties": {"code": "Kt-Kgy", "reg": "viii-kesz", "conf": 0.964}, "geometry": {"type": "Point", "coordinates": [19.0638261, 47.4888494]}}, {"type": "Feature", "properties": {"code": "Kt-Kgy", "reg": "viii-kesz", "conf": 0.947}, "geometry": {"type": "Point", "coordinates": [19.0672595, 47.4891596]}}, {"type": "Feature", "properties": {"code": "Vt-V/P-1", "reg": "viii-kesz", "conf": 0.947}, "geometry": {"type": "Point", "coordinates": [19.0691864, 47.4869011]}}, {"type": "Feature", "properties": {"code": "Vt-V/P-1", "reg": "viii-kesz", "conf": 0.939}, "geometry": {"type": "Point", "coordinates": [19.0655021, 47.489367]}}, {"type": "Feature", "properties": {"code": "Kt-Fk", "reg": "viii-kesz", "conf": 0.864}, "geometry": {"type": "Point", "coordinates": [19.0640059, 47.4894546]}}, {"type": "Feature", "properties": {"code": "Kt-Kgy", "reg": "viii-kesz", "conf": 0.978}, "geometry": {"type": "Point", "coordinates": [19.0746001, 47.4967227]}}, {"type": "Feature", "properties": {"code": "Vt-V/N-2", "reg": "viii-kesz", "conf": 0.975}, "geometry": {"type": "Point", "coordinates": [19.0768608, 47.4968653]}}, {"type": "Feature", "properties": {"code": "Ln-1/N-1", "reg": "viii-kesz", "conf": 0.97}, "geometry": {"type": "Point", "coordinates": [19.0755165, 47.4966282]}}, {"type": "Feature", "properties": {"code": "Ln-1/N-1", "reg": "viii-kesz", "conf": 0.953}, "geometry": {"type": "Point", "coordinates": [19.0738193, 47.4960665]}}, {"type": "Feature", "properties": {"code": "Zkp/N-1", "reg": "viii-kesz", "conf": 0.92}, "geometry": {"type": "Point", "coordinates": [19.078271, 47.4964372]}}, {"type": "Feature", "properties": {"code": "Ln-1/N-1", "reg": "viii-kesz", "conf": 0.92}, "geometry": {"type": "Point", "coordinates": [19.0761599, 47.495489]}}, {"type": "Feature", "properties": {"code": "Ln-1/N-1", "reg": "viii-kesz", "conf": 0.986}, "geometry": {"type": "Point", "coordinates": [19.0784603, 47.4947964]}}, {"type": "Feature", "properties": {"code": "Ln-1/Cs-2", "reg": "viii-kesz", "conf": 0.985}, "geometry": {"type": "Point", "coordinates": [19.0778146, 47.491466]}}, {"type": "Feature", "properties": {"code": "Ln-1/Cs-3", "reg": "viii-kesz", "conf": 0.981}, "geometry": {"type": "Point", "coordinates": [19.0774548, 47.492931]}}, {"type": "Feature", "properties": {"code": "Ln-1/Cs-1", "reg": "viii-kesz", "conf": 0.981}, "geometry": {"type": "Point", "coordinates": [19.0766795, 47.4924516]}}, {"type": "Feature", "properties": {"code": "Ln-1/Cs-1", "reg": "viii-kesz", "conf": 0.98}, "geometry": {"type": "Point", "coordinates": [19.0739787, 47.4932624]}}, {"type": "Feature", "properties": {"code": "Ln-1/M-1", "reg": "viii-kesz", "conf": 0.979}, "geometry": {"type": "Point", "coordinates": [19.0784114, 47.4939446]}}, {"type": "Feature", "properties": {"code": "Ln-1/Cs-2", "reg": "viii-kesz", "conf": 0.979}, "geometry": {"type": "Point", "coordinates": [19.0750904, 47.493776]}}, {"type": "Feature", "properties": {"code": "Vt-V/P-1", "reg": "viii-kesz", "conf": 0.978}, "geometry": {"type": "Point", "coordinates": [19.0702831, 47.4951165]}}, {"type": "Feature", "properties": {"code": "Ln-1/Cs-2", "reg": "viii-kesz", "conf": 0.974}, "geometry": {"type": "Point", "coordinates": [19.0742261, 47.493891]}}, {"type": "Feature", "properties": {"code": "Kt-Kgy", "reg": "viii-kesz", "conf": 0.972}, "geometry": {"type": "Point", "coordinates": [19.0772671, 47.4941723]}}, {"type": "Feature", "properties": {"code": "Kt-Kgy", "reg": "viii-kesz", "conf": 0.97}, "geometry": {"type": "Point", "coordinates": [19.0785987, 47.4924838]}}, {"type": "Feature", "properties": {"code": "Ln-1/Cs-Kk", "reg": "viii-kesz", "conf": 0.969}, "geometry": {"type": "Point", "coordinates": [19.074382, 47.4935444]}}, {"type": "Feature", "properties": {"code": "Kt-Kgy", "reg": "viii-kesz", "conf": 0.969}, "geometry": {"type": "Point", "coordinates": [19.0791645, 47.4917131]}}, {"type": "Feature", "properties": {"code": "Vt-V/P-1", "reg": "viii-kesz", "conf": 0.966}, "geometry": {"type": "Point", "coordinates": [19.0704325, 47.4922314]}}, {"type": "Feature", "properties": {"code": "Ln-1/Cs-1", "reg": "viii-kesz", "conf": 0.965}, "geometry": {"type": "Point", "coordinates": [19.0760416, 47.4936114]}}, {"type": "Feature", "properties": {"code": "Ln-1/Cs-Kk", "reg": "viii-kesz", "conf": 0.965}, "geometry": {"type": "Point", "coordinates": [19.0762933, 47.4931865]}}, {"type": "Feature", "properties": {"code": "Ln-1/Cs-1", "reg": "viii-kesz", "conf": 0.965}, "geometry": {"type": "Point", "coordinates": [19.0778439, 47.4923759]}}, {"type": "Feature", "properties": {"code": "Ln-1/Cs-1", "reg": "viii-kesz", "conf": 0.964}, "geometry": {"type": "Point", "coordinates": [19.0736805, 47.4920465]}}, {"type": "Feature", "properties": {"code": "Vt-V/Cs-2", "reg": "viii-kesz", "conf": 0.962}, "geometry": {"type": "Point", "coordinates": [19.0732569, 47.4929058]}}, {"type": "Feature", "properties": {"code": "Ln-1/Cs-1", "reg": "viii-kesz", "conf": 0.962}, "geometry": {"type": "Point", "coordinates": [19.0754973, 47.4946503]}}, {"type": "Feature", "properties": {"code": "Ln-1/Cs-1", "reg": "viii-kesz", "conf": 0.962}, "geometry": {"type": "Point", "coordinates": [19.0758739, 47.492358]}}, {"type": "Feature", "properties": {"code": "Ln-1/Cs-1", "reg": "viii-kesz", "conf": 0.956}, "geometry": {"type": "Point", "coordinates": [19.0787161, 47.4917775]}}, {"type": "Feature", "properties": {"code": "Ln-1/Cs-1", "reg": "viii-kesz", "conf": 0.953}, "geometry": {"type": "Point", "coordinates": [19.0753813, 47.4932101]}}, {"type": "Feature", "properties": {"code": "Ln-1/Cs-1", "reg": "viii-kesz", "conf": 0.951}, "geometry": {"type": "Point", "coordinates": [19.0736317, 47.4947459]}}, {"type": "Feature", "properties": {"code": "Ln-1/Cs-1", "reg": "viii-kesz", "conf": 0.949}, "geometry": {"type": "Point", "coordinates": [19.0747984, 47.4921039]}}, {"type": "Feature", "properties": {"code": "Vt-V/P-1", "reg": "viii-kesz", "conf": 0.947}, "geometry": {"type": "Point", "coordinates": [19.0694075, 47.4951672]}}, {"type": "Feature", "properties": {"code": "Vt-V/P-1", "reg": "viii-kesz", "conf": 0.947}, "geometry": {"type": "Point", "coordinates": [19.0703911, 47.4931897]}}, {"type": "Feature", "properties": {"code": "Ln-1/Cs-1", "reg": "viii-kesz", "conf": 0.947}, "geometry": {"type": "Point", "coordinates": [19.0763457, 47.4946059]}}, {"type": "Feature", "properties": {"code": "Kt-Gy", "reg": "viii-kesz", "conf": 0.944}, "geometry": {"type": "Point", "coordinates": [19.0761907, 47.4930471]}}, {"type": "Feature", "properties": {"code": "Kt-Fk", "reg": "viii-kesz", "conf": 0.93}, "geometry": {"type": "Point", "coordinates": [19.0776113, 47.493273]}}, {"type": "Feature", "properties": {"code": "Kt-Gy", "reg": "viii-kesz", "conf": 0.929}, "geometry": {"type": "Point", "coordinates": [19.0727198, 47.4927318]}}, {"type": "Feature", "properties": {"code": "Vt-V/P-1", "reg": "viii-kesz", "conf": 0.929}, "geometry": {"type": "Point", "coordinates": [19.0695082, 47.4914538]}}, {"type": "Feature", "properties": {"code": "Ln-1/Cs-1", "reg": "viii-kesz", "conf": 0.926}, "geometry": {"type": "Point", "coordinates": [19.0768931, 47.4937857]}}, {"type": "Feature", "properties": {"code": "Kt-Fk-M", "reg": "viii-kesz", "conf": 0.916}, "geometry": {"type": "Point", "coordinates": [19.0754844, 47.4916581]}}, {"type": "Feature", "properties": {"code": "Ln-1/Cs-1", "reg": "viii-kesz", "conf": 0.915}, "geometry": {"type": "Point", "coordinates": [19.0746816, 47.4946835]}}, {"type": "Feature", "properties": {"code": "Kt-Fk", "reg": "viii-kesz", "conf": 0.903}, "geometry": {"type": "Point", "coordinates": [19.0695407, 47.4931996]}}, {"type": "Feature", "properties": {"code": "Ln-1/Cs-2", "reg": "viii-kesz", "conf": 0.986}, "geometry": {"type": "Point", "coordinates": [19.0771068, 47.4900296]}}, {"type": "Feature", "properties": {"code": "Ln-T/L-2", "reg": "viii-kesz", "conf": 0.985}, "geometry": {"type": "Point", "coordinates": [19.0790511, 47.4883411]}}, {"type": "Feature", "properties": {"code": "Ln-1/C-2", "reg": "viii-kesz", "conf": 0.982}, "geometry": {"type": "Point", "coordinates": [19.0727667, 47.4884647]}}, {"type": "Feature", "properties": {"code": "Ln-1/C-1", "reg": "viii-kesz", "conf": 0.982}, "geometry": {"type": "Point", "coordinates": [19.0750119, 47.4889877]}}, {"type": "Feature", "properties": {"code": "Ln-T/L-2", "reg": "viii-kesz", "conf": 0.982}, "geometry": {"type": "Point", "coordinates": [19.0781379, 47.4877534]}}, {"type": "Feature", "properties": {"code": "Ln-1/L-1", "reg": "viii-kesz", "conf": 0.981}, "geometry": {"type": "Point", "coordinates": [19.0784167, 47.488901]}}, {"type": "Feature", "properties": {"code": "Ln-T/L-Kt", "reg": "viii-kesz", "conf": 0.98}, "geometry": {"type": "Point", "coordinates": [19.078357, 47.4882984]}}, {"type": "Feature", "properties": {"code": "Ln-1/C-1", "reg": "viii-kesz", "conf": 0.98}, "geometry": {"type": "Point", "coordinates": [19.0730082, 47.4874101]}}, {"type": "Feature", "properties": {"code": "Ln-T/L-Kt", "reg": "viii-kesz", "conf": 0.98}, "geometry": {"type": "Point", "coordinates": [19.0783374, 47.4878836]}}, {"type": "Feature", "properties": {"code": "Ln-1/C-2", "reg": "viii-kesz", "conf": 0.978}, "geometry": {"type": "Point", "coordinates": [19.0766669, 47.4889786]}}, {"type": "Feature", "properties": {"code": "Vt-V/P-1", "reg": "viii-kesz", "conf": 0.976}, "geometry": {"type": "Point", "coordinates": [19.0695753, 47.4899334]}}, {"type": "Feature", "properties": {"code": "Ln-T/L-2", "reg": "viii-kesz", "conf": 0.976}, "geometry": {"type": "Point", "coordinates": [19.0776102, 47.4876287]}}, {"type": "Feature", "properties": {"code": "Vt-V/P-1", "reg": "viii-kesz", "conf": 0.975}, "geometry": {"type": "Point", "coordinates": [19.0694101, 47.4880377]}}, {"type": "Feature", "properties": {"code": "Zkp/C-Kk", "reg": "viii-kesz", "conf": 0.974}, "geometry": {"type": "Point", "coordinates": [19.0755817, 47.4893332]}}, {"type": "Feature", "properties": {"code": "Ln-1/C-3", "reg": "viii-kesz", "conf": 0.968}, "geometry": {"type": "Point", "coordinates": [19.0759669, 47.4883455]}}, {"type": "Feature", "properties": {"code": "Vt-V/Cs-2", "reg": "viii-kesz", "conf": 0.966}, "geometry": {"type": "Point", "coordinates": [19.0757326, 47.4898625]}}, {"type": "Feature", "properties": {"code": "Kt-Gy", "reg": "viii-kesz", "conf": 0.96}, "geometry": {"type": "Point", "coordinates": [19.0780158, 47.4909186]}}, {"type": "Feature", "properties": {"code": "Ln-1/C-2", "reg": "viii-kesz", "conf": 0.959}, "geometry": {"type": "Point", "coordinates": [19.0751547, 47.4883677]}}, {"type": "Feature", "properties": {"code": "Ln-T/L-Int", "reg": "viii-kesz", "conf": 0.951}, "geometry": {"type": "Point", "coordinates": [19.0781911, 47.4880645]}}, {"type": "Feature", "properties": {"code": "Kt-Fk", "reg": "viii-kesz", "conf": 0.95}, "geometry": {"type": "Point", "coordinates": [19.0704393, 47.4903211]}}, {"type": "Feature", "properties": {"code": "Kt-Fk", "reg": "viii-kesz", "conf": 0.939}, "geometry": {"type": "Point", "coordinates": [19.0748676, 47.4878606]}}, {"type": "Feature", "properties": {"code": "Ln-1/Cs-2", "reg": "viii-kesz", "conf": 0.938}, "geometry": {"type": "Point", "coordinates": [19.0764296, 47.4911033]}}, {"type": "Feature", "properties": {"code": "Kt-Fk-H", "reg": "viii-kesz", "conf": 0.935}, "geometry": {"type": "Point", "coordinates": [19.0749023, 47.4898445]}}, {"type": "Feature", "properties": {"code": "Ln-1/Cs-1", "reg": "viii-kesz", "conf": 0.932}, "geometry": {"type": "Point", "coordinates": [19.0785074, 47.4896134]}}, {"type": "Feature", "properties": {"code": "Ln-1/Cs-1", "reg": "viii-kesz", "conf": 0.927}, "geometry": {"type": "Point", "coordinates": [19.0763909, 47.4899101]}}, {"type": "Feature", "properties": {"code": "Kt-Kk", "reg": "viii-kesz", "conf": 0.919}, "geometry": {"type": "Point", "coordinates": [19.0771888, 47.4880638]}}, {"type": "Feature", "properties": {"code": "Kt-Kgy", "reg": "viii-kesz", "conf": 0.91}, "geometry": {"type": "Point", "coordinates": [19.0700341, 47.4894324]}}, {"type": "Feature", "properties": {"code": "Kt-Gy", "reg": "viii-kesz", "conf": 0.897}, "geometry": {"type": "Point", "coordinates": [19.075882, 47.4890935]}}, {"type": "Feature", "properties": {"code": "Vt-V/C-1", "reg": "viii-kesz", "conf": 0.894}, "geometry": {"type": "Point", "coordinates": [19.0737081, 47.4893769]}}, {"type": "Feature", "properties": {"code": "Ln-1/C-1", "reg": "viii-kesz", "conf": 0.863}, "geometry": {"type": "Point", "coordinates": [19.0739833, 47.4886821]}}, {"type": "Feature", "properties": {"code": "Ln-1/C-1", "reg": "viii-kesz", "conf": 0.855}, "geometry": {"type": "Point", "coordinates": [19.0773974, 47.4886747]}}, {"type": "Feature", "properties": {"code": "Ln-T/L-2", "reg": "viii-kesz", "conf": 0.986}, "geometry": {"type": "Point", "coordinates": [19.0782012, 47.4869524]}}, {"type": "Feature", "properties": {"code": "Ln-2/C-2", "reg": "viii-kesz", "conf": 0.984}, "geometry": {"type": "Point", "coordinates": [19.0786928, 47.4833563]}}, {"type": "Feature", "properties": {"code": "Ln-2/C-1", "reg": "viii-kesz", "conf": 0.981}, "geometry": {"type": "Point", "coordinates": [19.0768495, 47.4862736]}}, {"type": "Feature", "properties": {"code": "Vt-V/C-3", "reg": "viii-kesz", "conf": 0.98}, "geometry": {"type": "Point", "coordinates": [19.071352, 47.4862015]}}, {"type": "Feature", "properties": {"code": "Ln-1/C-3", "reg": "viii-kesz", "conf": 0.98}, "geometry": {"type": "Point", "coordinates": [19.0768392, 47.4869987]}}, {"type": "Feature", "properties": {"code": "Ln-2/C-2", "reg": "viii-kesz", "conf": 0.98}, "geometry": {"type": "Point", "coordinates": [19.0794439, 47.4844957]}}, {"type": "Feature", "properties": {"code": "Ln-2/C-1", "reg": "viii-kesz", "conf": 0.979}, "geometry": {"type": "Point", "coordinates": [19.0780752, 47.4862793]}}, {"type": "Feature", "properties": {"code": "Ln-2/C-1", "reg": "viii-kesz", "conf": 0.977}, "geometry": {"type": "Point", "coordinates": [19.0754139, 47.4853189]}}, {"type": "Feature", "properties": {"code": "Ln-2/C-2", "reg": "viii-kesz", "conf": 0.977}, "geometry": {"type": "Point", "coordinates": [19.0774823, 47.4840386]}}, {"type": "Feature", "properties": {"code": "Ln-2/C-2", "reg": "viii-kesz", "conf": 0.975}, "geometry": {"type": "Point", "coordinates": [19.0769265, 47.4848147]}}, {"type": "Feature", "properties": {"code": "Ln-1/C-2", "reg": "viii-kesz", "conf": 0.973}, "geometry": {"type": "Point", "coordinates": [19.0728984, 47.4869928]}}, {"type": "Feature", "properties": {"code": "Ln-2/C-1", "reg": "viii-kesz", "conf": 0.971}, "geometry": {"type": "Point", "coordinates": [19.0754056, 47.486341]}}, {"type": "Feature", "properties": {"code": "Ln-2/C-2", "reg": "viii-kesz", "conf": 0.971}, "geometry": {"type": "Point", "coordinates": [19.0763441, 47.484289]}}, {"type": "Feature", "properties": {"code": "Ln-2/C-1", "reg": "viii-kesz", "conf": 0.97}, "geometry": {"type": "Point", "coordinates": [19.0793094, 47.4856453]}}, {"type": "Feature", "properties": {"code": "Ln-2/C-1", "reg": "viii-kesz", "conf": 0.969}, "geometry": {"type": "Point", "coordinates": [19.0766869, 47.485426]}}, {"type": "Feature", "properties": {"code": "Ln-2/C-2", "reg": "viii-kesz", "conf": 0.963}, "geometry": {"type": "Point", "coordinates": [19.0761299, 47.484716]}}, {"type": "Feature", "properties": {"code": "Ln-2/C-1", "reg": "viii-kesz", "conf": 0.952}, "geometry": {"type": "Point", "coordinates": [19.0780653, 47.4853673]}}, {"type": "Feature", "properties": {"code": "Kt-Ez", "reg": "viii-kesz", "conf": 0.933}, "geometry": {"type": "Point", "coordinates": [19.0785278, 47.4849347]}}, {"type": "Feature", "properties": {"code": "Vt-V/C-2", "reg": "viii-kesz", "conf": 0.926}, "geometry": {"type": "Point", "coordinates": [19.0727375, 47.485977]}}, {"type": "Feature", "properties": {"code": "Vt-V/C-1", "reg": "viii-kesz", "conf": 0.914}, "geometry": {"type": "Point", "coordinates": [19.0726398, 47.4865425]}}, {"type": "Feature", "properties": {"code": "Vt-V/C-2", "reg": "viii-kesz", "conf": 0.913}, "geometry": {"type": "Point", "coordinates": [19.0741107, 47.4861682]}}, {"type": "Feature", "properties": {"code": "Vt-V/C-1", "reg": "viii-kesz", "conf": 0.91}, "geometry": {"type": "Point", "coordinates": [19.0712225, 47.4857165]}}, {"type": "Feature", "properties": {"code": "Vt-V/C-1", "reg": "viii-kesz", "conf": 0.906}, "geometry": {"type": "Point", "coordinates": [19.0709849, 47.4865147]}}, {"type": "Feature", "properties": {"code": "Kt-Gy", "reg": "viii-kesz", "conf": 0.83}, "geometry": {"type": "Point", "coordinates": [19.0734737, 47.4855993]}}, {"type": "Feature", "properties": {"code": "Vi-1/K-1", "reg": "viii-kesz", "conf": 0.975}, "geometry": {"type": "Point", "coordinates": [19.0821435, 47.4981207]}}, {"type": "Feature", "properties": {"code": "Vi-1/K-2", "reg": "viii-kesz", "conf": 0.972}, "geometry": {"type": "Point", "coordinates": [19.0839183, 47.4980367]}}, {"type": "Feature", "properties": {"code": "K-Sp/K", "reg": "viii-kesz", "conf": 0.969}, "geometry": {"type": "Point", "coordinates": [19.0867147, 47.4982477]}}, {"type": "Feature", "properties": {"code": "Vt-V/K-1", "reg": "viii-kesz", "conf": 0.966}, "geometry": {"type": "Point", "coordinates": [19.0817116, 47.4990061]}}, {"type": "Feature", "properties": {"code": "Vi-1/N-2", "reg": "viii-kesz", "conf": 0.966}, "geometry": {"type": "Point", "coordinates": [19.080497, 47.4976202]}}, {"type": "Feature", "properties": {"code": "Vt-V/K-2", "reg": "viii-kesz", "conf": 0.96}, "geometry": {"type": "Point", "coordinates": [19.0839086, 47.4989993]}}, {"type": "Feature", "properties": {"code": "Ln-1/N-1", "reg": "viii-kesz", "conf": 0.986}, "geometry": {"type": "Point", "coordinates": [19.0801124, 47.4950291]}}, {"type": "Feature", "properties": {"code": "Vi-3/M-1", "reg": "viii-kesz", "conf": 0.986}, "geometry": {"type": "Point", "coordinates": [19.0835988, 47.4930447]}}, {"type": "Feature", "properties": {"code": "Kt-Kgy", "reg": "viii-kesz", "conf": 0.984}, "geometry": {"type": "Point", "coordinates": [19.0879008, 47.4919244]}}, {"type": "Feature", "properties": {"code": "Ln-1/M-1", "reg": "viii-kesz", "conf": 0.983}, "geometry": {"type": "Point", "coordinates": [19.0807672, 47.4934124]}}, {"type": "Feature", "properties": {"code": "Ln-1/M-2", "reg": "viii-kesz", "conf": 0.983}, "geometry": {"type": "Point", "coordinates": [19.082944, 47.491372]}}, {"type": "Feature", "properties": {"code": "Ln-1/M-2", "reg": "viii-kesz", "conf": 0.983}, "geometry": {"type": "Point", "coordinates": [19.0845207, 47.4919881]}}, {"type": "Feature", "properties": {"code": "Ln-1/M-1", "reg": "viii-kesz", "conf": 0.981}, "geometry": {"type": "Point", "coordinates": [19.0815272, 47.4925088]}}, {"type": "Feature", "properties": {"code": "Ln-1/N-1", "reg": "viii-kesz", "conf": 0.98}, "geometry": {"type": "Point", "coordinates": [19.0831828, 47.4945286]}}, {"type": "Feature", "properties": {"code": "Ln-1/M-1", "reg": "viii-kesz", "conf": 0.98}, "geometry": {"type": "Point", "coordinates": [19.0795493, 47.492838]}}, {"type": "Feature", "properties": {"code": "Kt-Kgy", "reg": "viii-kesz", "conf": 0.98}, "geometry": {"type": "Point", "coordinates": [19.0822301, 47.4921885]}}, {"type": "Feature", "properties": {"code": "Kt-Kgy", "reg": "viii-kesz", "conf": 0.979}, "geometry": {"type": "Point", "coordinates": [19.0834787, 47.4923839]}}, {"type": "Feature", "properties": {"code": "Kt-Kgy", "reg": "viii-kesz", "conf": 0.979}, "geometry": {"type": "Point", "coordinates": [19.0806951, 47.4916746]}}, {"type": "Feature", "properties": {"code": "Kt-Kgy", "reg": "viii-kesz", "conf": 0.978}, "geometry": {"type": "Point", "coordinates": [19.0858381, 47.492863]}}, {"type": "Feature", "properties": {"code": "Kt-Gy", "reg": "viii-kesz", "conf": 0.977}, "geometry": {"type": "Point", "coordinates": [19.079873, 47.4925208]}}, {"type": "Feature", "properties": {"code": "Ln-1/M-3", "reg": "viii-kesz", "conf": 0.975}, "geometry": {"type": "Point", "coordinates": [19.08567, 47.4922769]}}, {"type": "Feature", "properties": {"code": "Zkp/N-2", "reg": "viii-kesz", "conf": 0.965}, "geometry": {"type": "Point", "coordinates": [19.0846327, 47.4938119]}}, {"type": "Feature", "properties": {"code": "Ln-1/N-1", "reg": "viii-kesz", "conf": 0.957}, "geometry": {"type": "Point", "coordinates": [19.0810887, 47.4940997]}}, {"type": "Feature", "properties": {"code": "Zkp/N-T", "reg": "viii-kesz", "conf": 0.941}, "geometry": {"type": "Point", "coordinates": [19.0855714, 47.4936254]}}, {"type": "Feature", "properties": {"code": "Ln-1/M-3", "reg": "viii-kesz", "conf": 0.99}, "geometry": {"type": "Point", "coordinates": [19.0875843, 47.4905773]}}, {"type": "Feature", "properties": {"code": "Ln-T/L-2", "reg": "viii-kesz", "conf": 0.989}, "geometry": {"type": "Point", "coordinates": [19.0819967, 47.4882471]}}, {"type": "Feature", "properties": {"code": "Ln-1/M-1", "reg": "viii-kesz", "conf": 0.989}, "geometry": {"type": "Point", "coordinates": [19.0860893, 47.4903123]}}, {"type": "Feature", "properties": {"code": "Ln-T/L-3", "reg": "viii-kesz", "conf": 0.989}, "geometry": {"type": "Point", "coordinates": [19.0842888, 47.4883963]}}, {"type": "Feature", "properties": {"code": "Ln-T/L-1", "reg": "viii-kesz", "conf": 0.988}, "geometry": {"type": "Point", "coordinates": [19.0823345, 47.4872053]}}, {"type": "Feature", "properties": {"code": "Ln-T/L-3", "reg": "viii-kesz", "conf": 0.987}, "geometry": {"type": "Point", "coordinates": [19.083094, 47.4885506]}}, {"type": "Feature", "properties": {"code": "Ln-1/M-2", "reg": "viii-kesz", "conf": 0.986}, "geometry": {"type": "Point", "coordinates": [19.0814373, 47.4898088]}}, {"type": "Feature", "properties": {"code": "Ln-1/M-2", "reg": "viii-kesz", "conf": 0.986}, "geometry": {"type": "Point", "coordinates": [19.083209, 47.4896553]}}, {"type": "Feature", "properties": {"code": "Ln-T/L-A1", "reg": "viii-kesz", "conf": 0.986}, "geometry": {"type": "Point", "coordinates": [19.0816343, 47.4876617]}}, {"type": "Feature", "properties": {"code": "Ln-1/M-3", "reg": "viii-kesz", "conf": 0.985}, "geometry": {"type": "Point", "coordinates": [19.0847091, 47.4900235]}}, {"type": "Feature", "properties": {"code": "Ln-1/M-2", "reg": "viii-kesz", "conf": 0.984}, "geometry": {"type": "Point", "coordinates": [19.0810515, 47.4908248]}}, {"type": "Feature", "properties": {"code": "Ln-1/M-1", "reg": "viii-kesz", "conf": 0.984}, "geometry": {"type": "Point", "coordinates": [19.0835411, 47.4892658]}}, {"type": "Feature", "properties": {"code": "Ln-T/L-A2", "reg": "viii-kesz", "conf": 0.984}, "geometry": {"type": "Point", "coordinates": [19.0809524, 47.4881425]}}, {"type": "Feature", "properties": {"code": "Vi-1/M-1", "reg": "viii-kesz", "conf": 0.984}, "geometry": {"type": "Point", "coordinates": [19.0888811, 47.4909264]}}, {"type": "Feature", "properties": {"code": "Ln-T/L-2", "reg": "viii-kesz", "conf": 0.983}, "geometry": {"type": "Point", "coordinates": [19.0840904, 47.487996]}}, {"type": "Feature", "properties": {"code": "Ln-T/L-A2", "reg": "viii-kesz", "conf": 0.982}, "geometry": {"type": "Point", "coordinates": [19.0819566, 47.4880534]}}, {"type": "Feature", "properties": {"code": "Ln-T/L-A2", "reg": "viii-kesz", "conf": 0.982}, "geometry": {"type": "Point", "coordinates": [19.0830516, 47.4879153]}}, {"type": "Feature", "properties": {"code": "Ln-T/L-2", "reg": "viii-kesz", "conf": 0.98}, "geometry": {"type": "Point", "coordinates": [19.0809091, 47.4883928]}}, {"type": "Feature", "properties": {"code": "Ln-T/L-1", "reg": "viii-kesz", "conf": 0.98}, "geometry": {"type": "Point", "coordinates": [19.0834216, 47.4872226]}}, {"type": "Feature", "properties": {"code": "Ln-T/L-K", "reg": "viii-kesz", "conf": 0.979}, "geometry": {"type": "Point", "coordinates": [19.0845417, 47.4879287]}}, {"type": "Feature", "properties": {"code": "Ln-T/L-1", "reg": "viii-kesz", "conf": 0.975}, "geometry": {"type": "Point", "coordinates": [19.0845216, 47.4872292]}}, {"type": "Feature", "properties": {"code": "Kt-Kgy", "reg": "viii-kesz", "conf": 0.974}, "geometry": {"type": "Point", "coordinates": [19.0857112, 47.4900212]}}, {"type": "Feature", "properties": {"code": "Ln-T/L-Kt", "reg": "viii-kesz", "conf": 0.974}, "geometry": {"type": "Point", "coordinates": [19.0802139, 47.4871917]}}, {"type": "Feature", "properties": {"code": "Ln-T/L-Kt", "reg": "viii-kesz", "conf": 0.974}, "geometry": {"type": "Point", "coordinates": [19.0811126, 47.4871615]}}, {"type": "Feature", "properties": {"code": "Ln-1/M-Kk", "reg": "viii-kesz", "conf": 0.971}, "geometry": {"type": "Point", "coordinates": [19.083428, 47.4911942]}}, {"type": "Feature", "properties": {"code": "Ln-T/L-2", "reg": "viii-kesz", "conf": 0.97}, "geometry": {"type": "Point", "coordinates": [19.0830491, 47.4881115]}}, {"type": "Feature", "properties": {"code": "Ln-T/L-1", "reg": "viii-kesz", "conf": 0.97}, "geometry": {"type": "Point", "coordinates": [19.080323, 47.4878158]}}, {"type": "Feature", "properties": {"code": "Ln-1/M-1", "reg": "viii-kesz", "conf": 0.969}, "geometry": {"type": "Point", "coordinates": [19.0815126, 47.489385]}}, {"type": "Feature", "properties": {"code": "Ln-T/L-Kt", "reg": "viii-kesz", "conf": 0.968}, "geometry": {"type": "Point", "coordinates": [19.0809972, 47.4886231]}}, {"type": "Feature", "properties": {"code": "Kt-Kgy", "reg": "viii-kesz", "conf": 0.965}, "geometry": {"type": "Point", "coordinates": [19.0885373, 47.4872399]}}, {"type": "Feature", "properties": {"code": "Kt-Kgy", "reg": "viii-kesz", "conf": 0.964}, "geometry": {"type": "Point", "coordinates": [19.084604, 47.4911487]}}, {"type": "Feature", "properties": {"code": "Ln-T/L-K", "reg": "viii-kesz", "conf": 0.963}, "geometry": {"type": "Point", "coordinates": [19.0843286, 47.487478]}}, {"type": "Feature", "properties": {"code": "Ln-T/L-Kt", "reg": "viii-kesz", "conf": 0.962}, "geometry": {"type": "Point", "coordinates": [19.0807276, 47.4879044]}}, {"type": "Feature", "properties": {"code": "Ln-T/L-3", "reg": "viii-kesz", "conf": 0.961}, "geometry": {"type": "Point", "coordinates": [19.0821507, 47.4886738]}}, {"type": "Feature", "properties": {"code": "Ln-1/O-1", "reg": "viii-kesz", "conf": 0.961}, "geometry": {"type": "Point", "coordinates": [19.0886543, 47.4888968]}}, {"type": "Feature", "properties": {"code": "Ln-1/O-1", "reg": "viii-kesz", "conf": 0.959}, "geometry": {"type": "Point", "coordinates": [19.087192, 47.4876418]}}, {"type": "Feature", "properties": {"code": "Ln-1/O-1", "reg": "viii-kesz", "conf": 0.957}, "geometry": {"type": "Point", "coordinates": [19.08568, 47.4875032]}}, {"type": "Feature", "properties": {"code": "Kt-Kk", "reg": "viii-kesz", "conf": 0.944}, "geometry": {"type": "Point", "coordinates": [19.0850761, 47.4891069]}}, {"type": "Feature", "properties": {"code": "Ln-1/O-5", "reg": "viii-kesz", "conf": 0.934}, "geometry": {"type": "Point", "coordinates": [19.0889242, 47.487692]}}, {"type": "Feature", "properties": {"code": "Ln-1/O-3", "reg": "viii-kesz", "conf": 0.928}, "geometry": {"type": "Point", "coordinates": [19.0887634, 47.4882818]}}, {"type": "Feature", "properties": {"code": "Zkp/O-2", "reg": "viii-kesz", "conf": 0.924}, "geometry": {"type": "Point", "coordinates": [19.0860409, 47.4886063]}}, {"type": "Feature", "properties": {"code": "Kt-Fk", "reg": "viii-kesz", "conf": 0.83}, "geometry": {"type": "Point", "coordinates": [19.080518, 47.4899447]}}, {"type": "Feature", "properties": {"code": "Ln-T/L-2", "reg": "viii-kesz", "conf": 0.99}, "geometry": {"type": "Point", "coordinates": [19.0805719, 47.4870907]}}, {"type": "Feature", "properties": {"code": "Ln-2/L-3", "reg": "viii-kesz", "conf": 0.987}, "geometry": {"type": "Point", "coordinates": [19.0839408, 47.4851508]}}, {"type": "Feature", "properties": {"code": "Ln-2/L-2", "reg": "viii-kesz", "conf": 0.983}, "geometry": {"type": "Point", "coordinates": [19.0808031, 47.4846195]}}, {"type": "Feature", "properties": {"code": "Ln-2/L-1", "reg": "viii-kesz", "conf": 0.981}, "geometry": {"type": "Point", "coordinates": [19.0820356, 47.48641]}}, {"type": "Feature", "properties": {"code": "Ln-T/L-1", "reg": "viii-kesz", "conf": 0.981}, "geometry": {"type": "Point", "coordinates": [19.0815505, 47.4855272]}}, {"type": "Feature", "properties": {"code": "Ln-T/L-1", "reg": "viii-kesz", "conf": 0.981}, "geometry": {"type": "Point", "coordinates": [19.0804742, 47.4853406]}}, {"type": "Feature", "properties": {"code": "Ln-2/L-1", "reg": "viii-kesz", "conf": 0.98}, "geometry": {"type": "Point", "coordinates": [19.0842162, 47.4861611]}}, {"type": "Feature", "properties": {"code": "Ln-2/L-1", "reg": "viii-kesz", "conf": 0.975}, "geometry": {"type": "Point", "coordinates": [19.0815918, 47.4859462]}}, {"type": "Feature", "properties": {"code": "Ln-T/L-Kt", "reg": "viii-kesz", "conf": 0.975}, "geometry": {"type": "Point", "coordinates": [19.0830276, 47.4856261]}}, {"type": "Feature", "properties": {"code": "Ln-T/L-Kt", "reg": "viii-kesz", "conf": 0.975}, "geometry": {"type": "Point", "coordinates": [19.0824396, 47.485394]}}, {"type": "Feature", "properties": {"code": "Ln-T/L-Kt", "reg": "viii-kesz", "conf": 0.973}, "geometry": {"type": "Point", "coordinates": [19.0802192, 47.4853367]}}, {"type": "Feature", "properties": {"code": "Ln-T/L-1", "reg": "viii-kesz", "conf": 0.97}, "geometry": {"type": "Point", "coordinates": [19.0826178, 47.4855676]}}, {"type": "Feature", "properties": {"code": "Ln-2/L-1", "reg": "viii-kesz", "conf": 0.967}, "geometry": {"type": "Point", "coordinates": [19.0804435, 47.4864238]}}, {"type": "Feature", "properties": {"code": "Ln-1/O-1", "reg": "viii-kesz", "conf": 0.962}, "geometry": {"type": "Point", "coordinates": [19.0876404, 47.4863034]}}, {"type": "Feature", "properties": {"code": "Ln-T/L-A2", "reg": "viii-kesz", "conf": 0.961}, "geometry": {"type": "Point", "coordinates": [19.0809968, 47.4854587]}}, {"type": "Feature", "properties": {"code": "Ln-2/L-4", "reg": "viii-kesz", "conf": 0.961}, "geometry": {"type": "Point", "coordinates": [19.0829592, 47.4850597]}}, {"type": "Feature", "properties": {"code": "Ln-T/L-KSZ", "reg": "viii-kesz", "conf": 0.959}, "geometry": {"type": "Point", "coordinates": [19.0819493, 47.4856204]}}, {"type": "Feature", "properties": {"code": "Ln-T/L-KSZ", "reg": "viii-kesz", "conf": 0.949}, "geometry": {"type": "Point", "coordinates": [19.0821516, 47.485488]}}, {"type": "Feature", "properties": {"code": "Ln-1/O-1", "reg": "viii-kesz", "conf": 0.941}, "geometry": {"type": "Point", "coordinates": [19.0874745, 47.4851271]}}, {"type": "Feature", "properties": {"code": "Ln-1/O-1", "reg": "viii-kesz", "conf": 0.932}, "geometry": {"type": "Point", "coordinates": [19.0861131, 47.4856567]}}, {"type": "Feature", "properties": {"code": "Kt-Kk", "reg": "viii-kesz", "conf": 0.912}, "geometry": {"type": "Point", "coordinates": [19.0812194, 47.4864752]}}, {"type": "Feature", "properties": {"code": "Vi-1/G-1", "reg": "viii-kesz", "conf": 0.974}, "geometry": {"type": "Point", "coordinates": [19.0905953, 47.490778]}}, {"type": "Feature", "properties": {"code": "Vi-1/G-2", "reg": "viii-kesz", "conf": 0.967}, "geometry": {"type": "Point", "coordinates": [19.0939274, 47.48948]}}, {"type": "Feature", "properties": {"code": "Ln-1/O-1", "reg": "viii-kesz", "conf": 0.963}, "geometry": {"type": "Point", "coordinates": [19.0910441, 47.4880155]}}, {"type": "Feature", "properties": {"code": "Ln-1/O-3", "reg": "viii-kesz", "conf": 0.961}, "geometry": {"type": "Point", "coordinates": [19.0902894, 47.4889211]}}, {"type": "Feature", "properties": {"code": "Ln-1/O-3", "reg": "viii-kesz", "conf": 0.951}, "geometry": {"type": "Point", "coordinates": [19.0912792, 47.4884713]}}, {"type": "Feature", "properties": {"code": "Kt-Fk", "reg": "viii-kesz", "conf": 0.85}, "geometry": {"type": "Point", "coordinates": [19.0919321, 47.4891181]}}, {"type": "Feature", "properties": {"code": "Ln-2/T-1", "reg": "viii-kesz", "conf": 0.981}, "geometry": {"type": "Point", "coordinates": [19.0945906, 47.4841436]}}, {"type": "Feature", "properties": {"code": "Lk-1/T-1", "reg": "viii-kesz", "conf": 0.98}, "geometry": {"type": "Point", "coordinates": [19.0947181, 47.4831377]}}, {"type": "Feature", "properties": {"code": "Kt-Kgy", "reg": "viii-kesz", "conf": 0.979}, "geometry": {"type": "Point", "coordinates": [19.0914265, 47.4834412]}}, {"type": "Feature", "properties": {"code": "Ln-2/G", "reg": "viii-kesz", "conf": 0.976}, "geometry": {"type": "Point", "coordinates": [19.0981206, 47.4845662]}}, {"type": "Feature", "properties": {"code": "Ln-2/T-1", "reg": "viii-kesz", "conf": 0.972}, "geometry": {"type": "Point", "coordinates": [19.0972161, 47.4832919]}}, {"type": "Feature", "properties": {"code": "Ln-1/O-4", "reg": "viii-kesz", "conf": 0.966}, "geometry": {"type": "Point", "coordinates": [19.0908628, 47.4863169]}}, {"type": "Feature", "properties": {"code": "Ln-2/T-2", "reg": "viii-kesz", "conf": 0.966}, "geometry": {"type": "Point", "coordinates": [19.0948313, 47.4846881]}}, {"type": "Feature", "properties": {"code": "Ln-1/O-1", "reg": "viii-kesz", "conf": 0.965}, "geometry": {"type": "Point", "coordinates": [19.0904623, 47.4851955]}}, {"type": "Feature", "properties": {"code": "Kt-Kgy", "reg": "viii-kesz", "conf": 0.962}, "geometry": {"type": "Point", "coordinates": [19.0897529, 47.4856639]}}, {"type": "Feature", "properties": {"code": "Ln-1/O-1", "reg": "viii-kesz", "conf": 0.957}, "geometry": {"type": "Point", "coordinates": [19.0916083, 47.48401]}}, {"type": "Feature", "properties": {"code": "Zkp/G-T", "reg": "viii-kesz", "conf": 0.956}, "geometry": {"type": "Point", "coordinates": [19.0935199, 47.485952]}}, {"type": "Feature", "properties": {"code": "Ln-1/O-2", "reg": "viii-kesz", "conf": 0.956}, "geometry": {"type": "Point", "coordinates": [19.0914519, 47.4855438]}}, {"type": "Feature", "properties": {"code": "Kt-Gy", "reg": "viii-kesz", "conf": 0.955}, "geometry": {"type": "Point", "coordinates": [19.0991775, 47.4831085]}}, {"type": "Feature", "properties": {"code": "Ln-1/O-2", "reg": "viii-kesz", "conf": 0.951}, "geometry": {"type": "Point", "coordinates": [19.0924187, 47.4841471]}}, {"type": "Feature", "properties": {"code": "Ln-1/O-1", "reg": "viii-kesz", "conf": 0.934}, "geometry": {"type": "Point", "coordinates": [19.0916102, 47.4840112]}}, {"type": "Feature", "properties": {"code": "Ln-1/O-1", "reg": "viii-kesz", "conf": 0.912}, "geometry": {"type": "Point", "coordinates": [19.092368, 47.4859281]}}, {"type": "Feature", "properties": {"code": "Ln-2/T-2", "reg": "viii-kesz", "conf": 0.882}, "geometry": {"type": "Point", "coordinates": [19.0979546, 47.4835537]}}, {"type": "Feature", "properties": {"code": "Vi-2/T-1", "reg": "viii-kesz", "conf": 0.989}, "geometry": {"type": "Point", "coordinates": [19.093578, 47.4802388]}}, {"type": "Feature", "properties": {"code": "Vi-2/T-2", "reg": "viii-kesz", "conf": 0.985}, "geometry": {"type": "Point", "coordinates": [19.096161, 47.4790578]}}, {"type": "Feature", "properties": {"code": "Kt-Kgy", "reg": "viii-kesz", "conf": 0.981}, "geometry": {"type": "Point", "coordinates": [19.0981785, 47.4791288]}}, {"type": "Feature", "properties": {"code": "Kt-Kgy", "reg": "viii-kesz", "conf": 0.973}, "geometry": {"type": "Point", "coordinates": [19.0958149, 47.4800036]}}, {"type": "Feature", "properties": {"code": "Kt-Kgy", "reg": "viii-kesz", "conf": 0.968}, "geometry": {"type": "Point", "coordinates": [19.0926949, 47.4817831]}}, {"type": "Feature", "properties": {"code": "Lk-1/T-1", "reg": "viii-kesz", "conf": 0.968}, "geometry": {"type": "Point", "coordinates": [19.0967418, 47.4812316]}}, {"type": "Feature", "properties": {"code": "Lk-1/T-1", "reg": "viii-kesz", "conf": 0.962}, "geometry": {"type": "Point", "coordinates": [19.0944143, 47.4810968]}}, {"type": "Feature", "properties": {"code": "Kt-Ez", "reg": "viii-kesz", "conf": 0.961}, "geometry": {"type": "Point", "coordinates": [19.0930273, 47.481691]}}, {"type": "Feature", "properties": {"code": "Lk-1/T-1", "reg": "viii-kesz", "conf": 0.954}, "geometry": {"type": "Point", "coordinates": [19.0990628, 47.4803473]}}, {"type": "Feature", "properties": {"code": "Lk-1/T-1", "reg": "viii-kesz", "conf": 0.951}, "geometry": {"type": "Point", "coordinates": [19.0972921, 47.4822031]}}, {"type": "Feature", "properties": {"code": "Ln-1/O-1", "reg": "viii-kesz", "conf": 0.95}, "geometry": {"type": "Point", "coordinates": [19.0927965, 47.4823615]}}, {"type": "Feature", "properties": {"code": "Lk-1/T-1", "reg": "viii-kesz", "conf": 0.942}, "geometry": {"type": "Point", "coordinates": [19.0947011, 47.4820934]}}, {"type": "Feature", "properties": {"code": "Lk-1/T-1", "reg": "viii-kesz", "conf": 0.941}, "geometry": {"type": "Point", "coordinates": [19.0961133, 47.4804167]}}, {"type": "Feature", "properties": {"code": "Lk-1/T-1", "reg": "viii-kesz", "conf": 0.931}, "geometry": {"type": "Point", "coordinates": [19.0985531, 47.4795388]}}, {"type": "Feature", "properties": {"code": "Zkp/T-1", "reg": "viii-kesz", "conf": 0.93}, "geometry": {"type": "Point", "coordinates": [19.0949095, 47.4795119]}}, {"type": "Feature", "properties": {"code": "Vi-1/T-2", "reg": "viii-kesz", "conf": 0.979}, "geometry": {"type": "Point", "coordinates": [19.0938714, 47.4782122]}}, {"type": "Feature", "properties": {"code": "Vi-1/T-2", "reg": "viii-kesz", "conf": 0.976}, "geometry": {"type": "Point", "coordinates": [19.0948849, 47.4778326]}}, {"type": "Feature", "properties": {"code": "Lk-1/T-2", "reg": "viii-kesz", "conf": 0.946}, "geometry": {"type": "Point", "coordinates": [19.0978094, 47.4783643]}}, {"type": "Feature", "properties": {"code": "Lk-1/T-Int", "reg": "viii-kesz", "conf": 0.943}, "geometry": {"type": "Point", "coordinates": [19.09802, 47.4787462]}}, {"type": "Feature", "properties": {"code": "Vi-1/T-1", "reg": "viii-kesz", "conf": 0.942}, "geometry": {"type": "Point", "coordinates": [19.097531, 47.4772039]}}, {"type": "Feature", "properties": {"code": "Vi-1/Sz-4", "reg": "viii-kesz", "conf": 0.984}, "geometry": {"type": "Point", "coordinates": [19.107386, 47.4972654]}}, {"type": "Feature", "properties": {"code": "Lk-2/Sz-2", "reg": "viii-kesz", "conf": 0.979}, "geometry": {"type": "Point", "coordinates": [19.1060063, 47.4969112]}}, {"type": "Feature", "properties": {"code": "K-Hon/Sz", "reg": "viii-kesz", "conf": 0.977}, "geometry": {"type": "Point", "coordinates": [19.1037113, 47.4985192]}}, {"type": "Feature", "properties": {"code": "Vi-1/Sz-1", "reg": "viii-kesz", "conf": 0.975}, "geometry": {"type": "Point", "coordinates": [19.1081008, 47.4956398]}}, {"type": "Feature", "properties": {"code": "Vi-1/Sz-2", "reg": "viii-kesz", "conf": 0.974}, "geometry": {"type": "Point", "coordinates": [19.103911, 47.4992983]}}, {"type": "Feature", "properties": {"code": "Vi-1/Sz-3", "reg": "viii-kesz", "conf": 0.973}, "geometry": {"type": "Point", "coordinates": [19.1082294, 47.4968365]}}, {"type": "Feature", "properties": {"code": "Vi-1/Sz-1", "reg": "viii-kesz", "conf": 0.971}, "geometry": {"type": "Point", "coordinates": [19.1078994, 47.4986058]}}, {"type": "Feature", "properties": {"code": "Lk-2/Sz-2", "reg": "viii-kesz", "conf": 0.969}, "geometry": {"type": "Point", "coordinates": [19.1038453, 47.4966271]}}, {"type": "Feature", "properties": {"code": "Vi-1/Sz-1", "reg": "viii-kesz", "conf": 0.966}, "geometry": {"type": "Point", "coordinates": [19.1020951, 47.4984439]}}, {"type": "Feature", "properties": {"code": "Lk-2/Sz-2", "reg": "viii-kesz", "conf": 0.964}, "geometry": {"type": "Point", "coordinates": [19.1047128, 47.4966563]}}, {"type": "Feature", "properties": {"code": "Lk-2/Sz-1", "reg": "viii-kesz", "conf": 0.96}, "geometry": {"type": "Point", "coordinates": [19.1053182, 47.4986544]}}, {"type": "Feature", "properties": {"code": "Lk-2/Sz-1", "reg": "viii-kesz", "conf": 0.958}, "geometry": {"type": "Point", "coordinates": [19.104143, 47.4955797]}}, {"type": "Feature", "properties": {"code": "Lk-2/Sz-2", "reg": "viii-kesz", "conf": 0.958}, "geometry": {"type": "Point", "coordinates": [19.1063051, 47.4954002]}}, {"type": "Feature", "properties": {"code": "Vi-1/Sz-2", "reg": "viii-kesz", "conf": 0.957}, "geometry": {"type": "Point", "coordinates": [19.1070159, 47.4984922]}}, {"type": "Feature", "properties": {"code": "Gksz-2/Sz-1", "reg": "viii-kesz", "conf": 0.94}, "geometry": {"type": "Point", "coordinates": [19.10241, 47.4954511]}}, {"type": "Feature", "properties": {"code": "Vi-1/Sz-1", "reg": "viii-kesz", "conf": 0.932}, "geometry": {"type": "Point", "coordinates": [19.1072854, 47.4994808]}}, {"type": "Feature", "properties": {"code": "Vi-1/Sz-2", "reg": "viii-kesz", "conf": 0.927}, "geometry": {"type": "Point", "coordinates": [19.1053811, 47.4994885]}}, {"type": "Feature", "properties": {"code": "K-Sp/Sz", "reg": "viii-kesz", "conf": 0.984}, "geometry": {"type": "Point", "coordinates": [19.1061937, 47.4924164]}}, {"type": "Feature", "properties": {"code": "Kt-Ez", "reg": "viii-kesz", "conf": 0.979}, "geometry": {"type": "Point", "coordinates": [19.1085061, 47.4915191]}}, {"type": "Feature", "properties": {"code": "Ln-1/Sz-1", "reg": "viii-kesz", "conf": 0.977}, "geometry": {"type": "Point", "coordinates": [19.1083549, 47.4927712]}}, {"type": "Feature", "properties": {"code": "Ln-1/Sz-1", "reg": "viii-kesz", "conf": 0.976}, "geometry": {"type": "Point", "coordinates": [19.1081517, 47.4941751]}}, {"type": "Feature", "properties": {"code": "Ln-1/Sz-2", "reg": "viii-kesz", "conf": 0.971}, "geometry": {"type": "Point", "coordinates": [19.1063669, 47.4938887]}}, {"type": "Feature", "properties": {"code": "K-Rek/K", "reg": "viii-kesz", "conf": 0.957}, "geometry": {"type": "Point", "coordinates": [19.1016809, 47.4915793]}}, {"type": "Feature", "properties": {"code": "Lk-2/Sz-1", "reg": "viii-kesz", "conf": 0.953}, "geometry": {"type": "Point", "coordinates": [19.1050769, 47.4952833]}}, {"type": "Feature", "properties": {"code": "Kt-Kk", "reg": "viii-kesz", "conf": 0.941}, "geometry": {"type": "Point", "coordinates": [19.1052982, 47.4942253]}}, {"type": "Feature", "properties": {"code": "Ln-1/Sz-3", "reg": "viii-kesz", "conf": 0.934}, "geometry": {"type": "Point", "coordinates": [19.1056547, 47.494267]}}, {"type": "Feature", "properties": {"code": "Kt-Kk", "reg": "viii-kesz", "conf": 0.933}, "geometry": {"type": "Point", "coordinates": [19.1060166, 47.4943051]}}, {"type": "Feature", "properties": {"code": "Lke-1/Sz-2", "reg": "viii-kesz", "conf": 0.989}, "geometry": {"type": "Point", "coordinates": [19.1081214, 47.4888845]}}, {"type": "Feature", "properties": {"code": "Lke-1/Sz-2", "reg": "viii-kesz", "conf": 0.984}, "geometry": {"type": "Point", "coordinates": [19.1081388, 47.489726]}}, {"type": "Feature", "properties": {"code": "Lke-1/Sz-1", "reg": "viii-kesz", "conf": 0.966}, "geometry": {"type": "Point", "coordinates": [19.1066617, 47.4896986]}}, {"type": "Feature", "properties": {"code": "Zkp/Sz-Kk", "reg": "viii-kesz", "conf": 0.947}, "geometry": {"type": "Point", "coordinates": [19.1081602, 47.4894787]}}, {"type": "Feature", "properties": {"code": "Kt-Ez", "reg": "viii-kesz", "conf": 0.931}, "geometry": {"type": "Point", "coordinates": [19.1078144, 47.4878613]}}, {"type": "Feature", "properties": {"code": "K-Sp/Sz", "reg": "viii-kesz", "conf": 0.925}, "geometry": {"type": "Point", "coordinates": [19.1066508, 47.4909251]}}, {"type": "Feature", "properties": {"code": "Zkp/Sz-Kk-Int", "reg": "viii-kesz", "conf": 0.911}, "geometry": {"type": "Point", "coordinates": [19.1080677, 47.4892795]}}, {"type": "Feature", "properties": {"code": "Kt-Ez", "reg": "viii-kesz", "conf": 0.91}, "geometry": {"type": "Point", "coordinates": [19.1068259, 47.4881559]}}, {"type": "Feature", "properties": {"code": "Lke-1/Sz-1", "reg": "viii-kesz", "conf": 0.858}, "geometry": {"type": "Point", "coordinates": [19.1068493, 47.4893614]}}, {"type": "Feature", "properties": {"code": "Gksz-2/G", "reg": "viii-kesz", "conf": 0.965}, "geometry": {"type": "Point", "coordinates": [19.1024648, 47.4853034]}}, {"type": "Feature", "properties": {"code": "Vi-1/T-2", "reg": "viii-kesz", "conf": 0.988}, "geometry": {"type": "Point", "coordinates": [19.1004861, 47.4789849]}}, {"type": "Feature", "properties": {"code": "Vi-1/T-2", "reg": "viii-kesz", "conf": 0.986}, "geometry": {"type": "Point", "coordinates": [19.1023798, 47.4817166]}}, {"type": "Feature", "properties": {"code": "Vi-1/T-2", "reg": "viii-kesz", "conf": 0.984}, "geometry": {"type": "Point", "coordinates": [19.1016602, 47.4807191]}}, {"type": "Feature", "properties": {"code": "Ln-2/T-2", "reg": "viii-kesz", "conf": 0.98}, "geometry": {"type": "Point", "coordinates": [19.1006538, 47.4826914]}}, {"type": "Feature", "properties": {"code": "Ln-2/T-1", "reg": "viii-kesz", "conf": 0.972}, "geometry": {"type": "Point", "coordinates": [19.1002509, 47.4821748]}}, {"type": "Feature", "properties": {"code": "Lk-1/T-1", "reg": "viii-kesz", "conf": 0.965}, "geometry": {"type": "Point", "coordinates": [19.099789, 47.4789327]}}, {"type": "Feature", "properties": {"code": "Lk-1/T-1", "reg": "viii-kesz", "conf": 0.962}, "geometry": {"type": "Point", "coordinates": [19.09986, 47.4812206]}}, {"type": "Feature", "properties": {"code": "Lk-1/T-1", "reg": "viii-kesz", "conf": 0.943}, "geometry": {"type": "Point", "coordinates": [19.1010653, 47.4807416]}}, {"type": "Feature", "properties": {"code": "Lk-1/T-1", "reg": "viii-kesz", "conf": 0.927}, "geometry": {"type": "Point", "coordinates": [19.1004139, 47.4797588]}}, {"type": "Feature", "properties": {"code": "Kt-Kk", "reg": "viii-kesz", "conf": 0.896}, "geometry": {"type": "Point", "coordinates": [19.1032325, 47.4820466]}}, {"type": "Feature", "properties": {"code": "Vi-1/T-2", "reg": "viii-kesz", "conf": 0.967}, "geometry": {"type": "Point", "coordinates": [19.0994545, 47.4780479]}}]}