{"type": "FeatureCollection", "features": [{"type": "Feature", "properties": {"code": "K-Hon", "reg": "v-kesz", "conf": 0.996}, "geometry": {"type": "Point", "coordinates": [19.049279, 47.5108994]}}, {"type": "Feature", "properties": {"code": "Vt-V/1", "reg": "v-kesz", "conf": 0.994}, "geometry": {"type": "Point", "coordinates": [19.0518804, 47.4937351]}}, {"type": "Feature", "properties": {"code": "Zkp/Kk-1", "reg": "v-kesz", "conf": 0.994}, "geometry": {"type": "Point", "coordinates": [19.0594676, 47.4920425]}}, {"type": "Feature", "properties": {"code": "Zkp/Kk-1", "reg": "v-kesz", "conf": 0.992}, "geometry": {"type": "Point", "coordinates": [19.0506102, 47.509834]}}, {"type": "Feature", "properties": {"code": "Vt-V/1", "reg": "v-kesz", "conf": 0.992}, "geometry": {"type": "Point", "coordinates": [19.0543911, 47.4968975]}}, {"type": "Feature", "properties": {"code": "K-Hon", "reg": "v-kesz", "conf": 0.991}, "geometry": {"type": "Point", "coordinates": [19.0490663, 47.5100816]}}, {"type": "Feature", "properties": {"code": "Vt-V/1", "reg": "v-kesz", "conf": 0.991}, "geometry": {"type": "Point", "coordinates": [19.0461006, 47.5021662]}}, {"type": "Feature", "properties": {"code": "Vt-V/1", "reg": "v-kesz", "conf": 0.991}, "geometry": {"type": "Point", "coordinates": [19.0531583, 47.4973216]}}, {"type": "Feature", "properties": {"code": "Vt-V/1", "reg": "v-kesz", "conf": 0.99}, "geometry": {"type": "Point", "coordinates": [19.054024, 47.5008597]}}, {"type": "Feature", "properties": {"code": "Vt-V/1", "reg": "v-kesz", "conf": 0.99}, "geometry": {"type": "Point", "coordinates": [19.0523116, 47.4922202]}}, {"type": "Feature", "properties": {"code": "Vt-V/2", "reg": "v-kesz", "conf": 0.99}, "geometry": {"type": "Point", "coordinates": [19.0573071, 47.4913723]}}, {"type": "Feature", "properties": {"code": "Vt-V/1", "reg": "v-kesz", "conf": 0.989}, "geometry": {"type": "Point", "coordinates": [19.0464763, 47.5044775]}}, {"type": "Feature", "properties": {"code": "Vt-V/3", "reg": "v-kesz", "conf": 0.989}, "geometry": {"type": "Point", "coordinates": [19.0552408, 47.4958741]}}, {"type": "Feature", "properties": {"code": "Zkp/Kk-1", "reg": "v-kesz", "conf": 0.989}, "geometry": {"type": "Point", "coordinates": [19.0502246, 47.4933069]}}, {"type": "Feature", "properties": {"code": "Vt-V/1", "reg": "v-kesz", "conf": 0.988}, "geometry": {"type": "Point", "coordinates": [19.0511213, 47.5115327]}}, {"type": "Feature", "properties": {"code": "Vt-V/1", "reg": "v-kesz", "conf": 0.988}, "geometry": {"type": "Point", "coordinates": [19.0459177, 47.5029758]}}, {"type": "Feature", "properties": {"code": "Vt-V/1", "reg": "v-kesz", "conf": 0.988}, "geometry": {"type": "Point", "coordinates": [19.0523717, 47.5015882]}}, {"type": "Feature", "properties": {"code": "Vt-V/2", "reg": "v-kesz", "conf": 0.988}, "geometry": {"type": "Point", "coordinates": [19.0552505, 47.4910516]}}, {"type": "Feature", "properties": {"code": "Vt-V/1", "reg": "v-kesz", "conf": 0.987}, "geometry": {"type": "Point", "coordinates": [19.0508666, 47.5106507]}}, {"type": "Feature", "properties": {"code": "Vt-V/1", "reg": "v-kesz", "conf": 0.987}, "geometry": {"type": "Point", "coordinates": [19.0494038, 47.5068511]}}, {"type": "Feature", "properties": {"code": "Vt-V/1", "reg": "v-kesz", "conf": 0.987}, "geometry": {"type": "Point", "coordinates": [19.047807, 47.497379]}}, {"type": "Feature", "properties": {"code": "Vt-V/2", "reg": "v-kesz", "conf": 0.987}, "geometry": {"type": "Point", "coordinates": [19.0589556, 47.4897059]}}, {"type": "Feature", "properties": {"code": "Zkp/Kk-1", "reg": "v-kesz", "conf": 0.986}, "geometry": {"type": "Point", "coordinates": [19.0466244, 47.5108772]}}, {"type": "Feature", "properties": {"code": "Vt-V/1", "reg": "v-kesz", "conf": 0.986}, "geometry": {"type": "Point", "coordinates": [19.0539717, 47.5073154]}}, {"type": "Feature", "properties": {"code": "Vt-V/1", "reg": "v-kesz", "conf": 0.986}, "geometry": {"type": "Point", "coordinates": [19.049152, 47.503768]}}, {"type": "Feature", "properties": {"code": "Vt-V/1", "reg": "v-kesz", "conf": 0.986}, "geometry": {"type": "Point", "coordinates": [19.046413, 47.5014151]}}, {"type": "Feature", "properties": {"code": "Vt-V/1", "reg": "v-kesz", "conf": 0.986}, "geometry": {"type": "Point", "coordinates": [19.0485001, 47.4977677]}}, {"type": "Feature", "properties": {"code": "Vt-V/1", "reg": "v-kesz", "conf": 0.986}, "geometry": {"type": "Point", "coordinates": [19.0525768, 47.4928273]}}, {"type": "Feature", "properties": {"code": "Vt-V/1", "reg": "v-kesz", "conf": 0.986}, "geometry": {"type": "Point", "coordinates": [19.0545677, 47.4918551]}}, {"type": "Feature", "properties": {"code": "Vt-V/1", "reg": "v-kesz", "conf": 0.985}, "geometry": {"type": "Point", "coordinates": [19.0456396, 47.5070916]}}, {"type": "Feature", "properties": {"code": "Vt-V/1", "reg": "v-kesz", "conf": 0.985}, "geometry": {"type": "Point", "coordinates": [19.0510499, 47.4980613]}}, {"type": "Feature", "properties": {"code": "Vt-V/1", "reg": "v-kesz", "conf": 0.984}, "geometry": {"type": "Point", "coordinates": [19.0472982, 47.5092227]}}, {"type": "Feature", "properties": {"code": "Vt-V/1", "reg": "v-kesz", "conf": 0.984}, "geometry": {"type": "Point", "coordinates": [19.0522186, 47.51045]}}, {"type": "Feature", "properties": {"code": "Vt-V/1", "reg": "v-kesz", "conf": 0.984}, "geometry": {"type": "Point", "coordinates": [19.0492846, 47.5078943]}}, {"type": "Feature", "properties": {"code": "Vt-V/1", "reg": "v-kesz", "conf": 0.984}, "geometry": {"type": "Point", "coordinates": [19.0520071, 47.5036437]}}, {"type": "Feature", "properties": {"code": "Vt-V/1", "reg": "v-kesz", "conf": 0.984}, "geometry": {"type": "Point", "coordinates": [19.0485714, 47.4998486]}}, {"type": "Feature", "properties": {"code": "Vt-V/1", "reg": "v-kesz", "conf": 0.983}, "geometry": {"type": "Point", "coordinates": [19.0540436, 47.4948862]}}, {"type": "Feature", "properties": {"code": "Vt-V/1", "reg": "v-kesz", "conf": 0.983}, "geometry": {"type": "Point", "coordinates": [19.0568, 47.4878916]}}, {"type": "Feature", "properties": {"code": "Vt-V/1", "reg": "v-kesz", "conf": 0.982}, "geometry": {"type": "Point", "coordinates": [19.0513871, 47.5078395]}}, {"type": "Feature", "properties": {"code": "Vt-V/1", "reg": "v-kesz", "conf": 0.981}, "geometry": {"type": "Point", "coordinates": [19.0515135, 47.506487]}}, {"type": "Feature", "properties": {"code": "Vt-V/1", "reg": "v-kesz", "conf": 0.981}, "geometry": {"type": "Point", "coordinates": [19.0457704, 47.5036869]}}, {"type": "Feature", "properties": {"code": "Vt-V/1", "reg": "v-kesz", "conf": 0.981}, "geometry": {"type": "Point", "coordinates": [19.0520808, 47.502589]}}, {"type": "Feature", "properties": {"code": "Vt-V/1", "reg": "v-kesz", "conf": 0.981}, "geometry": {"type": "Point", "coordinates": [19.0501892, 47.497203]}}, {"type": "Feature", "properties": {"code": "Vt-V/1", "reg": "v-kesz", "conf": 0.98}, "geometry": {"type": "Point", "coordinates": [19.0524265, 47.5111143]}}, {"type": "Feature", "properties": {"code": "Zkp/Kk-1", "reg": "v-kesz", "conf": 0.98}, "geometry": {"type": "Point", "coordinates": [19.0496986, 47.5028212]}}, {"type": "Feature", "properties": {"code": "Vt-V/1", "reg": "v-kesz", "conf": 0.98}, "geometry": {"type": "Point", "coordinates": [19.0533243, 47.5029322]}}, {"type": "Feature", "properties": {"code": "Vt-V/1", "reg": "v-kesz", "conf": 0.98}, "geometry": {"type": "Point", "coordinates": [19.0497581, 47.4960368]}}, {"type": "Feature", "properties": {"code": "Vt-V/1", "reg": "v-kesz", "conf": 0.98}, "geometry": {"type": "Point", "coordinates": [19.0523086, 47.4970542]}}, {"type": "Feature", "properties": {"code": "Vt-V/1", "reg": "v-kesz", "conf": 0.98}, "geometry": {"type": "Point", "coordinates": [19.0523131, 47.4911093]}}, {"type": "Feature", "properties": {"code": "Vt-V/1", "reg": "v-kesz", "conf": 0.979}, "geometry": {"type": "Point", "coordinates": [19.0524274, 47.4950387]}}, {"type": "Feature", "properties": {"code": "Vt-V/2", "reg": "v-kesz", "conf": 0.979}, "geometry": {"type": "Point", "coordinates": [19.0561492, 47.4887055]}}, {"type": "Feature", "properties": {"code": "Vt-V/2", "reg": "v-kesz", "conf": 0.978}, "geometry": {"type": "Point", "coordinates": [19.0563563, 47.4911702]}}, {"type": "Feature", "properties": {"code": "Vt-V/1", "reg": "v-kesz", "conf": 0.977}, "geometry": {"type": "Point", "coordinates": [19.0599321, 47.4934262]}}, {"type": "Feature", "properties": {"code": "Vt-V/1", "reg": "v-kesz", "conf": 0.976}, "geometry": {"type": "Point", "coordinates": [19.0527696, 47.4997996]}}, {"type": "Feature", "properties": {"code": "Vt-V/1", "reg": "v-kesz", "conf": 0.976}, "geometry": {"type": "Point", "coordinates": [19.0582982, 47.4878032]}}, {"type": "Feature", "properties": {"code": "Vt-V/1", "reg": "v-kesz", "conf": 0.975}, "geometry": {"type": "Point", "coordinates": [19.0527876, 47.5065497]}}, {"type": "Feature", "properties": {"code": "Vt-V/1", "reg": "v-kesz", "conf": 0.975}, "geometry": {"type": "Point", "coordinates": [19.0502454, 47.4992438]}}, {"type": "Feature", "properties": {"code": "Vt-V/1", "reg": "v-kesz", "conf": 0.975}, "geometry": {"type": "Point", "coordinates": [19.0489225, 47.499109]}}, {"type": "Feature", "properties": {"code": "Vt-V/1", "reg": "v-kesz", "conf": 0.975}, "geometry": {"type": "Point", "coordinates": [19.0484395, 47.4964586]}}, {"type": "Feature", "properties": {"code": "Zkp/Kp-2", "reg": "v-kesz", "conf": 0.975}, "geometry": {"type": "Point", "coordinates": [19.0525917, 47.4981206]}}, {"type": "Feature", "properties": {"code": "Vt-V/1", "reg": "v-kesz", "conf": 0.972}, "geometry": {"type": "Point", "coordinates": [19.0517661, 47.5051129]}}, {"type": "Feature", "properties": {"code": "Vt-V/2", "reg": "v-kesz", "conf": 0.972}, "geometry": {"type": "Point", "coordinates": [19.059657, 47.4900728]}}, {"type": "Feature", "properties": {"code": "Vt-V/1", "reg": "v-kesz", "conf": 0.971}, "geometry": {"type": "Point", "coordinates": [19.0493934, 47.4981725]}}, {"type": "Feature", "properties": {"code": "Zkp/Kp-3", "reg": "v-kesz", "conf": 0.971}, "geometry": {"type": "Point", "coordinates": [19.0541533, 47.4985327]}}, {"type": "Feature", "properties": {"code": "Vt-V/1", "reg": "v-kesz", "conf": 0.97}, "geometry": {"type": "Point", "coordinates": [19.0503134, 47.5000192]}}, {"type": "Feature", "properties": {"code": "Vt-V/1", "reg": "v-kesz", "conf": 0.969}, "geometry": {"type": "Point", "coordinates": [19.0574802, 47.4941519]}}, {"type": "Feature", "properties": {"code": "Vt-V/1", "reg": "v-kesz", "conf": 0.968}, "geometry": {"type": "Point", "coordinates": [19.0544696, 47.5101582]}}, {"type": "Feature", "properties": {"code": "Vt-V/2", "reg": "v-kesz", "conf": 0.968}, "geometry": {"type": "Point", "coordinates": [19.0597769, 47.4910967]}}, {"type": "Feature", "properties": {"code": "Vt-V/1", "reg": "v-kesz", "conf": 0.964}, "geometry": {"type": "Point", "coordinates": [19.0495671, 47.5119475]}}, {"type": "Feature", "properties": {"code": "Vt-V/1", "reg": "v-kesz", "conf": 0.964}, "geometry": {"type": "Point", "coordinates": [19.0455775, 47.5043968]}}, {"type": "Feature", "properties": {"code": "Vt-V/1", "reg": "v-kesz", "conf": 0.962}, "geometry": {"type": "Point", "coordinates": [19.0541342, 47.5066364]}}, {"type": "Feature", "properties": {"code": "Vt-V/1", "reg": "v-kesz", "conf": 0.962}, "geometry": {"type": "Point", "coordinates": [19.0473635, 47.5031335]}}, {"type": "Feature", "properties": {"code": "Vt-V/1", "reg": "v-kesz", "conf": 0.961}, "geometry": {"type": "Point", "coordinates": [19.0470419, 47.5121418]}}, {"type": "Feature", "properties": {"code": "Zkp/Kk-1", "reg": "v-kesz", "conf": 0.959}, "geometry": {"type": "Point", "coordinates": [19.0512269, 47.502963]}}, {"type": "Feature", "properties": {"code": "Vt-V/1", "reg": "v-kesz", "conf": 0.957}, "geometry": {"type": "Point", "coordinates": [19.0519268, 47.509647]}}, {"type": "Feature", "properties": {"code": "Vt-V/1", "reg": "v-kesz", "conf": 0.956}, "geometry": {"type": "Point", "coordinates": [19.0518705, 47.5043211]}}, {"type": "Feature", "properties": {"code": "Zkp/Kk-1", "reg": "v-kesz", "conf": 0.956}, "geometry": {"type": "Point", "coordinates": [19.0520415, 47.5030665]}}, {"type": "Feature", "properties": {"code": "Vt-V/1", "reg": "v-kesz", "conf": 0.955}, "geometry": {"type": "Point", "coordinates": [19.0470997, 47.5052819]}}, {"type": "Feature", "properties": {"code": "Vt-V/1", "reg": "v-kesz", "conf": 0.954}, "geometry": {"type": "Point", "coordinates": [19.0536845, 47.4927868]}}, {"type": "Feature", "properties": {"code": "Vt-V/1", "reg": "v-kesz", "conf": 0.952}, "geometry": {"type": "Point", "coordinates": [19.0586378, 47.4932948]}}, {"type": "Feature", "properties": {"code": "Vt-V/1", "reg": "v-kesz", "conf": 0.948}, "geometry": {"type": "Point", "coordinates": [19.0532623, 47.5040167]}}, {"type": "Feature", "properties": {"code": "Vt-V/1", "reg": "v-kesz", "conf": 0.947}, "geometry": {"type": "Point", "coordinates": [19.0528105, 47.5083695]}}, {"type": "Feature", "properties": {"code": "Vt-V/1", "reg": "v-kesz", "conf": 0.946}, "geometry": {"type": "Point", "coordinates": [19.0605048, 47.4892865]}}, {"type": "Feature", "properties": {"code": "Zkp/Kk-2", "reg": "v-kesz", "conf": 0.945}, "geometry": {"type": "Point", "coordinates": [19.0501776, 47.4982841]}}, {"type": "Feature", "properties": {"code": "Vt-V/1", "reg": "v-kesz", "conf": 0.944}, "geometry": {"type": "Point", "coordinates": [19.0510608, 47.502522]}}, {"type": "Feature", "properties": {"code": "Vt-V/2", "reg": "v-kesz", "conf": 0.944}, "geometry": {"type": "Point", "coordinates": [19.0585648, 47.4924714]}}, {"type": "Feature", "properties": {"code": "Vt-V/1", "reg": "v-kesz", "conf": 0.943}, "geometry": {"type": "Point", "coordinates": [19.048274, 47.5006856]}}, {"type": "Feature", "properties": {"code": "Vt-V/1", "reg": "v-kesz", "conf": 0.942}, "geometry": {"type": "Point", "coordinates": [19.0513524, 47.5014032]}}, {"type": "Feature", "properties": {"code": "Vt-V/1", "reg": "v-kesz", "conf": 0.94}, "geometry": {"type": "Point", "coordinates": [19.0516704, 47.4959922]}}, {"type": "Feature", "properties": {"code": "Vt-V/1", "reg": "v-kesz", "conf": 0.938}, "geometry": {"type": "Point", "coordinates": [19.0513457, 47.5070865]}}, {"type": "Feature", "properties": {"code": "Vt-V/1", "reg": "v-kesz", "conf": 0.931}, "geometry": {"type": "Point", "coordinates": [19.0584198, 47.4952164]}}, {"type": "Feature", "properties": {"code": "Vt-V/1", "reg": "v-kesz", "conf": 0.922}, "geometry": {"type": "Point", "coordinates": [19.0502941, 47.5070085]}}, {"type": "Feature", "properties": {"code": "Vt-V/1", "reg": "v-kesz", "conf": 0.921}, "geometry": {"type": "Point", "coordinates": [19.0543722, 47.4933312]}}, {"type": "Feature", "properties": {"code": "Zkp/Kp-1", "reg": "v-kesz", "conf": 0.918}, "geometry": {"type": "Point", "coordinates": [19.0504662, 47.5040929]}}, {"type": "Feature", "properties": {"code": "Vt-V/1", "reg": "v-kesz", "conf": 0.918}, "geometry": {"type": "Point", "coordinates": [19.0558921, 47.4921811]}}, {"type": "Feature", "properties": {"code": "Vt-V/1", "reg": "v-kesz", "conf": 0.917}, "geometry": {"type": "Point", "coordinates": [19.0540361, 47.508282]}}, {"type": "Feature", "properties": {"code": "Vt-V/1", "reg": "v-kesz", "conf": 0.917}, "geometry": {"type": "Point", "coordinates": [19.0541628, 47.5053251]}}, {"type": "Feature", "properties": {"code": "Vt-V/2", "reg": "v-kesz", "conf": 0.917}, "geometry": {"type": "Point", "coordinates": [19.0548043, 47.4899335]}}, {"type": "Feature", "properties": {"code": "Vt-V/2", "reg": "v-kesz", "conf": 0.917}, "geometry": {"type": "Point", "coordinates": [19.0585945, 47.4916434]}}, {"type": "Feature", "properties": {"code": "Vt-V/1", "reg": "v-kesz", "conf": 0.915}, "geometry": {"type": "Point", "coordinates": [19.0531025, 47.5052512]}}, {"type": "Feature", "properties": {"code": "Vt-V/1", "reg": "v-kesz", "conf": 0.91}, "geometry": {"type": "Point", "coordinates": [19.0516451, 47.5087627]}}, {"type": "Feature", "properties": {"code": "Vt-V/1", "reg": "v-kesz", "conf": 0.91}, "geometry": {"type": "Point", "coordinates": [19.0553865, 47.4926126]}}, {"type": "Feature", "properties": {"code": "Vt-V/1", "reg": "v-kesz", "conf": 0.91}, "geometry": {"type": "Point", "coordinates": [19.0551224, 47.488627]}}, {"type": "Feature", "properties": {"code": "Vt-V/1", "reg": "v-kesz", "conf": 0.906}, "geometry": {"type": "Point", "coordinates": [19.0531428, 47.4942531]}}, {"type": "Feature", "properties": {"code": "Vt-V/1", "reg": "v-kesz", "conf": 0.904}, "geometry": {"type": "Point", "coordinates": [19.0533387, 47.4958592]}}, {"type": "Feature", "properties": {"code": "Vt-V/1", "reg": "v-kesz", "conf": 0.891}, "geometry": {"type": "Point", "coordinates": [19.0502995, 47.5079751]}}, {"type": "Feature", "properties": {"code": "Vt-V/1", "reg": "v-kesz", "conf": 0.891}, "geometry": {"type": "Point", "coordinates": [19.055447, 47.4939892]}}, {"type": "Feature", "properties": {"code": "Vt-V/1", "reg": "v-kesz", "conf": 0.887}, "geometry": {"type": "Point", "coordinates": [19.050039, 47.5012662]}}, {"type": "Feature", "properties": {"code": "Vt-V/1", "reg": "v-kesz", "conf": 0.885}, "geometry": {"type": "Point", "coordinates": [19.0494955, 47.5062407]}}, {"type": "Feature", "properties": {"code": "Vt-V/2", "reg": "v-kesz", "conf": 0.878}, "geometry": {"type": "Point", "coordinates": [19.0555424, 47.489248]}}, {"type": "Feature", "properties": {"code": "Vt-V/1", "reg": "v-kesz", "conf": 0.871}, "geometry": {"type": "Point", "coordinates": [19.0507353, 47.5055967]}}, {"type": "Feature", "properties": {"code": "Vt-V/1", "reg": "v-kesz", "conf": 0.862}, "geometry": {"type": "Point", "coordinates": [19.0471942, 47.5038561]}}, {"type": "Feature", "properties": {"code": "Vt-V/1", "reg": "v-kesz", "conf": 0.861}, "geometry": {"type": "Point", "coordinates": [19.0575312, 47.4886628]}}, {"type": "Feature", "properties": {"code": "Vt-V/1", "reg": "v-kesz", "conf": 0.857}, "geometry": {"type": "Point", "coordinates": [19.0475409, 47.5102719]}}, {"type": "Feature", "properties": {"code": "Vt-V/1", "reg": "v-kesz", "conf": 0.853}, "geometry": {"type": "Point", "coordinates": [19.0497362, 47.5023906]}}, {"type": "Feature", "properties": {"code": "Vt-V/1", "reg": "v-kesz", "conf": 0.852}, "geometry": {"type": "Point", "coordinates": [19.0471945, 47.5023684]}}, {"type": "Feature", "properties": {"code": "Vt-V/1", "reg": "v-kesz", "conf": 0.848}, "geometry": {"type": "Point", "coordinates": [19.0495596, 47.4946567]}}, {"type": "Feature", "properties": {"code": "Vt-V/1", "reg": "v-kesz", "conf": 0.826}, "geometry": {"type": "Point", "coordinates": [19.0608367, 47.4916161]}}, {"type": "Feature", "properties": {"code": "Vt-V/1", "reg": "v-kesz", "conf": 0.737}, "geometry": {"type": "Point", "coordinates": [19.0540142, 47.4923226]}}, {"type": "Feature", "properties": {"code": "Vt-V/1", "reg": "v-kesz", "conf": 0.73}, "geometry": {"type": "Point", "coordinates": [19.0527868, 47.5071841]}}]}