{"type": "FeatureCollection", "features": [{"type": "Feature", "properties": {"code": "Vt-V/I/03", "reg": "i-kesz", "conf": 1.0}, "geometry": {"type": "Point", "coordinates": [19.0258102, 47.5055037]}}, {"type": "Feature", "properties": {"code": "Vt-V/I/03", "reg": "i-kesz", "conf": 1.0}, "geometry": {"type": "Point", "coordinates": [19.0275102, 47.5062879]}}, {"type": "Feature", "properties": {"code": "Vt-V/I/03", "reg": "i-kesz", "conf": 1.0}, "geometry": {"type": "Point", "coordinates": [19.0288687, 47.5065377]}}, {"type": "Feature", "properties": {"code": "Lk-1/I/01", "reg": "i-kesz", "conf": 1.0}, "geometry": {"type": "Point", "coordinates": [19.0271082, 47.5053218]}}, {"type": "Feature", "properties": {"code": "Lk-1/I/01", "reg": "i-kesz", "conf": 1.0}, "geometry": {"type": "Point", "coordinates": [19.0321985, 47.5058413]}}, {"type": "Feature", "properties": {"code": "Lk-1/I/01", "reg": "i-kesz", "conf": 1.0}, "geometry": {"type": "Point", "coordinates": [19.0336524, 47.505522]}}, {"type": "Feature", "properties": {"code": "Kb-Z/I/Kk-01", "reg": "i-kesz", "conf": 1.0}, "geometry": {"type": "Point", "coordinates": [19.0289653, 47.507867]}}, {"type": "Feature", "properties": {"code": "Ln-1/I/01", "reg": "i-kesz", "conf": 1.0}, "geometry": {"type": "Point", "coordinates": [19.024946, 47.5048878]}}, {"type": "Feature", "properties": {"code": "Lk-1/I/01", "reg": "i-kesz", "conf": 1.0}, "geometry": {"type": "Point", "coordinates": [19.0265221, 47.5040671]}}, {"type": "Feature", "properties": {"code": "KÖu-4/I/01", "reg": "i-kesz", "conf": 1.0}, "geometry": {"type": "Point", "coordinates": [19.0283715, 47.5078657]}}, {"type": "Feature", "properties": {"code": "Kb-Z/I/Kk-01", "reg": "i-kesz", "conf": 1.0}, "geometry": {"type": "Point", "coordinates": [19.0294514, 47.5056574]}}, {"type": "Feature", "properties": {"code": "Kb-Bt/I/01", "reg": "i-kesz", "conf": 1.0}, "geometry": {"type": "Point", "coordinates": [19.0286849, 47.5040052]}}, {"type": "Feature", "properties": {"code": "Kb-Rég/I/01", "reg": "i-kesz", "conf": 1.0}, "geometry": {"type": "Point", "coordinates": [19.0292652, 47.5040088]}}, {"type": "Feature", "properties": {"code": "K-Hon/I/01", "reg": "i-kesz", "conf": 1.0}, "geometry": {"type": "Point", "coordinates": [19.0280553, 47.5044549]}}, {"type": "Feature", "properties": {"code": "Vt-V/I/01", "reg": "i-kesz", "conf": 1.0}, "geometry": {"type": "Point", "coordinates": [19.028638, 47.5046468]}}, {"type": "Feature", "properties": {"code": "Vt-V/I/01", "reg": "i-kesz", "conf": 1.0}, "geometry": {"type": "Point", "coordinates": [19.0290148, 47.5048852]}}, {"type": "Feature", "properties": {"code": "Vt-V/I/01", "reg": "i-kesz", "conf": 1.0}, "geometry": {"type": "Point", "coordinates": [19.0320019, 47.5038908]}}, {"type": "Feature", "properties": {"code": "Vt-V/I/02", "reg": "i-kesz", "conf": 1.0}, "geometry": {"type": "Point", "coordinates": [19.0327792, 47.5043126]}}, {"type": "Feature", "properties": {"code": "Vt-V/I/01", "reg": "i-kesz", "conf": 1.0}, "geometry": {"type": "Point", "coordinates": [19.0314678, 47.5048125]}}, {"type": "Feature", "properties": {"code": "Vt-V/I/02", "reg": "i-kesz", "conf": 1.0}, "geometry": {"type": "Point", "coordinates": [19.0299118, 47.5049629]}}, {"type": "Feature", "properties": {"code": "Vt-V/I/01", "reg": "i-kesz", "conf": 1.0}, "geometry": {"type": "Point", "coordinates": [19.0322081, 47.5045157]}}, {"type": "Feature", "properties": {"code": "Vt-V/I/01", "reg": "i-kesz", "conf": 1.0}, "geometry": {"type": "Point", "coordinates": [19.0329303, 47.5037459]}}, {"type": "Feature", "properties": {"code": "Vt-V/I/01", "reg": "i-kesz", "conf": 1.0}, "geometry": {"type": "Point", "coordinates": [19.0298881, 47.5042742]}}, {"type": "Feature", "properties": {"code": "Vt-V/I/03", "reg": "i-kesz", "conf": 1.0}, "geometry": {"type": "Point", "coordinates": [19.0279031, 47.5073884]}}, {"type": "Feature", "properties": {"code": "Vt-V/I/03", "reg": "i-kesz", "conf": 1.0}, "geometry": {"type": "Point", "coordinates": [19.0262334, 47.5066214]}}, {"type": "Feature", "properties": {"code": "Zkp/I/Kk-01", "reg": "i-kesz", "conf": 1.0}, "geometry": {"type": "Point", "coordinates": [19.0281054, 47.5052849]}}, {"type": "Feature", "properties": {"code": "Zkp/I/Kk-01", "reg": "i-kesz", "conf": 1.0}, "geometry": {"type": "Point", "coordinates": [19.0297015, 47.5055673]}}, {"type": "Feature", "properties": {"code": "Kb-Z/I/Kk-01", "reg": "i-kesz", "conf": 1.0}, "geometry": {"type": "Point", "coordinates": [19.0288863, 47.5060189]}}, {"type": "Feature", "properties": {"code": "Kb-Z/I/Kp-01", "reg": "i-kesz", "conf": 1.0}, "geometry": {"type": "Point", "coordinates": [19.0316976, 47.505458]}}, {"type": "Feature", "properties": {"code": "Kb-Z/I/Kp-01", "reg": "i-kesz", "conf": 1.0}, "geometry": {"type": "Point", "coordinates": [19.0329781, 47.5050522]}}, {"type": "Feature", "properties": {"code": "Zkp/I/Kp-01", "reg": "i-kesz", "conf": 1.0}, "geometry": {"type": "Point", "coordinates": [19.0323091, 47.5052711]}}, {"type": "Feature", "properties": {"code": "Kb-Z/I/Kk-01", "reg": "i-kesz", "conf": 1.0}, "geometry": {"type": "Point", "coordinates": [19.0330077, 47.5059475]}}, {"type": "Feature", "properties": {"code": "Zkp/I/Kp-01", "reg": "i-kesz", "conf": 1.0}, "geometry": {"type": "Point", "coordinates": [19.0336568, 47.5038646]}}, {"type": "Feature", "properties": {"code": "Ln-1/I/01", "reg": "i-kesz", "conf": 1.0}, "geometry": {"type": "Point", "coordinates": [19.0259273, 47.503912]}}, {"type": "Feature", "properties": {"code": "Ln-2/I/01", "reg": "i-kesz", "conf": 1.0}, "geometry": {"type": "Point", "coordinates": [19.0332373, 47.5073369]}}, {"type": "Feature", "properties": {"code": "Ln-2/I/02", "reg": "i-kesz", "conf": 1.0}, "geometry": {"type": "Point", "coordinates": [19.0333885, 47.506753]}}, {"type": "Feature", "properties": {"code": "Ln-2/I/02", "reg": "i-kesz", "conf": 1.0}, "geometry": {"type": "Point", "coordinates": [19.0332452, 47.5063636]}}, {"type": "Feature", "properties": {"code": "Ln-2/I/02", "reg": "i-kesz", "conf": 1.0}, "geometry": {"type": "Point", "coordinates": [19.0322835, 47.5064074]}}, {"type": "Feature", "properties": {"code": "Ln-2/I/02", "reg": "i-kesz", "conf": 1.0}, "geometry": {"type": "Point", "coordinates": [19.0305284, 47.5065596]}}, {"type": "Feature", "properties": {"code": "Ln-2/I/02", "reg": "i-kesz", "conf": 1.0}, "geometry": {"type": "Point", "coordinates": [19.0310072, 47.5069957]}}, {"type": "Feature", "properties": {"code": "Ln-2/I/02", "reg": "i-kesz", "conf": 1.0}, "geometry": {"type": "Point", "coordinates": [19.0323199, 47.5069102]}}, {"type": "Feature", "properties": {"code": "Ln-2/I/01", "reg": "i-kesz", "conf": 1.0}, "geometry": {"type": "Point", "coordinates": [19.0295428, 47.5073839]}}, {"type": "Feature", "properties": {"code": "Ln-2/I/01", "reg": "i-kesz", "conf": 1.0}, "geometry": {"type": "Point", "coordinates": [19.0300067, 47.5077419]}}, {"type": "Feature", "properties": {"code": "Ln-2/I/01", "reg": "i-kesz", "conf": 1.0}, "geometry": {"type": "Point", "coordinates": [19.0309871, 47.507674]}}, {"type": "Feature", "properties": {"code": "Ln-2/I/01", "reg": "i-kesz", "conf": 1.0}, "geometry": {"type": "Point", "coordinates": [19.0320047, 47.5075787]}}, {"type": "Feature", "properties": {"code": "Lk-1/I/02", "reg": "i-kesz", "conf": 1.0}, "geometry": {"type": "Point", "coordinates": [19.0314702, 47.5057502]}}, {"type": "Feature", "properties": {"code": "Lk-1/I/01", "reg": "i-kesz", "conf": 1.0}, "geometry": {"type": "Point", "coordinates": [19.0312625, 47.5054238]}}, {"type": "Feature", "properties": {"code": "Lk-1/I/01", "reg": "i-kesz", "conf": 1.0}, "geometry": {"type": "Point", "coordinates": [19.0307166, 47.5060114]}}, {"type": "Feature", "properties": {"code": "Lk-1/I/01", "reg": "i-kesz", "conf": 1.0}, "geometry": {"type": "Point", "coordinates": [19.0298768, 47.5059476]}}, {"type": "Feature", "properties": {"code": "Lk-1/I/01", "reg": "i-kesz", "conf": 1.0}, "geometry": {"type": "Point", "coordinates": [19.0335784, 47.5051029]}}, {"type": "Feature", "properties": {"code": "Vt-V/I/01", "reg": "i-kesz", "conf": 1.0}, "geometry": {"type": "Point", "coordinates": [19.0289021, 47.5037337]}}, {"type": "Feature", "properties": {"code": "Kb-Z/I/Kk-01", "reg": "i-kesz", "conf": 1.0}, "geometry": {"type": "Point", "coordinates": [19.0297943, 47.5069999]}}, {"type": "Feature", "properties": {"code": "Ln-2/I/05", "reg": "i-kesz", "conf": 1.0}, "geometry": {"type": "Point", "coordinates": [19.036454, 47.5060116]}}, {"type": "Feature", "properties": {"code": "Ln-2/I/04", "reg": "i-kesz", "conf": 1.0}, "geometry": {"type": "Point", "coordinates": [19.0351885, 47.5044969]}}, {"type": "Feature", "properties": {"code": "Vt-V/I/04", "reg": "i-kesz", "conf": 1.0}, "geometry": {"type": "Point", "coordinates": [19.0389246, 47.5037433]}}, {"type": "Feature", "properties": {"code": "KÖu-4/I/01", "reg": "i-kesz", "conf": 1.0}, "geometry": {"type": "Point", "coordinates": [19.0393072, 47.5063604]}}, {"type": "Feature", "properties": {"code": "Vi-2/I/03", "reg": "i-kesz", "conf": 1.0}, "geometry": {"type": "Point", "coordinates": [19.0344494, 47.5042168]}}, {"type": "Feature", "properties": {"code": "Kb-Z/I/Kk-01", "reg": "i-kesz", "conf": 1.0}, "geometry": {"type": "Point", "coordinates": [19.0389961, 47.5073978]}}, {"type": "Feature", "properties": {"code": "Vt-V/I/03", "reg": "i-kesz", "conf": 1.0}, "geometry": {"type": "Point", "coordinates": [19.0388525, 47.504493]}}, {"type": "Feature", "properties": {"code": "Vt-V/I/03", "reg": "i-kesz", "conf": 1.0}, "geometry": {"type": "Point", "coordinates": [19.0388317, 47.505011]}}, {"type": "Feature", "properties": {"code": "Vt-V/I/03", "reg": "i-kesz", "conf": 1.0}, "geometry": {"type": "Point", "coordinates": [19.037941, 47.5043021]}}, {"type": "Feature", "properties": {"code": "Vt-V/I/03", "reg": "i-kesz", "conf": 1.0}, "geometry": {"type": "Point", "coordinates": [19.0377571, 47.5049905]}}, {"type": "Feature", "properties": {"code": "Vt-V/I/03", "reg": "i-kesz", "conf": 1.0}, "geometry": {"type": "Point", "coordinates": [19.0386056, 47.5055484]}}, {"type": "Feature", "properties": {"code": "Vt-V/I/03", "reg": "i-kesz", "conf": 1.0}, "geometry": {"type": "Point", "coordinates": [19.037765, 47.50652]}}, {"type": "Feature", "properties": {"code": "Vt-V/I/03", "reg": "i-kesz", "conf": 1.0}, "geometry": {"type": "Point", "coordinates": [19.0376599, 47.5073192]}}, {"type": "Feature", "properties": {"code": "Vt-V/I/03", "reg": "i-kesz", "conf": 1.0}, "geometry": {"type": "Point", "coordinates": [19.0385987, 47.5072533]}}, {"type": "Feature", "properties": {"code": "Kb-Z/I/Kk-01", "reg": "i-kesz", "conf": 1.0}, "geometry": {"type": "Point", "coordinates": [19.0351366, 47.5065309]}}, {"type": "Feature", "properties": {"code": "Kb-Z/I/Kk-01", "reg": "i-kesz", "conf": 1.0}, "geometry": {"type": "Point", "coordinates": [19.0365466, 47.5054336]}}, {"type": "Feature", "properties": {"code": "Kb-Z/I/Kk-01", "reg": "i-kesz", "conf": 1.0}, "geometry": {"type": "Point", "coordinates": [19.0363967, 47.5071496]}}, {"type": "Feature", "properties": {"code": "Kb-Z/I/Kk-01", "reg": "i-kesz", "conf": 1.0}, "geometry": {"type": "Point", "coordinates": [19.0389599, 47.5040319]}}, {"type": "Feature", "properties": {"code": "Ln-2/I/02", "reg": "i-kesz", "conf": 1.0}, "geometry": {"type": "Point", "coordinates": [19.0369282, 47.5038046]}}, {"type": "Feature", "properties": {"code": "Ln-2/I/02", "reg": "i-kesz", "conf": 1.0}, "geometry": {"type": "Point", "coordinates": [19.0356464, 47.5036237]}}, {"type": "Feature", "properties": {"code": "Ln-2/I/02", "reg": "i-kesz", "conf": 1.0}, "geometry": {"type": "Point", "coordinates": [19.0360851, 47.5042766]}}, {"type": "Feature", "properties": {"code": "Ln-2/I/02", "reg": "i-kesz", "conf": 1.0}, "geometry": {"type": "Point", "coordinates": [19.0350958, 47.5057772]}}, {"type": "Feature", "properties": {"code": "Ln-2/I/02", "reg": "i-kesz", "conf": 1.0}, "geometry": {"type": "Point", "coordinates": [19.034506, 47.5055959]}}, {"type": "Feature", "properties": {"code": "Ln-2/I/01", "reg": "i-kesz", "conf": 1.0}, "geometry": {"type": "Point", "coordinates": [19.0369466, 47.5053707]}}, {"type": "Feature", "properties": {"code": "Ln-2/I/01", "reg": "i-kesz", "conf": 1.0}, "geometry": {"type": "Point", "coordinates": [19.0358935, 47.5064614]}}, {"type": "Feature", "properties": {"code": "Ln-2/I/01", "reg": "i-kesz", "conf": 1.0}, "geometry": {"type": "Point", "coordinates": [19.0367651, 47.5065472]}}, {"type": "Feature", "properties": {"code": "Ln-2/I/02", "reg": "i-kesz", "conf": 1.0}, "geometry": {"type": "Point", "coordinates": [19.0367036, 47.5047476]}}, {"type": "Feature", "properties": {"code": "Ln-2/I/01", "reg": "i-kesz", "conf": 1.0}, "geometry": {"type": "Point", "coordinates": [19.0358104, 47.5069775]}}, {"type": "Feature", "properties": {"code": "Ln-2/I/06", "reg": "i-kesz", "conf": 1.0}, "geometry": {"type": "Point", "coordinates": [19.0361947, 47.5073054]}}, {"type": "Feature", "properties": {"code": "Ln-2/I/01", "reg": "i-kesz", "conf": 1.0}, "geometry": {"type": "Point", "coordinates": [19.0347805, 47.507179]}}, {"type": "Feature", "properties": {"code": "Lk-1/I/03", "reg": "i-kesz", "conf": 1.0}, "geometry": {"type": "Point", "coordinates": [19.0274017, 47.5030927]}}, {"type": "Feature", "properties": {"code": "Lk-1/I/01", "reg": "i-kesz", "conf": 1.0}, "geometry": {"type": "Point", "coordinates": [19.0277199, 47.5030896]}}, {"type": "Feature", "properties": {"code": "Lk-1/I/03", "reg": "i-kesz", "conf": 1.0}, "geometry": {"type": "Point", "coordinates": [19.030364, 47.5008098]}}, {"type": "Feature", "properties": {"code": "Ln-2/I/02", "reg": "i-kesz", "conf": 1.0}, "geometry": {"type": "Point", "coordinates": [19.0331657, 47.4987576]}}, {"type": "Feature", "properties": {"code": "Vt-V/I/03", "reg": "i-kesz", "conf": 1.0}, "geometry": {"type": "Point", "coordinates": [19.0330279, 47.4974835]}}, {"type": "Feature", "properties": {"code": "Vt-V/I/05", "reg": "i-kesz", "conf": 1.0}, "geometry": {"type": "Point", "coordinates": [19.0313705, 47.4967713]}}, {"type": "Feature", "properties": {"code": "Vt-V/I/03", "reg": "i-kesz", "conf": 1.0}, "geometry": {"type": "Point", "coordinates": [19.0295033, 47.4972333]}}, {"type": "Feature", "properties": {"code": "Vt-V/I/06", "reg": "i-kesz", "conf": 1.0}, "geometry": {"type": "Point", "coordinates": [19.0279905, 47.4981498]}}, {"type": "Feature", "properties": {"code": "Vt-V/I/03", "reg": "i-kesz", "conf": 1.0}, "geometry": {"type": "Point", "coordinates": [19.0269251, 47.4986411]}}, {"type": "Feature", "properties": {"code": "Vt-V/I/03", "reg": "i-kesz", "conf": 1.0}, "geometry": {"type": "Point", "coordinates": [19.026194, 47.4995415]}}, {"type": "Feature", "properties": {"code": "Vt-V/I/03", "reg": "i-kesz", "conf": 1.0}, "geometry": {"type": "Point", "coordinates": [19.0271848, 47.4972124]}}, {"type": "Feature", "properties": {"code": "K-Közl_Vt-V/I/01", "reg": "i-kesz", "conf": 1.0}, "geometry": {"type": "Point", "coordinates": [19.0259106, 47.4976798]}}, {"type": "Feature", "properties": {"code": "Vt-V/I/08", "reg": "i-kesz", "conf": 1.0}, "geometry": {"type": "Point", "coordinates": [19.0248561, 47.4968504]}}, {"type": "Feature", "properties": {"code": "Vt-V/I/07", "reg": "i-kesz", "conf": 1.0}, "geometry": {"type": "Point", "coordinates": [19.0249249, 47.5002419]}}, {"type": "Feature", "properties": {"code": "Vt-V/I/03", "reg": "i-kesz", "conf": 1.0}, "geometry": {"type": "Point", "coordinates": [19.0314884, 47.4983784]}}, {"type": "Feature", "properties": {"code": "Vt-V/I/01", "reg": "i-kesz", "conf": 1.0}, "geometry": {"type": "Point", "coordinates": [19.0288087, 47.5032141]}}, {"type": "Feature", "properties": {"code": "Vt-V/I/02", "reg": "i-kesz", "conf": 1.0}, "geometry": {"type": "Point", "coordinates": [19.0302851, 47.5028716]}}, {"type": "Feature", "properties": {"code": "Vt-V/I/01", "reg": "i-kesz", "conf": 1.0}, "geometry": {"type": "Point", "coordinates": [19.0301544, 47.502184]}}, {"type": "Feature", "properties": {"code": "Vt-V/I/01", "reg": "i-kesz", "conf": 1.0}, "geometry": {"type": "Point", "coordinates": [19.0319811, 47.5010606]}}, {"type": "Feature", "properties": {"code": "Vt-V/I/01", "reg": "i-kesz", "conf": 1.0}, "geometry": {"type": "Point", "coordinates": [19.0334972, 47.5001509]}}, {"type": "Feature", "properties": {"code": "Vt-V/I/01", "reg": "i-kesz", "conf": 1.0}, "geometry": {"type": "Point", "coordinates": [19.0337214, 47.5006236]}}, {"type": "Feature", "properties": {"code": "Vt-V/I/01", "reg": "i-kesz", "conf": 1.0}, "geometry": {"type": "Point", "coordinates": [19.0335145, 47.5010147]}}, {"type": "Feature", "properties": {"code": "Vt-V/I/01", "reg": "i-kesz", "conf": 1.0}, "geometry": {"type": "Point", "coordinates": [19.0321652, 47.5017265]}}, {"type": "Feature", "properties": {"code": "Vt-V/I/02", "reg": "i-kesz", "conf": 1.0}, "geometry": {"type": "Point", "coordinates": [19.0325465, 47.5025061]}}, {"type": "Feature", "properties": {"code": "Vt-V/I/01", "reg": "i-kesz", "conf": 1.0}, "geometry": {"type": "Point", "coordinates": [19.031311, 47.5033736]}}, {"type": "Feature", "properties": {"code": "Vt-V/I/01", "reg": "i-kesz", "conf": 1.0}, "geometry": {"type": "Point", "coordinates": [19.0337827, 47.5026478]}}, {"type": "Feature", "properties": {"code": "Vt-V/I/01", "reg": "i-kesz", "conf": 1.0}, "geometry": {"type": "Point", "coordinates": [19.0329114, 47.5037289]}}, {"type": "Feature", "properties": {"code": "Vt-V/I/03", "reg": "i-kesz", "conf": 1.0}, "geometry": {"type": "Point", "coordinates": [19.0324865, 47.4971302]}}, {"type": "Feature", "properties": {"code": "Vt-V/I/03", "reg": "i-kesz", "conf": 1.0}, "geometry": {"type": "Point", "coordinates": [19.0311139, 47.497792]}}, {"type": "Feature", "properties": {"code": "Zkp/I/Kp-01", "reg": "i-kesz", "conf": 1.0}, "geometry": {"type": "Point", "coordinates": [19.0266778, 47.5012553]}}, {"type": "Feature", "properties": {"code": "Zkp/I/Kk-01", "reg": "i-kesz", "conf": 1.0}, "geometry": {"type": "Point", "coordinates": [19.0316151, 47.5007402]}}, {"type": "Feature", "properties": {"code": "Zkp/I/Kk-01", "reg": "i-kesz", "conf": 1.0}, "geometry": {"type": "Point", "coordinates": [19.0300656, 47.5017044]}}, {"type": "Feature", "properties": {"code": "Zkp/I/Kp-01", "reg": "i-kesz", "conf": 1.0}, "geometry": {"type": "Point", "coordinates": [19.0279752, 47.5033564]}}, {"type": "Feature", "properties": {"code": "Kb-Z/I/Kk-01", "reg": "i-kesz", "conf": 1.0}, "geometry": {"type": "Point", "coordinates": [19.0328875, 47.5028811]}}, {"type": "Feature", "properties": {"code": "Ln-1/I/01", "reg": "i-kesz", "conf": 1.0}, "geometry": {"type": "Point", "coordinates": [19.0270545, 47.5027145]}}, {"type": "Feature", "properties": {"code": "Ln-1/I/01", "reg": "i-kesz", "conf": 1.0}, "geometry": {"type": "Point", "coordinates": [19.0283734, 47.5016253]}}, {"type": "Feature", "properties": {"code": "Ln-1/I/01", "reg": "i-kesz", "conf": 1.0}, "geometry": {"type": "Point", "coordinates": [19.0304004, 47.5001768]}}, {"type": "Feature", "properties": {"code": "Ln-1/I/01", "reg": "i-kesz", "conf": 1.0}, "geometry": {"type": "Point", "coordinates": [19.0322536, 47.4987589]}}, {"type": "Feature", "properties": {"code": "Ln-1/I/01", "reg": "i-kesz", "conf": 1.0}, "geometry": {"type": "Point", "coordinates": [19.0337029, 47.4976549]}}, {"type": "Feature", "properties": {"code": "Ln-2/I/02", "reg": "i-kesz", "conf": 1.0}, "geometry": {"type": "Point", "coordinates": [19.0340239, 47.4981663]}}, {"type": "Feature", "properties": {"code": "Lk-1/I/01", "reg": "i-kesz", "conf": 1.0}, "geometry": {"type": "Point", "coordinates": [19.0289533, 47.5020752]}}, {"type": "Feature", "properties": {"code": "Lk-1/I/01", "reg": "i-kesz", "conf": 1.0}, "geometry": {"type": "Point", "coordinates": [19.0303976, 47.5010655]}}, {"type": "Feature", "properties": {"code": "Lk-1/I/01", "reg": "i-kesz", "conf": 1.0}, "geometry": {"type": "Point", "coordinates": [19.0297681, 47.5015169]}}, {"type": "Feature", "properties": {"code": "Lk-1/I/03", "reg": "i-kesz", "conf": 1.0}, "geometry": {"type": "Point", "coordinates": [19.0295509, 47.501384]}}, {"type": "Feature", "properties": {"code": "Lk-1/I/04", "reg": "i-kesz", "conf": 1.0}, "geometry": {"type": "Point", "coordinates": [19.0293523, 47.5016546]}}, {"type": "Feature", "properties": {"code": "Lk-1/I/01", "reg": "i-kesz", "conf": 1.0}, "geometry": {"type": "Point", "coordinates": [19.0325349, 47.4998375]}}, {"type": "Feature", "properties": {"code": "Lk-1/I/03", "reg": "i-kesz", "conf": 1.0}, "geometry": {"type": "Point", "coordinates": [19.0323009, 47.4995625]}}, {"type": "Feature", "properties": {"code": "KÖu-4/I/01", "reg": "i-kesz", "conf": 1.0}, "geometry": {"type": "Point", "coordinates": [19.0322742, 47.4967961]}}, {"type": "Feature", "properties": {"code": "Kb-Bt/I/01", "reg": "i-kesz", "conf": 1.0}, "geometry": {"type": "Point", "coordinates": [19.0336536, 47.5018239]}}, {"type": "Feature", "properties": {"code": "Vt-V/I/01", "reg": "i-kesz", "conf": 1.0}, "geometry": {"type": "Point", "coordinates": [19.0289226, 47.5037267]}}, {"type": "Feature", "properties": {"code": "Kb-Z/I/Kk-01", "reg": "i-kesz", "conf": 1.0}, "geometry": {"type": "Point", "coordinates": [19.0361876, 47.5023739]}}, {"type": "Feature", "properties": {"code": "Ln-2/I/02", "reg": "i-kesz", "conf": 1.0}, "geometry": {"type": "Point", "coordinates": [19.0381392, 47.5010986]}}, {"type": "Feature", "properties": {"code": "Ln-2/I/03", "reg": "i-kesz", "conf": 1.0}, "geometry": {"type": "Point", "coordinates": [19.0370297, 47.4998596]}}, {"type": "Feature", "properties": {"code": "Zkp/I/Kk-01", "reg": "i-kesz", "conf": 1.0}, "geometry": {"type": "Point", "coordinates": [19.0367071, 47.5028395]}}, {"type": "Feature", "properties": {"code": "Vt-V/I/03", "reg": "i-kesz", "conf": 1.0}, "geometry": {"type": "Point", "coordinates": [19.0404781, 47.499264]}}, {"type": "Feature", "properties": {"code": "Vt-V/I/03", "reg": "i-kesz", "conf": 1.0}, "geometry": {"type": "Point", "coordinates": [19.0392211, 47.5028592]}}, {"type": "Feature", "properties": {"code": "Vt-V/I/04", "reg": "i-kesz", "conf": 1.0}, "geometry": {"type": "Point", "coordinates": [19.038933, 47.503808]}}, {"type": "Feature", "properties": {"code": "Vf/I/01", "reg": "i-kesz", "conf": 1.0}, "geometry": {"type": "Point", "coordinates": [19.0418701, 47.5015303]}}, {"type": "Feature", "properties": {"code": "KÖk/I/01", "reg": "i-kesz", "conf": 1.0}, "geometry": {"type": "Point", "coordinates": [19.0393435, 47.4977952]}}, {"type": "Feature", "properties": {"code": "Vt-V/I/02", "reg": "i-kesz", "conf": 1.0}, "geometry": {"type": "Point", "coordinates": [19.0370313, 47.4984522]}}, {"type": "Feature", "properties": {"code": "Vt-V/I/02", "reg": "i-kesz", "conf": 1.0}, "geometry": {"type": "Point", "coordinates": [19.0379427, 47.4987618]}}, {"type": "Feature", "properties": {"code": "Kb-Bt/I/01", "reg": "i-kesz", "conf": 1.0}, "geometry": {"type": "Point", "coordinates": [19.0400574, 47.4980277]}}, {"type": "Feature", "properties": {"code": "Vt-V/I/01", "reg": "i-kesz", "conf": 1.0}, "geometry": {"type": "Point", "coordinates": [19.0346354, 47.4999433]}}, {"type": "Feature", "properties": {"code": "Vt-V/I/01", "reg": "i-kesz", "conf": 1.0}, "geometry": {"type": "Point", "coordinates": [19.0341892, 47.5003153]}}, {"type": "Feature", "properties": {"code": "Vt-V/I/05", "reg": "i-kesz", "conf": 1.0}, "geometry": {"type": "Point", "coordinates": [19.0343357, 47.5021006]}}, {"type": "Feature", "properties": {"code": "Vt-V/I/01", "reg": "i-kesz", "conf": 1.0}, "geometry": {"type": "Point", "coordinates": [19.0354692, 47.5001574]}}, {"type": "Feature", "properties": {"code": "Vt-V/I/01", "reg": "i-kesz", "conf": 1.0}, "geometry": {"type": "Point", "coordinates": [19.0349638, 47.4992094]}}, {"type": "Feature", "properties": {"code": "Vt-V/I/02", "reg": "i-kesz", "conf": 1.0}, "geometry": {"type": "Point", "coordinates": [19.0364629, 47.4993986]}}, {"type": "Feature", "properties": {"code": "Vt-V/I/02", "reg": "i-kesz", "conf": 1.0}, "geometry": {"type": "Point", "coordinates": [19.0356766, 47.4989984]}}, {"type": "Feature", "properties": {"code": "Vt-V/I/01", "reg": "i-kesz", "conf": 1.0}, "geometry": {"type": "Point", "coordinates": [19.0359334, 47.4988595]}}, {"type": "Feature", "properties": {"code": "Vt-V/I/03", "reg": "i-kesz", "conf": 1.0}, "geometry": {"type": "Point", "coordinates": [19.0397557, 47.4989983]}}, {"type": "Feature", "properties": {"code": "Vt-V/I/03", "reg": "i-kesz", "conf": 1.0}, "geometry": {"type": "Point", "coordinates": [19.039495, 47.4996587]}}, {"type": "Feature", "properties": {"code": "Vt-V/I/03", "reg": "i-kesz", "conf": 1.0}, "geometry": {"type": "Point", "coordinates": [19.0399429, 47.5006768]}}, {"type": "Feature", "properties": {"code": "Vt-V/I/03", "reg": "i-kesz", "conf": 1.0}, "geometry": {"type": "Point", "coordinates": [19.0396179, 47.5013889]}}, {"type": "Feature", "properties": {"code": "Vt-V/I/03", "reg": "i-kesz", "conf": 1.0}, "geometry": {"type": "Point", "coordinates": [19.039342, 47.5005042]}}, {"type": "Feature", "properties": {"code": "Vt-V/I/03", "reg": "i-kesz", "conf": 1.0}, "geometry": {"type": "Point", "coordinates": [19.0389764, 47.5012691]}}, {"type": "Feature", "properties": {"code": "Vt-V/I/03", "reg": "i-kesz", "conf": 1.0}, "geometry": {"type": "Point", "coordinates": [19.038135, 47.5018293]}}, {"type": "Feature", "properties": {"code": "Vt-V/I/03", "reg": "i-kesz", "conf": 1.0}, "geometry": {"type": "Point", "coordinates": [19.0381329, 47.5035858]}}, {"type": "Feature", "properties": {"code": "Zkp/I/Kk-01", "reg": "i-kesz", "conf": 1.0}, "geometry": {"type": "Point", "coordinates": [19.0360017, 47.4967066]}}, {"type": "Feature", "properties": {"code": "Zkp/I/Kk-01", "reg": "i-kesz", "conf": 1.0}, "geometry": {"type": "Point", "coordinates": [19.0349573, 47.4975769]}}, {"type": "Feature", "properties": {"code": "Zkp/I/Kk-01", "reg": "i-kesz", "conf": 1.0}, "geometry": {"type": "Point", "coordinates": [19.0350747, 47.4981766]}}, {"type": "Feature", "properties": {"code": "Zkp/I/Kk-01", "reg": "i-kesz", "conf": 1.0}, "geometry": {"type": "Point", "coordinates": [19.0347261, 47.4989255]}}, {"type": "Feature", "properties": {"code": "Kb-Z/I/Kk-01", "reg": "i-kesz", "conf": 1.0}, "geometry": {"type": "Point", "coordinates": [19.0389451, 47.503561]}}, {"type": "Feature", "properties": {"code": "Kb-Z/I/Kk-01", "reg": "i-kesz", "conf": 1.0}, "geometry": {"type": "Point", "coordinates": [19.0360707, 47.5026656]}}, {"type": "Feature", "properties": {"code": "Zkp/I/Kk-01", "reg": "i-kesz", "conf": 1.0}, "geometry": {"type": "Point", "coordinates": [19.0355577, 47.5024299]}}, {"type": "Feature", "properties": {"code": "Zkp/I/Kp-01", "reg": "i-kesz", "conf": 1.0}, "geometry": {"type": "Point", "coordinates": [19.0350538, 47.5031189]}}, {"type": "Feature", "properties": {"code": "Zkp/I/Kk-01", "reg": "i-kesz", "conf": 1.0}, "geometry": {"type": "Point", "coordinates": [19.0358802, 47.501033]}}, {"type": "Feature", "properties": {"code": "Zkp/I/Kp-01", "reg": "i-kesz", "conf": 1.0}, "geometry": {"type": "Point", "coordinates": [19.0353378, 47.5013303]}}, {"type": "Feature", "properties": {"code": "Kb-Z/I/Kk-01", "reg": "i-kesz", "conf": 1.0}, "geometry": {"type": "Point", "coordinates": [19.0350917, 47.5010361]}}, {"type": "Feature", "properties": {"code": "Kb-Z/I/Kp-01", "reg": "i-kesz", "conf": 1.0}, "geometry": {"type": "Point", "coordinates": [19.0346253, 47.5013678]}}, {"type": "Feature", "properties": {"code": "Kb-Z/I/Kk-01", "reg": "i-kesz", "conf": 1.0}, "geometry": {"type": "Point", "coordinates": [19.0352538, 47.4995737]}}, {"type": "Feature", "properties": {"code": "Kb-Z/I/Kk-01", "reg": "i-kesz", "conf": 1.0}, "geometry": {"type": "Point", "coordinates": [19.037275, 47.4979342]}}, {"type": "Feature", "properties": {"code": "Kb-Z/I/Kk-01", "reg": "i-kesz", "conf": 1.0}, "geometry": {"type": "Point", "coordinates": [19.0380321, 47.497374]}}, {"type": "Feature", "properties": {"code": "Zkp/I/Kp-01", "reg": "i-kesz", "conf": 1.0}, "geometry": {"type": "Point", "coordinates": [19.0387481, 47.4987369]}}, {"type": "Feature", "properties": {"code": "Zkp/I/Kp-01", "reg": "i-kesz", "conf": 1.0}, "geometry": {"type": "Point", "coordinates": [19.0401515, 47.4969398]}}, {"type": "Feature", "properties": {"code": "Zkp/I/Kk-01", "reg": "i-kesz", "conf": 1.0}, "geometry": {"type": "Point", "coordinates": [19.0404276, 47.4976878]}}, {"type": "Feature", "properties": {"code": "Zkp/I/Kk-01", "reg": "i-kesz", "conf": 1.0}, "geometry": {"type": "Point", "coordinates": [19.0414141, 47.4972805]}}, {"type": "Feature", "properties": {"code": "Zkp/I/Kk-01", "reg": "i-kesz", "conf": 1.0}, "geometry": {"type": "Point", "coordinates": [19.0366833, 47.5000972]}}, {"type": "Feature", "properties": {"code": "Kb-Z/I/Kk-01", "reg": "i-kesz", "conf": 1.0}, "geometry": {"type": "Point", "coordinates": [19.0371473, 47.5002939]}}, {"type": "Feature", "properties": {"code": "Zkp/I/Kk-01", "reg": "i-kesz", "conf": 1.0}, "geometry": {"type": "Point", "coordinates": [19.0384193, 47.5026531]}}, {"type": "Feature", "properties": {"code": "Kb-Z/I/Kp-01", "reg": "i-kesz", "conf": 1.0}, "geometry": {"type": "Point", "coordinates": [19.0356885, 47.5003735]}}, {"type": "Feature", "properties": {"code": "Ln-2/I/01", "reg": "i-kesz", "conf": 1.0}, "geometry": {"type": "Point", "coordinates": [19.0369303, 47.5010681]}}, {"type": "Feature", "properties": {"code": "Ln-2/I/01", "reg": "i-kesz", "conf": 1.0}, "geometry": {"type": "Point", "coordinates": [19.0375253, 47.5005101]}}, {"type": "Feature", "properties": {"code": "Ln-2/I/02", "reg": "i-kesz", "conf": 1.0}, "geometry": {"type": "Point", "coordinates": [19.0371519, 47.5021447]}}, {"type": "Feature", "properties": {"code": "Ln-2/I/01", "reg": "i-kesz", "conf": 1.0}, "geometry": {"type": "Point", "coordinates": [19.0363572, 47.501741]}}, {"type": "Feature", "properties": {"code": "Ln-2/I/07", "reg": "i-kesz", "conf": 1.0}, "geometry": {"type": "Point", "coordinates": [19.0360715, 47.5019844]}}, {"type": "Feature", "properties": {"code": "Ln-2/I/01", "reg": "i-kesz", "conf": 1.0}, "geometry": {"type": "Point", "coordinates": [19.0361823, 47.5025474]}}, {"type": "Feature", "properties": {"code": "Ln-2/I/01", "reg": "i-kesz", "conf": 1.0}, "geometry": {"type": "Point", "coordinates": [19.0365121, 47.5005911]}}, {"type": "Feature", "properties": {"code": "Ln-2/I/02", "reg": "i-kesz", "conf": 1.0}, "geometry": {"type": "Point", "coordinates": [19.0365072, 47.5033908]}}, {"type": "Feature", "properties": {"code": "Ln-2/I/01", "reg": "i-kesz", "conf": 1.0}, "geometry": {"type": "Point", "coordinates": [19.0376846, 47.4999932]}}, {"type": "Feature", "properties": {"code": "Ln-2/I/02", "reg": "i-kesz", "conf": 1.0}, "geometry": {"type": "Point", "coordinates": [19.0356475, 47.5036672]}}, {"type": "Feature", "properties": {"code": "Ln-2/I/02", "reg": "i-kesz", "conf": 1.0}, "geometry": {"type": "Point", "coordinates": [19.034033, 47.4981646]}}, {"type": "Feature", "properties": {"code": "Ln-2/I/01", "reg": "i-kesz", "conf": 1.0}, "geometry": {"type": "Point", "coordinates": [19.0385471, 47.500259]}}, {"type": "Feature", "properties": {"code": "KÖu-3/I/01", "reg": "i-kesz", "conf": 1.0}, "geometry": {"type": "Point", "coordinates": [19.0406932, 47.4986702]}}, {"type": "Feature", "properties": {"code": "KÖu-3/I/01", "reg": "i-kesz", "conf": 1.0}, "geometry": {"type": "Point", "coordinates": [19.0408997, 47.4981901]}}, {"type": "Feature", "properties": {"code": "Vt-V/I/06", "reg": "i-kesz", "conf": 1.0}, "geometry": {"type": "Point", "coordinates": [19.0273972, 47.4965492]}}, {"type": "Feature", "properties": {"code": "Vt-V/I/06", "reg": "i-kesz", "conf": 1.0}, "geometry": {"type": "Point", "coordinates": [19.0283838, 47.4958586]}}, {"type": "Feature", "properties": {"code": "Vt-V/I/03", "reg": "i-kesz", "conf": 1.0}, "geometry": {"type": "Point", "coordinates": [19.0285515, 47.4951122]}}, {"type": "Feature", "properties": {"code": "K-Közl_Vi-1/I/01", "reg": "i-kesz", "conf": 1.0}, "geometry": {"type": "Point", "coordinates": [19.0286502, 47.492825]}}, {"type": "Feature", "properties": {"code": "Vi-1/I/01", "reg": "i-kesz", "conf": 1.0}, "geometry": {"type": "Point", "coordinates": [19.0294758, 47.4928292]}}, {"type": "Feature", "properties": {"code": "Zkp/I/Kk-01", "reg": "i-kesz", "conf": 1.0}, "geometry": {"type": "Point", "coordinates": [19.0327261, 47.4930339]}}, {"type": "Feature", "properties": {"code": "Kb-Z/I/Kk-01", "reg": "i-kesz", "conf": 1.0}, "geometry": {"type": "Point", "coordinates": [19.0322171, 47.4897187]}}, {"type": "Feature", "properties": {"code": "Ln-1/I/01", "reg": "i-kesz", "conf": 1.0}, "geometry": {"type": "Point", "coordinates": [19.0333896, 47.4958687]}}, {"type": "Feature", "properties": {"code": "Ln-1/I/01", "reg": "i-kesz", "conf": 1.0}, "geometry": {"type": "Point", "coordinates": [19.033325, 47.4953506]}}, {"type": "Feature", "properties": {"code": "Ln-1/I/01", "reg": "i-kesz", "conf": 1.0}, "geometry": {"type": "Point", "coordinates": [19.033252, 47.4948336]}}, {"type": "Feature", "properties": {"code": "Ln-1/I/02", "reg": "i-kesz", "conf": 1.0}, "geometry": {"type": "Point", "coordinates": [19.0340037, 47.4934644]}}, {"type": "Feature", "properties": {"code": "Ln-1/I/01", "reg": "i-kesz", "conf": 1.0}, "geometry": {"type": "Point", "coordinates": [19.0305927, 47.4959286]}}, {"type": "Feature", "properties": {"code": "Ln-1/I/01", "reg": "i-kesz", "conf": 1.0}, "geometry": {"type": "Point", "coordinates": [19.0294243, 47.4951679]}}, {"type": "Feature", "properties": {"code": "Ln-1/I/03", "reg": "i-kesz", "conf": 1.0}, "geometry": {"type": "Point", "coordinates": [19.031145, 47.4955374]}}, {"type": "Feature", "properties": {"code": "Ln-1/I/03", "reg": "i-kesz", "conf": 1.0}, "geometry": {"type": "Point", "coordinates": [19.0305226, 47.494914]}}, {"type": "Feature", "properties": {"code": "Ln-2/I/02", "reg": "i-kesz", "conf": 1.0}, "geometry": {"type": "Point", "coordinates": [19.0312757, 47.4901113]}}, {"type": "Feature", "properties": {"code": "Ln-2/I/02", "reg": "i-kesz", "conf": 1.0}, "geometry": {"type": "Point", "coordinates": [19.0297313, 47.4938906]}}, {"type": "Feature", "properties": {"code": "Ln-2/I/08", "reg": "i-kesz", "conf": 1.0}, "geometry": {"type": "Point", "coordinates": [19.030444, 47.493904]}}, {"type": "Feature", "properties": {"code": "Ln-2/I/02", "reg": "i-kesz", "conf": 1.0}, "geometry": {"type": "Point", "coordinates": [19.0305336, 47.4925856]}}, {"type": "Feature", "properties": {"code": "Ln-2/I/08", "reg": "i-kesz", "conf": 1.0}, "geometry": {"type": "Point", "coordinates": [19.0310544, 47.4927493]}}, {"type": "Feature", "properties": {"code": "Ln-2/I/02", "reg": "i-kesz", "conf": 1.0}, "geometry": {"type": "Point", "coordinates": [19.0313272, 47.491049]}}, {"type": "Feature", "properties": {"code": "Ln-2/I/08", "reg": "i-kesz", "conf": 1.0}, "geometry": {"type": "Point", "coordinates": [19.0323319, 47.4914865]}}, {"type": "Feature", "properties": {"code": "Lk-2/I/01", "reg": "i-kesz", "conf": 1.0}, "geometry": {"type": "Point", "coordinates": [19.0330253, 47.4907707]}}, {"type": "Feature", "properties": {"code": "Lk-2/I/01", "reg": "i-kesz", "conf": 1.0}, "geometry": {"type": "Point", "coordinates": [19.0338471, 47.4903828]}}, {"type": "Feature", "properties": {"code": "Lk-2/I/03", "reg": "i-kesz", "conf": 1.0}, "geometry": {"type": "Point", "coordinates": [19.0330943, 47.4922427]}}, {"type": "Feature", "properties": {"code": "Lk-2/I/03", "reg": "i-kesz", "conf": 1.0}, "geometry": {"type": "Point", "coordinates": [19.0326075, 47.4939638]}}, {"type": "Feature", "properties": {"code": "Lk-2/I/03", "reg": "i-kesz", "conf": 1.0}, "geometry": {"type": "Point", "coordinates": [19.0317524, 47.4947781]}}, {"type": "Feature", "properties": {"code": "Lk-2/I/03", "reg": "i-kesz", "conf": 1.0}, "geometry": {"type": "Point", "coordinates": [19.031742, 47.4929347]}}, {"type": "Feature", "properties": {"code": "Ln-2/I/09", "reg": "i-kesz", "conf": 1.0}, "geometry": {"type": "Point", "coordinates": [19.0311816, 47.4919525]}}, {"type": "Feature", "properties": {"code": "Vt-V/I/03", "reg": "i-kesz", "conf": 1.0}, "geometry": {"type": "Point", "coordinates": [19.0396864, 47.4931695]}}, {"type": "Feature", "properties": {"code": "Vt-V/I/03", "reg": "i-kesz", "conf": 1.0}, "geometry": {"type": "Point", "coordinates": [19.0440838, 47.4932323]}}, {"type": "Feature", "properties": {"code": "Vt-V/I/03", "reg": "i-kesz", "conf": 1.0}, "geometry": {"type": "Point", "coordinates": [19.0446498, 47.4924646]}}, {"type": "Feature", "properties": {"code": "Vt-V/I/03", "reg": "i-kesz", "conf": 1.0}, "geometry": {"type": "Point", "coordinates": [19.04528, 47.4917909]}}, {"type": "Feature", "properties": {"code": "Kb-Z/I/Kk-01", "reg": "i-kesz", "conf": 1.0}, "geometry": {"type": "Point", "coordinates": [19.0448773, 47.4922476]}}, {"type": "Feature", "properties": {"code": "Vt-V/I/03", "reg": "i-kesz", "conf": 1.0}, "geometry": {"type": "Point", "coordinates": [19.0444708, 47.4920504]}}, {"type": "Feature", "properties": {"code": "Vt-V/I/03", "reg": "i-kesz", "conf": 1.0}, "geometry": {"type": "Point", "coordinates": [19.0439484, 47.4924361]}}, {"type": "Feature", "properties": {"code": "KÖu-4/I/01", "reg": "i-kesz", "conf": 1.0}, "geometry": {"type": "Point", "coordinates": [19.0428559, 47.4949387]}}, {"type": "Feature", "properties": {"code": "KÖu-3/I/01", "reg": "i-kesz", "conf": 1.0}, "geometry": {"type": "Point", "coordinates": [19.043001, 47.4951142]}}, {"type": "Feature", "properties": {"code": "Kb-Z/I/Kp-01", "reg": "i-kesz", "conf": 1.0}, "geometry": {"type": "Point", "coordinates": [19.0424182, 47.4935414]}}, {"type": "Feature", "properties": {"code": "Zkp/I/Kp-01", "reg": "i-kesz", "conf": 1.0}, "geometry": {"type": "Point", "coordinates": [19.0416309, 47.4937826]}}, {"type": "Feature", "properties": {"code": "Kb-Bt/I/01", "reg": "i-kesz", "conf": 1.0}, "geometry": {"type": "Point", "coordinates": [19.0412014, 47.4944287]}}, {"type": "Feature", "properties": {"code": "K-Vke_Zvp/I/01", "reg": "i-kesz", "conf": 1.0}, "geometry": {"type": "Point", "coordinates": [19.0396637, 47.4897322]}}, {"type": "Feature", "properties": {"code": "Vi-2/I/01", "reg": "i-kesz", "conf": 1.0}, "geometry": {"type": "Point", "coordinates": [19.0390841, 47.4927039]}}, {"type": "Feature", "properties": {"code": "Kb-Z/I/Kk-01", "reg": "i-kesz", "conf": 1.0}, "geometry": {"type": "Point", "coordinates": [19.0428123, 47.4930055]}}, {"type": "Feature", "properties": {"code": "K-Rek/I/01", "reg": "i-kesz", "conf": 1.0}, "geometry": {"type": "Point", "coordinates": [19.0370004, 47.4908093]}}, {"type": "Feature", "properties": {"code": "Vt-V/I/02", "reg": "i-kesz", "conf": 1.0}, "geometry": {"type": "Point", "coordinates": [19.0388894, 47.496311]}}, {"type": "Feature", "properties": {"code": "Vt-V/I/03", "reg": "i-kesz", "conf": 1.0}, "geometry": {"type": "Point", "coordinates": [19.0429743, 47.4932074]}}, {"type": "Feature", "properties": {"code": "Vt-V/I/03", "reg": "i-kesz", "conf": 1.0}, "geometry": {"type": "Point", "coordinates": [19.0420602, 47.4928543]}}, {"type": "Feature", "properties": {"code": "Vt-V/I/03", "reg": "i-kesz", "conf": 1.0}, "geometry": {"type": "Point", "coordinates": [19.0408802, 47.493254]}}, {"type": "Feature", "properties": {"code": "Vt-V/I/03", "reg": "i-kesz", "conf": 1.0}, "geometry": {"type": "Point", "coordinates": [19.0399228, 47.4937029]}}, {"type": "Feature", "properties": {"code": "Vt-V/I/03", "reg": "i-kesz", "conf": 1.0}, "geometry": {"type": "Point", "coordinates": [19.0392689, 47.4941058]}}, {"type": "Feature", "properties": {"code": "Vt-V/I/03", "reg": "i-kesz", "conf": 1.0}, "geometry": {"type": "Point", "coordinates": [19.0414254, 47.4964845]}}, {"type": "Feature", "properties": {"code": "Vi-2/I/02", "reg": "i-kesz", "conf": 1.0}, "geometry": {"type": "Point", "coordinates": [19.0429067, 47.4905125]}}, {"type": "Feature", "properties": {"code": "Zkp/I/Kp-01", "reg": "i-kesz", "conf": 1.0}, "geometry": {"type": "Point", "coordinates": [19.034534, 47.4961507]}}, {"type": "Feature", "properties": {"code": "Zkp/I/Kk-01", "reg": "i-kesz", "conf": 1.0}, "geometry": {"type": "Point", "coordinates": [19.0367401, 47.4947583]}}, {"type": "Feature", "properties": {"code": "Zkp/I/Kk-01", "reg": "i-kesz", "conf": 1.0}, "geometry": {"type": "Point", "coordinates": [19.0378036, 47.494143]}}, {"type": "Feature", "properties": {"code": "Zkp/I/Kk-01", "reg": "i-kesz", "conf": 1.0}, "geometry": {"type": "Point", "coordinates": [19.0388503, 47.4935254]}}, {"type": "Feature", "properties": {"code": "Zkp/I/Kk-01", "reg": "i-kesz", "conf": 1.0}, "geometry": {"type": "Point", "coordinates": [19.0378564, 47.4948233]}}, {"type": "Feature", "properties": {"code": "Zkp/I/Kk-01", "reg": "i-kesz", "conf": 1.0}, "geometry": {"type": "Point", "coordinates": [19.0388695, 47.4943927]}}, {"type": "Feature", "properties": {"code": "Zkp/I/Kk-01", "reg": "i-kesz", "conf": 1.0}, "geometry": {"type": "Point", "coordinates": [19.0382119, 47.4944411]}}, {"type": "Feature", "properties": {"code": "Zkp/I/Kk-01", "reg": "i-kesz", "conf": 1.0}, "geometry": {"type": "Point", "coordinates": [19.0385732, 47.4950858]}}, {"type": "Feature", "properties": {"code": "Zkp/I/Kk-01", "reg": "i-kesz", "conf": 1.0}, "geometry": {"type": "Point", "coordinates": [19.0373816, 47.4957379]}}, {"type": "Feature", "properties": {"code": "Zkp/I/Kk-01", "reg": "i-kesz", "conf": 1.0}, "geometry": {"type": "Point", "coordinates": [19.0360097, 47.4967204]}}, {"type": "Feature", "properties": {"code": "Kb-Z/I/Kk-01", "reg": "i-kesz", "conf": 1.0}, "geometry": {"type": "Point", "coordinates": [19.0427226, 47.4925008]}}, {"type": "Feature", "properties": {"code": "Zkp/I/Kk-01", "reg": "i-kesz", "conf": 1.0}, "geometry": {"type": "Point", "coordinates": [19.0410939, 47.4926206]}}, {"type": "Feature", "properties": {"code": "Zkp/I/Kp-01", "reg": "i-kesz", "conf": 1.0}, "geometry": {"type": "Point", "coordinates": [19.0379849, 47.4928878]}}, {"type": "Feature", "properties": {"code": "Zkp/I/Kp-01", "reg": "i-kesz", "conf": 1.0}, "geometry": {"type": "Point", "coordinates": [19.0357566, 47.4940198]}}, {"type": "Feature", "properties": {"code": "Zkp/I/Kp-01", "reg": "i-kesz", "conf": 1.0}, "geometry": {"type": "Point", "coordinates": [19.0421146, 47.4911357]}}, {"type": "Feature", "properties": {"code": "Zkp/I/Kk-01", "reg": "i-kesz", "conf": 1.0}, "geometry": {"type": "Point", "coordinates": [19.0436419, 47.4929663]}}, {"type": "Feature", "properties": {"code": "Zkp/I/Kk-01", "reg": "i-kesz", "conf": 1.0}, "geometry": {"type": "Point", "coordinates": [19.0446677, 47.4915169]}}, {"type": "Feature", "properties": {"code": "Ln-1/I/01", "reg": "i-kesz", "conf": 1.0}, "geometry": {"type": "Point", "coordinates": [19.0354632, 47.4964314]}}, {"type": "Feature", "properties": {"code": "Ln-1/I/01", "reg": "i-kesz", "conf": 1.0}, "geometry": {"type": "Point", "coordinates": [19.0367305, 47.4955063]}}, {"type": "Feature", "properties": {"code": "Ln-1/I/01", "reg": "i-kesz", "conf": 1.0}, "geometry": {"type": "Point", "coordinates": [19.037516, 47.4950862]}}, {"type": "Feature", "properties": {"code": "Ln-1/I/01", "reg": "i-kesz", "conf": 1.0}, "geometry": {"type": "Point", "coordinates": [19.0349253, 47.4939282]}}, {"type": "Feature", "properties": {"code": "Ln-1/I/02", "reg": "i-kesz", "conf": 1.0}, "geometry": {"type": "Point", "coordinates": [19.03492, 47.493576]}}, {"type": "Feature", "properties": {"code": "Ln-1/I/02", "reg": "i-kesz", "conf": 1.0}, "geometry": {"type": "Point", "coordinates": [19.0340347, 47.4934765]}}, {"type": "Feature", "properties": {"code": "Lk-2/I/01", "reg": "i-kesz", "conf": 1.0}, "geometry": {"type": "Point", "coordinates": [19.0342885, 47.4899852]}}, {"type": "Feature", "properties": {"code": "Lk-2/I/02", "reg": "i-kesz", "conf": 1.0}, "geometry": {"type": "Point", "coordinates": [19.035054, 47.4899816]}}, {"type": "Feature", "properties": {"code": "Lk-2/I/03", "reg": "i-kesz", "conf": 1.0}, "geometry": {"type": "Point", "coordinates": [19.0347919, 47.4913308]}}, {"type": "Feature", "properties": {"code": "Lk-2/I/03", "reg": "i-kesz", "conf": 1.0}, "geometry": {"type": "Point", "coordinates": [19.0343309, 47.492772]}}, {"type": "Feature", "properties": {"code": "Lk-2/I/03", "reg": "i-kesz", "conf": 1.0}, "geometry": {"type": "Point", "coordinates": [19.0354584, 47.4919983]}}, {"type": "Feature", "properties": {"code": "Lk-2/I/04", "reg": "i-kesz", "conf": 1.0}, "geometry": {"type": "Point", "coordinates": [19.0361384, 47.4926349]}}, {"type": "Feature", "properties": {"code": "Lk-2/I/08", "reg": "i-kesz", "conf": 1.0}, "geometry": {"type": "Point", "coordinates": [19.0359478, 47.4901625]}}, {"type": "Feature", "properties": {"code": "Vt-V/I/05", "reg": "i-kesz", "conf": 1.0}, "geometry": {"type": "Point", "coordinates": [19.0436223, 47.4938738]}}, {"type": "Feature", "properties": {"code": "Lk-2/I/07", "reg": "i-kesz", "conf": 1.0}, "geometry": {"type": "Point", "coordinates": [19.0329491, 47.4868508]}}, {"type": "Feature", "properties": {"code": "Ln-2/I/02", "reg": "i-kesz", "conf": 1.0}, "geometry": {"type": "Point", "coordinates": [19.0315552, 47.4890199]}}, {"type": "Feature", "properties": {"code": "Ln-2/I/02", "reg": "i-kesz", "conf": 1.0}, "geometry": {"type": "Point", "coordinates": [19.0334414, 47.4892537]}}, {"type": "Feature", "properties": {"code": "Lk-2/I/03", "reg": "i-kesz", "conf": 1.0}, "geometry": {"type": "Point", "coordinates": [19.032223, 47.4881449]}}, {"type": "Feature", "properties": {"code": "Lk-2/I/03", "reg": "i-kesz", "conf": 1.0}, "geometry": {"type": "Point", "coordinates": [19.0312387, 47.4878683]}}, {"type": "Feature", "properties": {"code": "Lk-2/I/03", "reg": "i-kesz", "conf": 1.0}, "geometry": {"type": "Point", "coordinates": [19.0340848, 47.4877367]}}, {"type": "Feature", "properties": {"code": "Zvp/I/01", "reg": "i-kesz", "conf": 1.0}, "geometry": {"type": "Point", "coordinates": [19.0453997, 47.4888635]}}, {"type": "Feature", "properties": {"code": "Kb-Z/I/Kp-01", "reg": "i-kesz", "conf": 1.0}, "geometry": {"type": "Point", "coordinates": [19.0421266, 47.4879954]}}, {"type": "Feature", "properties": {"code": "Lk-2/I/03", "reg": "i-kesz", "conf": 1.0}, "geometry": {"type": "Point", "coordinates": [19.0353936, 47.4884821]}}, {"type": "Feature", "properties": {"code": "Lk-2/I/03", "reg": "i-kesz", "conf": 1.0}, "geometry": {"type": "Point", "coordinates": [19.0366863, 47.4889688]}}, {"type": "Feature", "properties": {"code": "Lk-2/I/05", "reg": "i-kesz", "conf": 1.0}, "geometry": {"type": "Point", "coordinates": [19.0378315, 47.4879862]}}, {"type": "Feature", "properties": {"code": "Lk-2/I/05", "reg": "i-kesz", "conf": 1.0}, "geometry": {"type": "Point", "coordinates": [19.0375352, 47.4873816]}}, {"type": "Feature", "properties": {"code": "Lk-2/I/05", "reg": "i-kesz", "conf": 1.0}, "geometry": {"type": "Point", "coordinates": [19.0361024, 47.4872034]}}, {"type": "Feature", "properties": {"code": "Lk-2/I/05", "reg": "i-kesz", "conf": 1.0}, "geometry": {"type": "Point", "coordinates": [19.0388572, 47.4866777]}}, {"type": "Feature", "properties": {"code": "Lk-2/I/03", "reg": "i-kesz", "conf": 1.0}, "geometry": {"type": "Point", "coordinates": [19.0397689, 47.4870611]}}, {"type": "Feature", "properties": {"code": "Lk-2/I/05", "reg": "i-kesz", "conf": 1.0}, "geometry": {"type": "Point", "coordinates": [19.0390655, 47.4878867]}}, {"type": "Feature", "properties": {"code": "Lk-2/I/03", "reg": "i-kesz", "conf": 1.0}, "geometry": {"type": "Point", "coordinates": [19.0392977, 47.4884419]}}, {"type": "Feature", "properties": {"code": "Lk-2/I/03", "reg": "i-kesz", "conf": 1.0}, "geometry": {"type": "Point", "coordinates": [19.0424952, 47.4888787]}}, {"type": "Feature", "properties": {"code": "Lk-2/I/05", "reg": "i-kesz", "conf": 1.0}, "geometry": {"type": "Point", "coordinates": [19.0410857, 47.4866279]}}, {"type": "Feature", "properties": {"code": "Lk-2/I/03", "reg": "i-kesz", "conf": 1.0}, "geometry": {"type": "Point", "coordinates": [19.0413194, 47.4876786]}}, {"type": "Feature", "properties": {"code": "Lk-2/I/03", "reg": "i-kesz", "conf": 1.0}, "geometry": {"type": "Point", "coordinates": [19.0428294, 47.4881929]}}, {"type": "Feature", "properties": {"code": "Kb-Z/I/Kk-01", "reg": "i-kesz", "conf": 1.0}, "geometry": {"type": "Point", "coordinates": [19.0401535, 47.4867171]}}, {"type": "Feature", "properties": {"code": "Lk-2/I/03", "reg": "i-kesz", "conf": 1.0}, "geometry": {"type": "Point", "coordinates": [19.0341096, 47.4877339]}}, {"type": "Feature", "properties": {"code": "Lk-2/I/03", "reg": "i-kesz", "conf": 1.0}, "geometry": {"type": "Point", "coordinates": [19.040321, 47.4883814]}}, {"type": "Feature", "properties": {"code": "Lk-2/I/06", "reg": "i-kesz", "conf": 1.0}, "geometry": {"type": "Point", "coordinates": [19.04017, 47.4871599]}}, {"type": "Feature", "properties": {"code": "Lk-2/I/05", "reg": "i-kesz", "conf": 1.0}, "geometry": {"type": "Point", "coordinates": [19.0344269, 47.4871032]}}]}