{"type": "FeatureCollection", "features": [{"type": "Feature", "properties": {"code": "KÖu-3/VI/1", "reg": "vi-kesz", "conf": 1.0}, "geometry": {"type": "Point", "coordinates": [19.0788863, 47.5126925]}}, {"type": "Feature", "properties": {"code": "Lk-2/VI/1", "reg": "vi-kesz", "conf": 1.0}, "geometry": {"type": "Point", "coordinates": [19.0775169, 47.5127366]}}, {"type": "Feature", "properties": {"code": "Ln-1/VI/2", "reg": "vi-kesz", "conf": 1.0}, "geometry": {"type": "Point", "coordinates": [19.078975, 47.511718]}}, {"type": "Feature", "properties": {"code": "Lk-2/VI/2", "reg": "vi-kesz", "conf": 1.0}, "geometry": {"type": "Point", "coordinates": [19.0780397, 47.5110248]}}, {"type": "Feature", "properties": {"code": "Kt-Fk/VI/1", "reg": "vi-kesz", "conf": 1.0}, "geometry": {"type": "Point", "coordinates": [19.0774783, 47.5111955]}}, {"type": "Feature", "properties": {"code": "Ln-1/VI/2", "reg": "vi-kesz", "conf": 1.0}, "geometry": {"type": "Point", "coordinates": [19.0754851, 47.5105891]}}, {"type": "Feature", "properties": {"code": "Lk-2/VI/2", "reg": "vi-kesz", "conf": 1.0}, "geometry": {"type": "Point", "coordinates": [19.0755067, 47.5097233]}}, {"type": "Feature", "properties": {"code": "Lk-2/VI/1", "reg": "vi-kesz", "conf": 1.0}, "geometry": {"type": "Point", "coordinates": [19.0758324, 47.5118508]}}, {"type": "Feature", "properties": {"code": "Lk-2/VI/1", "reg": "vi-kesz", "conf": 1.0}, "geometry": {"type": "Point", "coordinates": [19.0751159, 47.512368]}}, {"type": "Feature", "properties": {"code": "Lk-2/VI/1", "reg": "vi-kesz", "conf": 1.0}, "geometry": {"type": "Point", "coordinates": [19.0740068, 47.5132175]}}, {"type": "Feature", "properties": {"code": "Lk-2/VI/1", "reg": "vi-kesz", "conf": 1.0}, "geometry": {"type": "Point", "coordinates": [19.0755674, 47.5142636]}}, {"type": "Feature", "properties": {"code": "Lk-2/VI/1", "reg": "vi-kesz", "conf": 1.0}, "geometry": {"type": "Point", "coordinates": [19.0766975, 47.5133383]}}, {"type": "Feature", "properties": {"code": "Ln-1/VI/1", "reg": "vi-kesz", "conf": 1.0}, "geometry": {"type": "Point", "coordinates": [19.0743703, 47.5153464]}}, {"type": "Feature", "properties": {"code": "Lk-2/VI/1", "reg": "vi-kesz", "conf": 1.0}, "geometry": {"type": "Point", "coordinates": [19.0749605, 47.5148021]}}, {"type": "Feature", "properties": {"code": "Ln-1/VI/1", "reg": "vi-kesz", "conf": 1.0}, "geometry": {"type": "Point", "coordinates": [19.0737465, 47.5158778]}}, {"type": "Feature", "properties": {"code": "KÖu-3/VI/1", "reg": "vi-kesz", "conf": 1.0}, "geometry": {"type": "Point", "coordinates": [19.0744327, 47.5166857]}}, {"type": "Feature", "properties": {"code": "Lk-2/VI/1", "reg": "vi-kesz", "conf": 1.0}, "geometry": {"type": "Point", "coordinates": [19.0741226, 47.5109436]}}, {"type": "Feature", "properties": {"code": "Lk-2/VI/1", "reg": "vi-kesz", "conf": 1.0}, "geometry": {"type": "Point", "coordinates": [19.0735364, 47.5113491]}}, {"type": "Feature", "properties": {"code": "Lk-2/VI/2", "reg": "vi-kesz", "conf": 1.0}, "geometry": {"type": "Point", "coordinates": [19.0736264, 47.5087462]}}, {"type": "Feature", "properties": {"code": "Ln-1/VI/2", "reg": "vi-kesz", "conf": 1.0}, "geometry": {"type": "Point", "coordinates": [19.0725516, 47.5088601]}}, {"type": "Feature", "properties": {"code": "KÖu-4/VI/1", "reg": "vi-kesz", "conf": 1.0}, "geometry": {"type": "Point", "coordinates": [19.0714034, 47.5085019]}}, {"type": "Feature", "properties": {"code": "K-Hon/VI/1", "reg": "vi-kesz", "conf": 1.0}, "geometry": {"type": "Point", "coordinates": [19.0730809, 47.5165537]}}, {"type": "Feature", "properties": {"code": "Ln-1/VI/1", "reg": "vi-kesz", "conf": 1.0}, "geometry": {"type": "Point", "coordinates": [19.0712739, 47.5154076]}}, {"type": "Feature", "properties": {"code": "KÖu-4/VI/1", "reg": "vi-kesz", "conf": 1.0}, "geometry": {"type": "Point", "coordinates": [19.0721052, 47.5074381]}}, {"type": "Feature", "properties": {"code": "Lk-2/VI/1", "reg": "vi-kesz", "conf": 1.0}, "geometry": {"type": "Point", "coordinates": [19.0715952, 47.5127931]}}, {"type": "Feature", "properties": {"code": "Ln-1/VI/3", "reg": "vi-kesz", "conf": 1.0}, "geometry": {"type": "Point", "coordinates": [19.070624, 47.5119926]}}, {"type": "Feature", "properties": {"code": "Lk-2/VI/1", "reg": "vi-kesz", "conf": 1.0}, "geometry": {"type": "Point", "coordinates": [19.0718252, 47.512013]}}, {"type": "Feature", "properties": {"code": "Lk-2/VI/1", "reg": "vi-kesz", "conf": 1.0}, "geometry": {"type": "Point", "coordinates": [19.0732063, 47.5138134]}}, {"type": "Feature", "properties": {"code": "Lk-2/VI/3", "reg": "vi-kesz", "conf": 1.0}, "geometry": {"type": "Point", "coordinates": [19.0707655, 47.5134677]}}, {"type": "Feature", "properties": {"code": "Ln-1/VI/1", "reg": "vi-kesz", "conf": 1.0}, "geometry": {"type": "Point", "coordinates": [19.0727109, 47.514369]}}, {"type": "Feature", "properties": {"code": "Ln-1/VI/1", "reg": "vi-kesz", "conf": 1.0}, "geometry": {"type": "Point", "coordinates": [19.0714959, 47.5078694]}}, {"type": "Feature", "properties": {"code": "Ln-1/VI/1", "reg": "vi-kesz", "conf": 1.0}, "geometry": {"type": "Point", "coordinates": [19.0700931, 47.5115752]}}, {"type": "Feature", "properties": {"code": "KÖu-3/VI/1", "reg": "vi-kesz", "conf": 1.0}, "geometry": {"type": "Point", "coordinates": [19.0724803, 47.5113428]}}, {"type": "Feature", "properties": {"code": "Ln-1/VI/1", "reg": "vi-kesz", "conf": 1.0}, "geometry": {"type": "Point", "coordinates": [19.0718575, 47.5101056]}}, {"type": "Feature", "properties": {"code": "Ln-1/VI/1", "reg": "vi-kesz", "conf": 1.0}, "geometry": {"type": "Point", "coordinates": [19.0709881, 47.5109405]}}, {"type": "Feature", "properties": {"code": "Ln-1/VI/1", "reg": "vi-kesz", "conf": 1.0}, "geometry": {"type": "Point", "coordinates": [19.0690479, 47.508232]}}, {"type": "Feature", "properties": {"code": "Ln-1/VI/1", "reg": "vi-kesz", "conf": 1.0}, "geometry": {"type": "Point", "coordinates": [19.0697938, 47.5077391]}}, {"type": "Feature", "properties": {"code": "Ln-1/VI/1", "reg": "vi-kesz", "conf": 1.0}, "geometry": {"type": "Point", "coordinates": [19.0685919, 47.5073123]}}, {"type": "Feature", "properties": {"code": "Ln-1/VI/1", "reg": "vi-kesz", "conf": 1.0}, "geometry": {"type": "Point", "coordinates": [19.0708656, 47.5071559]}}, {"type": "Feature", "properties": {"code": "Ln-1/VI/1", "reg": "vi-kesz", "conf": 1.0}, "geometry": {"type": "Point", "coordinates": [19.0686383, 47.5097162]}}, {"type": "Feature", "properties": {"code": "Ln-1/VI/1", "reg": "vi-kesz", "conf": 1.0}, "geometry": {"type": "Point", "coordinates": [19.0702666, 47.5085944]}}, {"type": "Feature", "properties": {"code": "Ln-1/VI/1", "reg": "vi-kesz", "conf": 1.0}, "geometry": {"type": "Point", "coordinates": [19.067825, 47.50901]}}, {"type": "Feature", "properties": {"code": "KÖu-3/VI/1", "reg": "vi-kesz", "conf": 1.0}, "geometry": {"type": "Point", "coordinates": [19.0690757, 47.5090505]}}, {"type": "Feature", "properties": {"code": "Ln-1/VI/1", "reg": "vi-kesz", "conf": 1.0}, "geometry": {"type": "Point", "coordinates": [19.0694946, 47.5144804]}}, {"type": "Feature", "properties": {"code": "Vt-V/VI/3", "reg": "vi-kesz", "conf": 1.0}, "geometry": {"type": "Point", "coordinates": [19.0680669, 47.5136975]}}, {"type": "Feature", "properties": {"code": "Ln-1/VI/1", "reg": "vi-kesz", "conf": 1.0}, "geometry": {"type": "Point", "coordinates": [19.0691919, 47.5111066]}}, {"type": "Feature", "properties": {"code": "Ln-1/VI/1", "reg": "vi-kesz", "conf": 1.0}, "geometry": {"type": "Point", "coordinates": [19.0682969, 47.5105579]}}, {"type": "Feature", "properties": {"code": "Ln-1/VI/1", "reg": "vi-kesz", "conf": 1.0}, "geometry": {"type": "Point", "coordinates": [19.0676082, 47.5101363]}}, {"type": "Feature", "properties": {"code": "Vt-V/VI/3", "reg": "vi-kesz", "conf": 1.0}, "geometry": {"type": "Point", "coordinates": [19.0668857, 47.5130589]}}, {"type": "Feature", "properties": {"code": "Ln-1/VI/1", "reg": "vi-kesz", "conf": 1.0}, "geometry": {"type": "Point", "coordinates": [19.0681689, 47.5119231]}}, {"type": "Feature", "properties": {"code": "Ln-1/VI/1", "reg": "vi-kesz", "conf": 1.0}, "geometry": {"type": "Point", "coordinates": [19.0689629, 47.5124003]}}, {"type": "Feature", "properties": {"code": "Ln-1/VI/3", "reg": "vi-kesz", "conf": 1.0}, "geometry": {"type": "Point", "coordinates": [19.0695294, 47.5127433]}}, {"type": "Feature", "properties": {"code": "KÖu-4/VI/1", "reg": "vi-kesz", "conf": 1.0}, "geometry": {"type": "Point", "coordinates": [19.0670712, 47.5121486]}}, {"type": "Feature", "properties": {"code": "Ln-1/VI/1", "reg": "vi-kesz", "conf": 1.0}, "geometry": {"type": "Point", "coordinates": [19.0698965, 47.5063496]}}, {"type": "Feature", "properties": {"code": "Ln-1/VI/1", "reg": "vi-kesz", "conf": 1.0}, "geometry": {"type": "Point", "coordinates": [19.0676231, 47.5067007]}}, {"type": "Feature", "properties": {"code": "Ln-1/VI/1", "reg": "vi-kesz", "conf": 1.0}, "geometry": {"type": "Point", "coordinates": [19.0688373, 47.5057667]}}, {"type": "Feature", "properties": {"code": "Vt-V/VI/4", "reg": "vi-kesz", "conf": 1.0}, "geometry": {"type": "Point", "coordinates": [19.0678623, 47.5051851]}}, {"type": "Feature", "properties": {"code": "Vt-V/VI/4", "reg": "vi-kesz", "conf": 1.0}, "geometry": {"type": "Point", "coordinates": [19.0657129, 47.5055031]}}, {"type": "Feature", "properties": {"code": "Vt-V/VI/2", "reg": "vi-kesz", "conf": 1.0}, "geometry": {"type": "Point", "coordinates": [19.064902, 47.5049272]}}, {"type": "Feature", "properties": {"code": "Zkp/VI/1", "reg": "vi-kesz", "conf": 1.0}, "geometry": {"type": "Point", "coordinates": [19.0669252, 47.5058098]}}, {"type": "Feature", "properties": {"code": "Vt-V/VI/4", "reg": "vi-kesz", "conf": 1.0}, "geometry": {"type": "Point", "coordinates": [19.0661648, 47.5064314]}}, {"type": "Feature", "properties": {"code": "Vt-V/VI/2", "reg": "vi-kesz", "conf": 1.0}, "geometry": {"type": "Point", "coordinates": [19.0659017, 47.504022]}}, {"type": "Feature", "properties": {"code": "Vt-V/VI/2", "reg": "vi-kesz", "conf": 1.0}, "geometry": {"type": "Point", "coordinates": [19.064712, 47.5033676]}}, {"type": "Feature", "properties": {"code": "Vt-V/VI/4", "reg": "vi-kesz", "conf": 1.0}, "geometry": {"type": "Point", "coordinates": [19.0668472, 47.5045835]}}, {"type": "Feature", "properties": {"code": "KÖu-3/VI/1", "reg": "vi-kesz", "conf": 1.0}, "geometry": {"type": "Point", "coordinates": [19.0651881, 47.5037564]}}, {"type": "Feature", "properties": {"code": "Vt-V/VI/4", "reg": "vi-kesz", "conf": 1.0}, "geometry": {"type": "Point", "coordinates": [19.0641584, 47.5067036]}}, {"type": "Feature", "properties": {"code": "Vt-V/VI/2", "reg": "vi-kesz", "conf": 1.0}, "geometry": {"type": "Point", "coordinates": [19.063215, 47.5061921]}}, {"type": "Feature", "properties": {"code": "Vt-V/VI/2", "reg": "vi-kesz", "conf": 1.0}, "geometry": {"type": "Point", "coordinates": [19.0631801, 47.5031185]}}, {"type": "Feature", "properties": {"code": "Vt-V/VI/2", "reg": "vi-kesz", "conf": 1.0}, "geometry": {"type": "Point", "coordinates": [19.062096, 47.5027645]}}, {"type": "Feature", "properties": {"code": "Kt-Fk/VI/1", "reg": "vi-kesz", "conf": 1.0}, "geometry": {"type": "Point", "coordinates": [19.0639829, 47.5032802]}}, {"type": "Feature", "properties": {"code": "Vt-V/VI/2", "reg": "vi-kesz", "conf": 1.0}, "geometry": {"type": "Point", "coordinates": [19.0620838, 47.5053316]}}, {"type": "Feature", "properties": {"code": "Kt-Fk/VI/1", "reg": "vi-kesz", "conf": 1.0}, "geometry": {"type": "Point", "coordinates": [19.0619357, 47.5048266]}}, {"type": "Feature", "properties": {"code": "Vt-V/VI/2", "reg": "vi-kesz", "conf": 1.0}, "geometry": {"type": "Point", "coordinates": [19.0608346, 47.5043339]}}, {"type": "Feature", "properties": {"code": "Vt-V/VI/2", "reg": "vi-kesz", "conf": 1.0}, "geometry": {"type": "Point", "coordinates": [19.0636679, 47.5041455]}}, {"type": "Feature", "properties": {"code": "Vt-V/VI/2", "reg": "vi-kesz", "conf": 1.0}, "geometry": {"type": "Point", "coordinates": [19.0617632, 47.5036534]}}, {"type": "Feature", "properties": {"code": "Vt-V/VI/2", "reg": "vi-kesz", "conf": 1.0}, "geometry": {"type": "Point", "coordinates": [19.0602572, 47.5026115]}}, {"type": "Feature", "properties": {"code": "KÖu-3/VI/1", "reg": "vi-kesz", "conf": 1.0}, "geometry": {"type": "Point", "coordinates": [19.0598454, 47.5028794]}}, {"type": "Feature", "properties": {"code": "Vt-V/VI/4", "reg": "vi-kesz", "conf": 1.0}, "geometry": {"type": "Point", "coordinates": [19.0587843, 47.5059496]}}, {"type": "Feature", "properties": {"code": "Vt-V/VI/2", "reg": "vi-kesz", "conf": 1.0}, "geometry": {"type": "Point", "coordinates": [19.0595932, 47.5065442]}}, {"type": "Feature", "properties": {"code": "Vt-V/VI/4", "reg": "vi-kesz", "conf": 1.0}, "geometry": {"type": "Point", "coordinates": [19.0581711, 47.5065111]}}, {"type": "Feature", "properties": {"code": "Vt-V/VI/2", "reg": "vi-kesz", "conf": 1.0}, "geometry": {"type": "Point", "coordinates": [19.0610085, 47.5062712]}}, {"type": "Feature", "properties": {"code": "Vt-V/VI/2", "reg": "vi-kesz", "conf": 1.0}, "geometry": {"type": "Point", "coordinates": [19.0602508, 47.5060801]}}, {"type": "Feature", "properties": {"code": "Vt-V/VI/2", "reg": "vi-kesz", "conf": 1.0}, "geometry": {"type": "Point", "coordinates": [19.0585974, 47.5049181]}}, {"type": "Feature", "properties": {"code": "Vt-V/VI/2", "reg": "vi-kesz", "conf": 1.0}, "geometry": {"type": "Point", "coordinates": [19.0579251, 47.5053894]}}, {"type": "Feature", "properties": {"code": "Vt-V/VI/2", "reg": "vi-kesz", "conf": 1.0}, "geometry": {"type": "Point", "coordinates": [19.0600701, 47.504997]}}, {"type": "Feature", "properties": {"code": "Vt-V/VI/4", "reg": "vi-kesz", "conf": 1.0}, "geometry": {"type": "Point", "coordinates": [19.0594441, 47.5054998]}}, {"type": "Feature", "properties": {"code": "Vt-V/VI/2", "reg": "vi-kesz", "conf": 1.0}, "geometry": {"type": "Point", "coordinates": [19.0589441, 47.5035513]}}, {"type": "Feature", "properties": {"code": "Kt-Fk/VI/1", "reg": "vi-kesz", "conf": 1.0}, "geometry": {"type": "Point", "coordinates": [19.0599542, 47.5037436]}}, {"type": "Feature", "properties": {"code": "Kt-Kgy/VI/1", "reg": "vi-kesz", "conf": 1.0}, "geometry": {"type": "Point", "coordinates": [19.057237, 47.5041086]}}, {"type": "Feature", "properties": {"code": "Vt-V/VI/2", "reg": "vi-kesz", "conf": 1.0}, "geometry": {"type": "Point", "coordinates": [19.057717, 47.5043393]}}, {"type": "Feature", "properties": {"code": "Vt-V/VI/8", "reg": "vi-kesz", "conf": 1.0}, "geometry": {"type": "Point", "coordinates": [19.0582221, 47.5044562]}}, {"type": "Feature", "properties": {"code": "Vt-V/VI/2", "reg": "vi-kesz", "conf": 1.0}, "geometry": {"type": "Point", "coordinates": [19.0582422, 47.5027677]}}, {"type": "Feature", "properties": {"code": "Kt-Kgy/VI/1", "reg": "vi-kesz", "conf": 1.0}, "geometry": {"type": "Point", "coordinates": [19.058178, 47.5033258]}}, {"type": "Feature", "properties": {"code": "Vt-V/VI/2", "reg": "vi-kesz", "conf": 1.0}, "geometry": {"type": "Point", "coordinates": [19.0565826, 47.5063908]}}, {"type": "Feature", "properties": {"code": "Vt-V/VI/2", "reg": "vi-kesz", "conf": 1.0}, "geometry": {"type": "Point", "coordinates": [19.0572949, 47.5058965]}}, {"type": "Feature", "properties": {"code": "Vt-V/VI/2", "reg": "vi-kesz", "conf": 1.0}, "geometry": {"type": "Point", "coordinates": [19.0562889, 47.5033346]}}, {"type": "Feature", "properties": {"code": "Vt-V/VI/2", "reg": "vi-kesz", "conf": 1.0}, "geometry": {"type": "Point", "coordinates": [19.0567384, 47.502935]}}, {"type": "Feature", "properties": {"code": "Vt-V/VI/2", "reg": "vi-kesz", "conf": 1.0}, "geometry": {"type": "Point", "coordinates": [19.0557468, 47.5048332]}}, {"type": "Feature", "properties": {"code": "Vt-V/VI/2", "reg": "vi-kesz", "conf": 1.0}, "geometry": {"type": "Point", "coordinates": [19.0572194, 47.5048577]}}, {"type": "Feature", "properties": {"code": "Kt-Kgy/VI/1", "reg": "vi-kesz", "conf": 1.0}, "geometry": {"type": "Point", "coordinates": [19.0566709, 47.5045756]}}, {"type": "Feature", "properties": {"code": "Kt-Kgy/VI/1", "reg": "vi-kesz", "conf": 1.0}, "geometry": {"type": "Point", "coordinates": [19.0562119, 47.504963]}}, {"type": "Feature", "properties": {"code": "Vt-V/VI/2", "reg": "vi-kesz", "conf": 1.0}, "geometry": {"type": "Point", "coordinates": [19.0563242, 47.5053936]}}, {"type": "Feature", "properties": {"code": "Vt-V/VI/2", "reg": "vi-kesz", "conf": 1.0}, "geometry": {"type": "Point", "coordinates": [19.0560606, 47.5038757]}}, {"type": "Feature", "properties": {"code": "Ln-1/VI/1", "reg": "vi-kesz", "conf": 1.0}, "geometry": {"type": "Point", "coordinates": [19.0672318, 47.5113658]}}, {"type": "Feature", "properties": {"code": "Ln-1/VI/1", "reg": "vi-kesz", "conf": 1.0}, "geometry": {"type": "Point", "coordinates": [19.0662199, 47.5101589]}}, {"type": "Feature", "properties": {"code": "Ln-1/VI/1", "reg": "vi-kesz", "conf": 1.0}, "geometry": {"type": "Point", "coordinates": [19.066539, 47.5109628]}}, {"type": "Feature", "properties": {"code": "Ln-1/VI/1", "reg": "vi-kesz", "conf": 1.0}, "geometry": {"type": "Point", "coordinates": [19.0660222, 47.5078839]}}, {"type": "Feature", "properties": {"code": "Ln-1/VI/1", "reg": "vi-kesz", "conf": 1.0}, "geometry": {"type": "Point", "coordinates": [19.0669637, 47.5084927]}}, {"type": "Feature", "properties": {"code": "Vt-V/VI/4", "reg": "vi-kesz", "conf": 1.0}, "geometry": {"type": "Point", "coordinates": [19.0650557, 47.5073267]}}, {"type": "Feature", "properties": {"code": "Vt-V/VI/3", "reg": "vi-kesz", "conf": 1.0}, "geometry": {"type": "Point", "coordinates": [19.0658601, 47.5124788]}}, {"type": "Feature", "properties": {"code": "Vt-V/VI/3", "reg": "vi-kesz", "conf": 1.0}, "geometry": {"type": "Point", "coordinates": [19.0651062, 47.5120201]}}, {"type": "Feature", "properties": {"code": "Ln-1/VI/1", "reg": "vi-kesz", "conf": 1.0}, "geometry": {"type": "Point", "coordinates": [19.0644257, 47.5091101]}}, {"type": "Feature", "properties": {"code": "Ln-1/VI/1", "reg": "vi-kesz", "conf": 1.0}, "geometry": {"type": "Point", "coordinates": [19.0653923, 47.5096631]}}, {"type": "Feature", "properties": {"code": "Vt-V/VI/2", "reg": "vi-kesz", "conf": 1.0}, "geometry": {"type": "Point", "coordinates": [19.0616169, 47.5100154]}}, {"type": "Feature", "properties": {"code": "Vt-V/VI/2", "reg": "vi-kesz", "conf": 1.0}, "geometry": {"type": "Point", "coordinates": [19.0626002, 47.5105454]}}, {"type": "Feature", "properties": {"code": "Vt-V/VI/3", "reg": "vi-kesz", "conf": 1.0}, "geometry": {"type": "Point", "coordinates": [19.0643523, 47.5115757]}}, {"type": "Feature", "properties": {"code": "Vt-V/VI/2", "reg": "vi-kesz", "conf": 1.0}, "geometry": {"type": "Point", "coordinates": [19.0634932, 47.5110999]}}, {"type": "Feature", "properties": {"code": "Vt-V/VI/2", "reg": "vi-kesz", "conf": 1.0}, "geometry": {"type": "Point", "coordinates": [19.0614103, 47.5074614]}}, {"type": "Feature", "properties": {"code": "Ln-1/VI/1", "reg": "vi-kesz", "conf": 1.0}, "geometry": {"type": "Point", "coordinates": [19.0624884, 47.50802]}}, {"type": "Feature", "properties": {"code": "Ln-1/VI/1", "reg": "vi-kesz", "conf": 1.0}, "geometry": {"type": "Point", "coordinates": [19.0634276, 47.5085601]}}, {"type": "Feature", "properties": {"code": "Vt-V/VI/2", "reg": "vi-kesz", "conf": 1.0}, "geometry": {"type": "Point", "coordinates": [19.060684, 47.5094924]}}, {"type": "Feature", "properties": {"code": "Vt-V/VI/2", "reg": "vi-kesz", "conf": 1.0}, "geometry": {"type": "Point", "coordinates": [19.0588465, 47.5089001]}}, {"type": "Feature", "properties": {"code": "Vt-V/VI/2", "reg": "vi-kesz", "conf": 1.0}, "geometry": {"type": "Point", "coordinates": [19.0594551, 47.509276]}}, {"type": "Feature", "properties": {"code": "Vt-V/VI/2", "reg": "vi-kesz", "conf": 1.0}, "geometry": {"type": "Point", "coordinates": [19.0589547, 47.5070685]}}, {"type": "Feature", "properties": {"code": "Vt-V/VI/2", "reg": "vi-kesz", "conf": 1.0}, "geometry": {"type": "Point", "coordinates": [19.0601325, 47.5069473]}}, {"type": "Feature", "properties": {"code": "Vt-V/VI/2", "reg": "vi-kesz", "conf": 1.0}, "geometry": {"type": "Point", "coordinates": [19.0593845, 47.5074688]}}, {"type": "Feature", "properties": {"code": "Vt-V/VI/2", "reg": "vi-kesz", "conf": 1.0}, "geometry": {"type": "Point", "coordinates": [19.0584266, 47.5081908]}}, {"type": "Feature", "properties": {"code": "Vt-V/VI/2", "reg": "vi-kesz", "conf": 1.0}, "geometry": {"type": "Point", "coordinates": [19.0598537, 47.5086575]}}, {"type": "Feature", "properties": {"code": "Vt-V/VI/2", "reg": "vi-kesz", "conf": 1.0}, "geometry": {"type": "Point", "coordinates": [19.0567213, 47.5074653]}}, {"type": "Feature", "properties": {"code": "Vt-V/VI/4", "reg": "vi-kesz", "conf": 1.0}, "geometry": {"type": "Point", "coordinates": [19.0574693, 47.5069896]}}, {"type": "Feature", "properties": {"code": "Vt-V/VI/2", "reg": "vi-kesz", "conf": 1.0}, "geometry": {"type": "Point", "coordinates": [19.0582108, 47.5075456]}}]}