{"type": "FeatureCollection", "features": [{"type": "Feature", "properties": {"code": "Lke-1", "reg": "csobanka-hesz"}, "geometry": {"type": "Point", "coordinates": [18.9600104, 47.6440277]}}, {"type": "Feature", "properties": {"code": "Lke-4", "reg": "csobanka-hesz"}, "geometry": {"type": "Point", "coordinates": [18.9706137, 47.6533346]}}, {"type": "Feature", "properties": {"code": "Kb-K", "reg": "csobanka-hesz"}, "geometry": {"type": "Point", "coordinates": [18.9678069, 47.6489158]}}, {"type": "Feature", "properties": {"code": "Lke-4", "reg": "csobanka-hesz"}, "geometry": {"type": "Point", "coordinates": [18.9619576, 47.6482653]}}, {"type": "Feature", "properties": {"code": "Lke-4", "reg": "csobanka-hesz"}, "geometry": {"type": "Point", "coordinates": [18.9662109, 47.6556037]}}, {"type": "Feature", "properties": {"code": "Lke-1", "reg": "csobanka-hesz"}, "geometry": {"type": "Point", "coordinates": [18.9637373, 47.6402393]}}, {"type": "Feature", "properties": {"code": "Lke-4", "reg": "csobanka-hesz"}, "geometry": {"type": "Point", "coordinates": [18.9624376, 47.6529435]}}, {"type": "Feature", "properties": {"code": "Lke-3", "reg": "csobanka-hesz"}, "geometry": {"type": "Point", "coordinates": [18.9693252, 47.6394234]}}, {"type": "Feature", "properties": {"code": "Mko", "reg": "csobanka-hesz"}, "geometry": {"type": "Point", "coordinates": [18.9566398, 47.6486856]}}, {"type": "Feature", "properties": {"code": "Lke-3", "reg": "csobanka-hesz"}, "geometry": {"type": "Point", "coordinates": [18.9567692, 47.6418871]}}, {"type": "Feature", "properties": {"code": "Lke-1", "reg": "csobanka-hesz"}, "geometry": {"type": "Point", "coordinates": [18.9580791, 47.6433908]}}, {"type": "Feature", "properties": {"code": "Lke-3", "reg": "csobanka-hesz"}, "geometry": {"type": "Point", "coordinates": [18.9596533, 47.640873]}}, {"type": "Feature", "properties": {"code": "Eg", "reg": "csobanka-hesz"}, "geometry": {"type": "Point", "coordinates": [18.9521557, 47.6369848]}}, {"type": "Feature", "properties": {"code": "Lke-6", "reg": "csobanka-hesz"}, "geometry": {"type": "Point", "coordinates": [18.9603432, 47.6448057]}}, {"type": "Feature", "properties": {"code": "Eg", "reg": "csobanka-hesz"}, "geometry": {"type": "Point", "coordinates": [18.9516309, 47.638787]}}, {"type": "Feature", "properties": {"code": "Lke-3", "reg": "csobanka-hesz"}, "geometry": {"type": "Point", "coordinates": [18.9550622, 47.6454845]}}, {"type": "Feature", "properties": {"code": "Ev-2", "reg": "csobanka-hesz"}, "geometry": {"type": "Point", "coordinates": [18.962592, 47.6392871]}}, {"type": "Feature", "properties": {"code": "Lke-3", "reg": "csobanka-hesz"}, "geometry": {"type": "Point", "coordinates": [18.9607611, 47.6407616]}}, {"type": "Feature", "properties": {"code": "Lke-1", "reg": "csobanka-hesz"}, "geometry": {"type": "Point", "coordinates": [18.9666623, 47.6445026]}}, {"type": "Feature", "properties": {"code": "K-T", "reg": "csobanka-hesz"}, "geometry": {"type": "Point", "coordinates": [18.9606734, 47.6393364]}}, {"type": "Feature", "properties": {"code": "K-Sz", "reg": "csobanka-hesz"}, "geometry": {"type": "Point", "coordinates": [18.9595416, 47.6383693]}}, {"type": "Feature", "properties": {"code": "Zkk", "reg": "csobanka-hesz"}, "geometry": {"type": "Point", "coordinates": [18.9660957, 47.6446601]}}, {"type": "Feature", "properties": {"code": "Kb-Kt", "reg": "csobanka-hesz"}, "geometry": {"type": "Point", "coordinates": [18.9677306, 47.6449561]}}, {"type": "Feature", "properties": {"code": "Lke-6", "reg": "csobanka-hesz"}, "geometry": {"type": "Point", "coordinates": [18.9568646, 47.6467985]}}, {"type": "Feature", "properties": {"code": "Lke-1", "reg": "csobanka-hesz"}, "geometry": {"type": "Point", "coordinates": [18.9672451, 47.6449169]}}, {"type": "Feature", "properties": {"code": "Mko", "reg": "csobanka-hesz"}, "geometry": {"type": "Point", "coordinates": [18.9651473, 47.6368683]}}, {"type": "Feature", "properties": {"code": "Lke-6", "reg": "csobanka-hesz"}, "geometry": {"type": "Point", "coordinates": [18.9594182, 47.6457911]}}, {"type": "Feature", "properties": {"code": "Lke-6", "reg": "csobanka-hesz"}, "geometry": {"type": "Point", "coordinates": [18.9601623, 47.6467042]}}, {"type": "Feature", "properties": {"code": "Ev-2", "reg": "csobanka-hesz"}, "geometry": {"type": "Point", "coordinates": [18.9583054, 47.6487689]}}, {"type": "Feature", "properties": {"code": "Má-1", "reg": "csobanka-hesz"}, "geometry": {"type": "Point", "coordinates": [18.9549262, 47.6578622]}}, {"type": "Feature", "properties": {"code": "Má-2", "reg": "csobanka-hesz"}, "geometry": {"type": "Point", "coordinates": [18.9605311, 47.6570052]}}, {"type": "Feature", "properties": {"code": "Má-1", "reg": "csobanka-hesz"}, "geometry": {"type": "Point", "coordinates": [18.9539718, 47.6551761]}}, {"type": "Feature", "properties": {"code": "Lke-5", "reg": "csobanka-hesz"}, "geometry": {"type": "Point", "coordinates": [18.9612718, 47.6550955]}}, {"type": "Feature", "properties": {"code": "Lke-5", "reg": "csobanka-hesz"}, "geometry": {"type": "Point", "coordinates": [18.9626342, 47.6549773]}}, {"type": "Feature", "properties": {"code": "Mko", "reg": "csobanka-hesz"}, "geometry": {"type": "Point", "coordinates": [18.9707165, 47.6548307]}}, {"type": "Feature", "properties": {"code": "Lke-4", "reg": "csobanka-hesz"}, "geometry": {"type": "Point", "coordinates": [18.9651869, 47.6547087]}}, {"type": "Feature", "properties": {"code": "K-I", "reg": "csobanka-hesz"}, "geometry": {"type": "Point", "coordinates": [18.9730268, 47.6542692]}}, {"type": "Feature", "properties": {"code": "Lke-4", "reg": "csobanka-hesz"}, "geometry": {"type": "Point", "coordinates": [18.9683266, 47.6542026]}}, {"type": "Feature", "properties": {"code": "Lke-4", "reg": "csobanka-hesz"}, "geometry": {"type": "Point", "coordinates": [18.9705827, 47.6539042]}}, {"type": "Feature", "properties": {"code": "Mko", "reg": "csobanka-hesz"}, "geometry": {"type": "Point", "coordinates": [18.9802607, 47.6530722]}}, {"type": "Feature", "properties": {"code": "Lke-4", "reg": "csobanka-hesz"}, "geometry": {"type": "Point", "coordinates": [18.9670507, 47.6524954]}}, {"type": "Feature", "properties": {"code": "Ev-1", "reg": "csobanka-hesz"}, "geometry": {"type": "Point", "coordinates": [18.9516794, 47.6519861]}}, {"type": "Feature", "properties": {"code": "Lke-4", "reg": "csobanka-hesz"}, "geometry": {"type": "Point", "coordinates": [18.9647621, 47.6517759]}}, {"type": "Feature", "properties": {"code": "Lke-1", "reg": "csobanka-hesz"}, "geometry": {"type": "Point", "coordinates": [18.9672244, 47.6510452]}}, {"type": "Feature", "properties": {"code": "Má-1", "reg": "csobanka-hesz"}, "geometry": {"type": "Point", "coordinates": [18.9604911, 47.6509546]}}, {"type": "Feature", "properties": {"code": "Lke-4", "reg": "csobanka-hesz"}, "geometry": {"type": "Point", "coordinates": [18.9631211, 47.6508966]}}, {"type": "Feature", "properties": {"code": "Lke-4", "reg": "csobanka-hesz"}, "geometry": {"type": "Point", "coordinates": [18.9659844, 47.6503446]}}, {"type": "Feature", "properties": {"code": "Lke-1", "reg": "csobanka-hesz"}, "geometry": {"type": "Point", "coordinates": [18.9671278, 47.6500135]}}, {"type": "Feature", "properties": {"code": "Lke-1", "reg": "csobanka-hesz"}, "geometry": {"type": "Point", "coordinates": [18.9690737, 47.6496783]}}, {"type": "Feature", "properties": {"code": "Kb-K", "reg": "csobanka-hesz"}, "geometry": {"type": "Point", "coordinates": [18.9674321, 47.6493251]}}, {"type": "Feature", "properties": {"code": "Lke-4", "reg": "csobanka-hesz"}, "geometry": {"type": "Point", "coordinates": [18.9649506, 47.6492185]}}, {"type": "Feature", "properties": {"code": "Lke-4", "reg": "csobanka-hesz"}, "geometry": {"type": "Point", "coordinates": [18.9611034, 47.6491981]}}, {"type": "Feature", "properties": {"code": "Lke-4", "reg": "csobanka-hesz"}, "geometry": {"type": "Point", "coordinates": [18.9635887, 47.6489616]}}, {"type": "Feature", "properties": {"code": "K-Ef", "reg": "csobanka-hesz"}, "geometry": {"type": "Point", "coordinates": [18.9589728, 47.648895]}}, {"type": "Feature", "properties": {"code": "Lke-1", "reg": "csobanka-hesz"}, "geometry": {"type": "Point", "coordinates": [18.9702986, 47.648892]}}, {"type": "Feature", "properties": {"code": "Ev-2", "reg": "csobanka-hesz"}, "geometry": {"type": "Point", "coordinates": [18.9577793, 47.6488418]}}, {"type": "Feature", "properties": {"code": "Lke-1", "reg": "csobanka-hesz"}, "geometry": {"type": "Point", "coordinates": [18.9663844, 47.6485148]}}, {"type": "Feature", "properties": {"code": "Lke-6", "reg": "csobanka-hesz"}, "geometry": {"type": "Point", "coordinates": [18.9546238, 47.6484123]}}, {"type": "Feature", "properties": {"code": "V-2", "reg": "csobanka-hesz"}, "geometry": {"type": "Point", "coordinates": [18.9582048, 47.648293]}}, {"type": "Feature", "properties": {"code": "V-2", "reg": "csobanka-hesz"}, "geometry": {"type": "Point", "coordinates": [18.9669344, 47.6482405]}}, {"type": "Feature", "properties": {"code": "Lke-3", "reg": "csobanka-hesz"}, "geometry": {"type": "Point", "coordinates": [18.9596112, 47.6479438]}}, {"type": "Feature", "properties": {"code": "Lke-6", "reg": "csobanka-hesz"}, "geometry": {"type": "Point", "coordinates": [18.955127, 47.6477766]}}, {"type": "Feature", "properties": {"code": "Lke-1", "reg": "csobanka-hesz"}, "geometry": {"type": "Point", "coordinates": [18.9675151, 47.6475912]}}, {"type": "Feature", "properties": {"code": "Lke-1", "reg": "csobanka-hesz"}, "geometry": {"type": "Point", "coordinates": [18.9654786, 47.6475672]}}, {"type": "Feature", "properties": {"code": "KÖu-1", "reg": "csobanka-hesz"}, "geometry": {"type": "Point", "coordinates": [18.9681861, 47.647539]}}, {"type": "Feature", "properties": {"code": "Má-2", "reg": "csobanka-hesz"}, "geometry": {"type": "Point", "coordinates": [18.9526795, 47.6473887]}}, {"type": "Feature", "properties": {"code": "Lke-1", "reg": "csobanka-hesz"}, "geometry": {"type": "Point", "coordinates": [18.968699, 47.6472487]}}, {"type": "Feature", "properties": {"code": "Lke-6", "reg": "csobanka-hesz"}, "geometry": {"type": "Point", "coordinates": [18.9587725, 47.6472388]}}, {"type": "Feature", "properties": {"code": "Lke-1", "reg": "csobanka-hesz"}, "geometry": {"type": "Point", "coordinates": [18.9710646, 47.6472226]}}, {"type": "Feature", "properties": {"code": "Lke-6", "reg": "csobanka-hesz"}, "geometry": {"type": "Point", "coordinates": [18.9594777, 47.6468411]}}, {"type": "Feature", "properties": {"code": "Lke-6", "reg": "csobanka-hesz"}, "geometry": {"type": "Point", "coordinates": [18.9596263, 47.6465918]}}, {"type": "Feature", "properties": {"code": "Lke-6", "reg": "csobanka-hesz"}, "geometry": {"type": "Point", "coordinates": [18.9583383, 47.6465843]}}, {"type": "Feature", "properties": {"code": "Lke-1", "reg": "csobanka-hesz"}, "geometry": {"type": "Point", "coordinates": [18.9666363, 47.6465339]}}, {"type": "Feature", "properties": {"code": "Má-2", "reg": "csobanka-hesz"}, "geometry": {"type": "Point", "coordinates": [18.9539485, 47.6463577]}}, {"type": "Feature", "properties": {"code": "Lke-6", "reg": "csobanka-hesz"}, "geometry": {"type": "Point", "coordinates": [18.9576076, 47.6463323]}}, {"type": "Feature", "properties": {"code": "Lke-1", "reg": "csobanka-hesz"}, "geometry": {"type": "Point", "coordinates": [18.9639257, 47.6462396]}}, {"type": "Feature", "properties": {"code": "Lke-1", "reg": "csobanka-hesz"}, "geometry": {"type": "Point", "coordinates": [18.9653554, 47.6462358]}}, {"type": "Feature", "properties": {"code": "Lke-3", "reg": "csobanka-hesz"}, "geometry": {"type": "Point", "coordinates": [18.9546562, 47.6461152]}}, {"type": "Feature", "properties": {"code": "Lke-1", "reg": "csobanka-hesz"}, "geometry": {"type": "Point", "coordinates": [18.9625199, 47.6461199]}}, {"type": "Feature", "properties": {"code": "Lke-1", "reg": "csobanka-hesz"}, "geometry": {"type": "Point", "coordinates": [18.9603285, 47.6458877]}}, {"type": "Feature", "properties": {"code": "Lke-1", "reg": "csobanka-hesz"}, "geometry": {"type": "Point", "coordinates": [18.9686601, 47.6458945]}}, {"type": "Feature", "properties": {"code": "Lke-1", "reg": "csobanka-hesz"}, "geometry": {"type": "Point", "coordinates": [18.9669136, 47.6458112]}}, {"type": "Feature", "properties": {"code": "V-2", "reg": "csobanka-hesz"}, "geometry": {"type": "Point", "coordinates": [18.9606965, 47.6454738]}}, {"type": "Feature", "properties": {"code": "Lke-1", "reg": "csobanka-hesz"}, "geometry": {"type": "Point", "coordinates": [18.9658688, 47.6454469]}}, {"type": "Feature", "properties": {"code": "Lke-1", "reg": "csobanka-hesz"}, "geometry": {"type": "Point", "coordinates": [18.9615226, 47.6454217]}}, {"type": "Feature", "properties": {"code": "Lke-1", "reg": "csobanka-hesz"}, "geometry": {"type": "Point", "coordinates": [18.9708355, 47.6453512]}}, {"type": "Feature", "properties": {"code": "Lke-6", "reg": "csobanka-hesz"}, "geometry": {"type": "Point", "coordinates": [18.9586468, 47.6451868]}}, {"type": "Feature", "properties": {"code": "Lke-6", "reg": "csobanka-hesz"}, "geometry": {"type": "Point", "coordinates": [18.9597065, 47.6449348]}}, {"type": "Feature", "properties": {"code": "Lke-1", "reg": "csobanka-hesz"}, "geometry": {"type": "Point", "coordinates": [18.9695818, 47.6448519]}}, {"type": "Feature", "properties": {"code": "Lke-1", "reg": "csobanka-hesz"}, "geometry": {"type": "Point", "coordinates": [18.9649828, 47.6447922]}}, {"type": "Feature", "properties": {"code": "KÖu-2", "reg": "csobanka-hesz"}, "geometry": {"type": "Point", "coordinates": [18.9612506, 47.6444704]}}, {"type": "Feature", "properties": {"code": "Lke-3", "reg": "csobanka-hesz"}, "geometry": {"type": "Point", "coordinates": [18.9575316, 47.6444519]}}, {"type": "Feature", "properties": {"code": "K-Sp", "reg": "csobanka-hesz"}, "geometry": {"type": "Point", "coordinates": [18.9639528, 47.6444371]}}, {"type": "Feature", "properties": {"code": "Lke-1", "reg": "csobanka-hesz"}, "geometry": {"type": "Point", "coordinates": [18.9612341, 47.644216]}}, {"type": "Feature", "properties": {"code": "Vt-2", "reg": "csobanka-hesz"}, "geometry": {"type": "Point", "coordinates": [18.964562, 47.6441995]}}, {"type": "Feature", "properties": {"code": "Ev-1", "reg": "csobanka-hesz"}, "geometry": {"type": "Point", "coordinates": [18.9526193, 47.644177]}}, {"type": "Feature", "properties": {"code": "Lke-1", "reg": "csobanka-hesz"}, "geometry": {"type": "Point", "coordinates": [18.9631089, 47.6441301]}}, {"type": "Feature", "properties": {"code": "Lke-1", "reg": "csobanka-hesz"}, "geometry": {"type": "Point", "coordinates": [18.9650074, 47.6439207]}}, {"type": "Feature", "properties": {"code": "Vt-1", "reg": "csobanka-hesz"}, "geometry": {"type": "Point", "coordinates": [18.9682579, 47.6438881]}}, {"type": "Feature", "properties": {"code": "Lke-1", "reg": "csobanka-hesz"}, "geometry": {"type": "Point", "coordinates": [18.9668756, 47.6437798]}}, {"type": "Feature", "properties": {"code": "Lke-1", "reg": "csobanka-hesz"}, "geometry": {"type": "Point", "coordinates": [18.9702477, 47.6434889]}}, {"type": "Feature", "properties": {"code": "Lke-1", "reg": "csobanka-hesz"}, "geometry": {"type": "Point", "coordinates": [18.9692295, 47.6434449]}}, {"type": "Feature", "properties": {"code": "Lke-1", "reg": "csobanka-hesz"}, "geometry": {"type": "Point", "coordinates": [18.9635684, 47.6433434]}}, {"type": "Feature", "properties": {"code": "Lke-1", "reg": "csobanka-hesz"}, "geometry": {"type": "Point", "coordinates": [18.9605912, 47.6432503]}}, {"type": "Feature", "properties": {"code": "Vt-2", "reg": "csobanka-hesz"}, "geometry": {"type": "Point", "coordinates": [18.9679957, 47.6431582]}}, {"type": "Feature", "properties": {"code": "Vt-1", "reg": "csobanka-hesz"}, "geometry": {"type": "Point", "coordinates": [18.9620481, 47.6430063]}}, {"type": "Feature", "properties": {"code": "Má-2", "reg": "csobanka-hesz"}, "geometry": {"type": "Point", "coordinates": [18.956596, 47.6429553]}}, {"type": "Feature", "properties": {"code": "Vt-1", "reg": "csobanka-hesz"}, "geometry": {"type": "Point", "coordinates": [18.9629653, 47.6429473]}}, {"type": "Feature", "properties": {"code": "Vt-1", "reg": "csobanka-hesz"}, "geometry": {"type": "Point", "coordinates": [18.9673419, 47.6429246]}}, {"type": "Feature", "properties": {"code": "Vt-1", "reg": "csobanka-hesz"}, "geometry": {"type": "Point", "coordinates": [18.9641389, 47.6427856]}}, {"type": "Feature", "properties": {"code": "Vt-1", "reg": "csobanka-hesz"}, "geometry": {"type": "Point", "coordinates": [18.9662261, 47.6427135]}}, {"type": "Feature", "properties": {"code": "Vt-1", "reg": "csobanka-hesz"}, "geometry": {"type": "Point", "coordinates": [18.962767, 47.6424234]}}, {"type": "Feature", "properties": {"code": "Vt-2", "reg": "csobanka-hesz"}, "geometry": {"type": "Point", "coordinates": [18.9682801, 47.6422104]}}, {"type": "Feature", "properties": {"code": "Lke-1", "reg": "csobanka-hesz"}, "geometry": {"type": "Point", "coordinates": [18.9605656, 47.6420974]}}, {"type": "Feature", "properties": {"code": "Vt-2", "reg": "csobanka-hesz"}, "geometry": {"type": "Point", "coordinates": [18.9653301, 47.6419375]}}, {"type": "Feature", "properties": {"code": "Vt-1", "reg": "csobanka-hesz"}, "geometry": {"type": "Point", "coordinates": [18.9631216, 47.6418975]}}, {"type": "Feature", "properties": {"code": "Vt-1", "reg": "csobanka-hesz"}, "geometry": {"type": "Point", "coordinates": [18.9648279, 47.641736]}}, {"type": "Feature", "properties": {"code": "Lke-3", "reg": "csobanka-hesz"}, "geometry": {"type": "Point", "coordinates": [18.9572684, 47.6417479]}}, {"type": "Feature", "properties": {"code": "Kb-Kt", "reg": "csobanka-hesz"}, "geometry": {"type": "Point", "coordinates": [18.967603, 47.641678]}}, {"type": "Feature", "properties": {"code": "Vt-1", "reg": "csobanka-hesz"}, "geometry": {"type": "Point", "coordinates": [18.9661432, 47.6415239]}}, {"type": "Feature", "properties": {"code": "Lke-1", "reg": "csobanka-hesz"}, "geometry": {"type": "Point", "coordinates": [18.9695488, 47.6414389]}}, {"type": "Feature", "properties": {"code": "Vt-1", "reg": "csobanka-hesz"}, "geometry": {"type": "Point", "coordinates": [18.9685373, 47.6414246]}}, {"type": "Feature", "properties": {"code": "Vt-1", "reg": "csobanka-hesz"}, "geometry": {"type": "Point", "coordinates": [18.9673842, 47.6413782]}}, {"type": "Feature", "properties": {"code": "Ev-2", "reg": "csobanka-hesz"}, "geometry": {"type": "Point", "coordinates": [18.9573566, 47.6413041]}}, {"type": "Feature", "properties": {"code": "V-2", "reg": "csobanka-hesz"}, "geometry": {"type": "Point", "coordinates": [18.9653952, 47.6410775]}}, {"type": "Feature", "properties": {"code": "K-T", "reg": "csobanka-hesz"}, "geometry": {"type": "Point", "coordinates": [18.9577549, 47.6409475]}}, {"type": "Feature", "properties": {"code": "Vt-2", "reg": "csobanka-hesz"}, "geometry": {"type": "Point", "coordinates": [18.9644246, 47.6406515]}}, {"type": "Feature", "properties": {"code": "Vt-1", "reg": "csobanka-hesz"}, "geometry": {"type": "Point", "coordinates": [18.9683427, 47.640569]}}, {"type": "Feature", "properties": {"code": "Lke-3", "reg": "csobanka-hesz"}, "geometry": {"type": "Point", "coordinates": [18.9619703, 47.6403962]}}, {"type": "Feature", "properties": {"code": "Lke-3", "reg": "csobanka-hesz"}, "geometry": {"type": "Point", "coordinates": [18.9696141, 47.6403775]}}, {"type": "Feature", "properties": {"code": "Lke-1", "reg": "csobanka-hesz"}, "geometry": {"type": "Point", "coordinates": [18.9670313, 47.6403669]}}, {"type": "Feature", "properties": {"code": "Lke-1", "reg": "csobanka-hesz"}, "geometry": {"type": "Point", "coordinates": [18.9685557, 47.6400978]}}, {"type": "Feature", "properties": {"code": "Lke-1", "reg": "csobanka-hesz"}, "geometry": {"type": "Point", "coordinates": [18.9660782, 47.6400475]}}, {"type": "Feature", "properties": {"code": "V-2", "reg": "csobanka-hesz"}, "geometry": {"type": "Point", "coordinates": [18.966624, 47.6397994]}}, {"type": "Feature", "properties": {"code": "Lke-3", "reg": "csobanka-hesz"}, "geometry": {"type": "Point", "coordinates": [18.9619711, 47.6396734]}}, {"type": "Feature", "properties": {"code": "Lke-3", "reg": "csobanka-hesz"}, "geometry": {"type": "Point", "coordinates": [18.9704275, 47.6396642]}}, {"type": "Feature", "properties": {"code": "Lke-1", "reg": "csobanka-hesz"}, "geometry": {"type": "Point", "coordinates": [18.9640482, 47.6395898]}}, {"type": "Feature", "properties": {"code": "Ev-2", "reg": "csobanka-hesz"}, "geometry": {"type": "Point", "coordinates": [18.9611216, 47.6395722]}}, {"type": "Feature", "properties": {"code": "Lke-2", "reg": "csobanka-hesz"}, "geometry": {"type": "Point", "coordinates": [18.966261, 47.6388087]}}, {"type": "Feature", "properties": {"code": "Ev-2", "reg": "csobanka-hesz"}, "geometry": {"type": "Point", "coordinates": [18.970179, 47.6388017]}}, {"type": "Feature", "properties": {"code": "Má-2", "reg": "csobanka-hesz"}, "geometry": {"type": "Point", "coordinates": [18.9542744, 47.6387885]}}, {"type": "Feature", "properties": {"code": "V-2", "reg": "csobanka-hesz"}, "geometry": {"type": "Point", "coordinates": [18.9669287, 47.6387244]}}, {"type": "Feature", "properties": {"code": "Lke-1", "reg": "csobanka-hesz"}, "geometry": {"type": "Point", "coordinates": [18.9680753, 47.6386336]}}, {"type": "Feature", "properties": {"code": "Lke-3", "reg": "csobanka-hesz"}, "geometry": {"type": "Point", "coordinates": [18.9693566, 47.6386022]}}, {"type": "Feature", "properties": {"code": "Lke-2", "reg": "csobanka-hesz"}, "geometry": {"type": "Point", "coordinates": [18.9655906, 47.638376]}}, {"type": "Feature", "properties": {"code": "Lke-3", "reg": "csobanka-hesz"}, "geometry": {"type": "Point", "coordinates": [18.9717712, 47.6382284]}}, {"type": "Feature", "properties": {"code": "Lke-3", "reg": "csobanka-hesz"}, "geometry": {"type": "Point", "coordinates": [18.9708541, 47.6381616]}}, {"type": "Feature", "properties": {"code": "V-1", "reg": "csobanka-hesz"}, "geometry": {"type": "Point", "coordinates": [18.9587295, 47.6379674]}}, {"type": "Feature", "properties": {"code": "Lke-2", "reg": "csobanka-hesz"}, "geometry": {"type": "Point", "coordinates": [18.9652101, 47.6379274]}}, {"type": "Feature", "properties": {"code": "Lke-3", "reg": "csobanka-hesz"}, "geometry": {"type": "Point", "coordinates": [18.9715189, 47.6377538]}}, {"type": "Feature", "properties": {"code": "Lke-3", "reg": "csobanka-hesz"}, "geometry": {"type": "Point", "coordinates": [18.9702208, 47.6376763]}}, {"type": "Feature", "properties": {"code": "Lke-3", "reg": "csobanka-hesz"}, "geometry": {"type": "Point", "coordinates": [18.9720898, 47.6373689]}}, {"type": "Feature", "properties": {"code": "Lke-3", "reg": "csobanka-hesz"}, "geometry": {"type": "Point", "coordinates": [18.972993, 47.6372225]}}, {"type": "Feature", "properties": {"code": "Má-2", "reg": "csobanka-hesz"}, "geometry": {"type": "Point", "coordinates": [18.9555036, 47.6372108]}}, {"type": "Feature", "properties": {"code": "Má-2", "reg": "csobanka-hesz"}, "geometry": {"type": "Point", "coordinates": [18.9588894, 47.6367459]}}, {"type": "Feature", "properties": {"code": "Má-3", "reg": "csobanka-hesz"}, "geometry": {"type": "Point", "coordinates": [18.9573199, 47.6352765]}}, {"type": "Feature", "properties": {"code": "Kb-Hv", "reg": "csobanka-hesz"}, "geometry": {"type": "Point", "coordinates": [18.9571047, 47.6248227]}}, {"type": "Feature", "properties": {"code": "Mko", "reg": "csobanka-hesz"}, "geometry": {"type": "Point", "coordinates": [18.9478177, 47.6205327]}}, {"type": "Feature", "properties": {"code": "Má-1", "reg": "csobanka-hesz"}, "geometry": {"type": "Point", "coordinates": [18.9452643, 47.668261]}}, {"type": "Feature", "properties": {"code": "V-2", "reg": "csobanka-hesz"}, "geometry": {"type": "Point", "coordinates": [18.9465205, 47.6633757]}}, {"type": "Feature", "properties": {"code": "Má-1", "reg": "csobanka-hesz"}, "geometry": {"type": "Point", "coordinates": [18.9492683, 47.6615698]}}, {"type": "Feature", "properties": {"code": "Ev-1", "reg": "csobanka-hesz"}, "geometry": {"type": "Point", "coordinates": [18.9277913, 47.660169]}}, {"type": "Feature", "properties": {"code": "Má-1", "reg": "csobanka-hesz"}, "geometry": {"type": "Point", "coordinates": [18.9551888, 47.6577879]}}, {"type": "Feature", "properties": {"code": "Má-2", "reg": "csobanka-hesz"}, "geometry": {"type": "Point", "coordinates": [18.9608072, 47.6569219]}}, {"type": "Feature", "properties": {"code": "Mko", "reg": "csobanka-hesz"}, "geometry": {"type": "Point", "coordinates": [18.9515235, 47.6553615]}}, {"type": "Feature", "properties": {"code": "Má-1", "reg": "csobanka-hesz"}, "geometry": {"type": "Point", "coordinates": [18.9542476, 47.655094]}}, {"type": "Feature", "properties": {"code": "Ev-1", "reg": "csobanka-hesz"}, "geometry": {"type": "Point", "coordinates": [18.9379476, 47.6535423]}}, {"type": "Feature", "properties": {"code": "Ev-1", "reg": "csobanka-hesz"}, "geometry": {"type": "Point", "coordinates": [18.9228121, 47.6519072]}}, {"type": "Feature", "properties": {"code": "Kb-Sz", "reg": "csobanka-hesz"}, "geometry": {"type": "Point", "coordinates": [18.9111423, 47.6466034]}}, {"type": "Feature", "properties": {"code": "Mko", "reg": "csobanka-hesz"}, "geometry": {"type": "Point", "coordinates": [18.9214333, 47.646483]}}, {"type": "Feature", "properties": {"code": "Mk", "reg": "csobanka-hesz"}, "geometry": {"type": "Point", "coordinates": [18.9214368, 47.6431819]}}, {"type": "Feature", "properties": {"code": "Mko", "reg": "csobanka-hesz"}, "geometry": {"type": "Point", "coordinates": [18.9403985, 47.6409522]}}, {"type": "Feature", "properties": {"code": "Mko", "reg": "csobanka-hesz"}, "geometry": {"type": "Point", "coordinates": [18.9214396, 47.6406179]}}, {"type": "Feature", "properties": {"code": "Mko", "reg": "csobanka-hesz"}, "geometry": {"type": "Point", "coordinates": [18.9619759, 47.6383512]}}]}