{"type": "FeatureCollection", "features": [{"type": "Feature", "properties": {"code": "Zkp-Kk-5", "reg": "xiii-kesz", "conf": 0.997}, "geometry": {"type": "Point", "coordinates": [19.0758031, 47.5570391]}}, {"type": "Feature", "properties": {"code": "Zkp-Kk-1", "reg": "xiii-kesz", "conf": 0.996}, "geometry": {"type": "Point", "coordinates": [19.0781, 47.5558692]}}, {"type": "Feature", "properties": {"code": "Vt-M/SZ-1", "reg": "xiii-kesz", "conf": 0.995}, "geometry": {"type": "Point", "coordinates": [19.0782166, 47.5588336]}}, {"type": "Feature", "properties": {"code": "Vi-1/Z-40", "reg": "xiii-kesz", "conf": 0.993}, "geometry": {"type": "Point", "coordinates": [19.0817139, 47.5528548]}}, {"type": "Feature", "properties": {"code": "Zkk-2/K-Rek", "reg": "xiii-kesz", "conf": 0.989}, "geometry": {"type": "Point", "coordinates": [19.0700293, 47.555376]}}, {"type": "Feature", "properties": {"code": "K-Rek/SZ-3", "reg": "xiii-kesz", "conf": 0.988}, "geometry": {"type": "Point", "coordinates": [19.0697704, 47.5584477]}}, {"type": "Feature", "properties": {"code": "Ln-3/ZSZ-2m", "reg": "xiii-kesz", "conf": 0.987}, "geometry": {"type": "Point", "coordinates": [19.0719881, 47.5519269]}}, {"type": "Feature", "properties": {"code": "Zkp-Kk-5", "reg": "xiii-kesz", "conf": 0.987}, "geometry": {"type": "Point", "coordinates": [19.0735292, 47.5542299]}}, {"type": "Feature", "properties": {"code": "K-Rek/SZ-2", "reg": "xiii-kesz", "conf": 0.985}, "geometry": {"type": "Point", "coordinates": [19.0725926, 47.559254]}}, {"type": "Feature", "properties": {"code": "Vt-M/ZSZ-5", "reg": "xiii-kesz", "conf": 0.982}, "geometry": {"type": "Point", "coordinates": [19.0776924, 47.5572704]}}, {"type": "Feature", "properties": {"code": "Vt-M/ZSz-8", "reg": "xiii-kesz", "conf": 0.979}, "geometry": {"type": "Point", "coordinates": [19.0762409, 47.5579741]}}, {"type": "Feature", "properties": {"code": "Vt-M/ZSZ-6", "reg": "xiii-kesz", "conf": 0.973}, "geometry": {"type": "Point", "coordinates": [19.0769352, 47.5561704]}}, {"type": "Feature", "properties": {"code": "Vi-1/Z-18", "reg": "xiii-kesz", "conf": 0.972}, "geometry": {"type": "Point", "coordinates": [19.0741361, 47.553497]}}, {"type": "Feature", "properties": {"code": "Vi-1/Z-29", "reg": "xiii-kesz", "conf": 0.962}, "geometry": {"type": "Point", "coordinates": [19.0735558, 47.552269]}}, {"type": "Feature", "properties": {"code": "Ln-3/ZSz-2", "reg": "xiii-kesz", "conf": 0.932}, "geometry": {"type": "Point", "coordinates": [19.0726441, 47.5531653]}}, {"type": "Feature", "properties": {"code": "Ek", "reg": "xiii-kesz", "conf": 0.929}, "geometry": {"type": "Point", "coordinates": [19.0707526, 47.5598842]}}, {"type": "Feature", "properties": {"code": "Vt-M/ZSz-9", "reg": "xiii-kesz", "conf": 0.924}, "geometry": {"type": "Point", "coordinates": [19.0752707, 47.5563934]}}, {"type": "Feature", "properties": {"code": "Vi-1/Z-30", "reg": "xiii-kesz", "conf": 0.92}, "geometry": {"type": "Point", "coordinates": [19.0794341, 47.5538691]}}, {"type": "Feature", "properties": {"code": "K-Rek/SZ-2", "reg": "xiii-kesz", "conf": 0.907}, "geometry": {"type": "Point", "coordinates": [19.0714842, 47.5579123]}}, {"type": "Feature", "properties": {"code": "Vi-1/Z-37", "reg": "xiii-kesz", "conf": 0.97}, "geometry": {"type": "Point", "coordinates": [19.0772191, 47.554268]}}, {"type": "Feature", "properties": {"code": "Ln-2/Z-16", "reg": "xiii-kesz", "conf": 0.868}, "geometry": {"type": "Point", "coordinates": [19.0811596, 47.5522389]}}, {"type": "Feature", "properties": {"code": "Zkp-Kk-4", "reg": "xiii-kesz", "conf": 0.999}, "geometry": {"type": "Point", "coordinates": [19.0652684, 47.545591]}}, {"type": "Feature", "properties": {"code": "Ln-T/T-2", "reg": "xiii-kesz", "conf": 0.996}, "geometry": {"type": "Point", "coordinates": [19.078487, 47.5455327]}}, {"type": "Feature", "properties": {"code": "Zkp-Kk-5", "reg": "xiii-kesz", "conf": 0.995}, "geometry": {"type": "Point", "coordinates": [19.070555, 47.5514345]}}, {"type": "Feature", "properties": {"code": "Vt-H/Z-1", "reg": "xiii-kesz", "conf": 0.995}, "geometry": {"type": "Point", "coordinates": [19.0754817, 47.5468991]}}, {"type": "Feature", "properties": {"code": "Vi-1/Z-9", "reg": "xiii-kesz", "conf": 0.994}, "geometry": {"type": "Point", "coordinates": [19.073467, 47.544914]}}, {"type": "Feature", "properties": {"code": "Ln-T/T-2", "reg": "xiii-kesz", "conf": 0.994}, "geometry": {"type": "Point", "coordinates": [19.0755676, 47.5440091]}}, {"type": "Feature", "properties": {"code": "Ln-T/SZ-4", "reg": "xiii-kesz", "conf": 0.993}, "geometry": {"type": "Point", "coordinates": [19.0750257, 47.5498774]}}, {"type": "Feature", "properties": {"code": "Ln-3/SZ-1", "reg": "xiii-kesz", "conf": 0.991}, "geometry": {"type": "Point", "coordinates": [19.0644661, 47.5459255]}}, {"type": "Feature", "properties": {"code": "Vt-H/SZ-6", "reg": "xiii-kesz", "conf": 0.991}, "geometry": {"type": "Point", "coordinates": [19.0765902, 47.5466114]}}, {"type": "Feature", "properties": {"code": "Ek", "reg": "xiii-kesz", "conf": 0.99}, "geometry": {"type": "Point", "coordinates": [19.0760137, 47.5514393]}}, {"type": "Feature", "properties": {"code": "Ek", "reg": "xiii-kesz", "conf": 0.989}, "geometry": {"type": "Point", "coordinates": [19.0752686, 47.5516048]}}, {"type": "Feature", "properties": {"code": "Ln-3/ZSz-3", "reg": "xiii-kesz", "conf": 0.989}, "geometry": {"type": "Point", "coordinates": [19.0682986, 47.546936]}}, {"type": "Feature", "properties": {"code": "Ln-T/T-2", "reg": "xiii-kesz", "conf": 0.989}, "geometry": {"type": "Point", "coordinates": [19.0770225, 47.5435713]}}, {"type": "Feature", "properties": {"code": "Ln-3/ZSz-3", "reg": "xiii-kesz", "conf": 0.988}, "geometry": {"type": "Point", "coordinates": [19.0665627, 47.5474769]}}, {"type": "Feature", "properties": {"code": "Ln-3/ZSz-3", "reg": "xiii-kesz", "conf": 0.987}, "geometry": {"type": "Point", "coordinates": [19.0647161, 47.5467182]}}, {"type": "Feature", "properties": {"code": "Ln-T/T-1", "reg": "xiii-kesz", "conf": 0.985}, "geometry": {"type": "Point", "coordinates": [19.0789066, 47.5490928]}}, {"type": "Feature", "properties": {"code": "Vi-1/Z-10", "reg": "xiii-kesz", "conf": 0.985}, "geometry": {"type": "Point", "coordinates": [19.0733755, 47.5458671]}}, {"type": "Feature", "properties": {"code": "Ln-3/ZSZ-2m", "reg": "xiii-kesz", "conf": 0.983}, "geometry": {"type": "Point", "coordinates": [19.0719875, 47.5519463]}}, {"type": "Feature", "properties": {"code": "Vt-H/Z-2", "reg": "xiii-kesz", "conf": 0.983}, "geometry": {"type": "Point", "coordinates": [19.0715118, 47.5478553]}}, {"type": "Feature", "properties": {"code": "Vi-2/ZSZ-3", "reg": "xiii-kesz", "conf": 0.982}, "geometry": {"type": "Point", "coordinates": [19.0659977, 47.5432682]}}, {"type": "Feature", "properties": {"code": "Ln-3/ZSz-3", "reg": "xiii-kesz", "conf": 0.98}, "geometry": {"type": "Point", "coordinates": [19.0652722, 47.5475211]}}, {"type": "Feature", "properties": {"code": "Vi-1/Z-18", "reg": "xiii-kesz", "conf": 0.978}, "geometry": {"type": "Point", "coordinates": [19.0741413, 47.5535125]}}, {"type": "Feature", "properties": {"code": "Ln-T/T-2", "reg": "xiii-kesz", "conf": 0.975}, "geometry": {"type": "Point", "coordinates": [19.0786307, 47.5476903]}}, {"type": "Feature", "properties": {"code": "Ln-3/ZSz-3", "reg": "xiii-kesz", "conf": 0.973}, "geometry": {"type": "Point", "coordinates": [19.0671293, 47.5440433]}}, {"type": "Feature", "properties": {"code": "Vi-1/Z-9", "reg": "xiii-kesz", "conf": 0.973}, "geometry": {"type": "Point", "coordinates": [19.0722739, 47.5447728]}}, {"type": "Feature", "properties": {"code": "Ln-3/ZSz-3", "reg": "xiii-kesz", "conf": 0.972}, "geometry": {"type": "Point", "coordinates": [19.0676283, 47.5493515]}}, {"type": "Feature", "properties": {"code": "Zkp-Kk-5", "reg": "xiii-kesz", "conf": 0.966}, "geometry": {"type": "Point", "coordinates": [19.073528, 47.5542439]}}, {"type": "Feature", "properties": {"code": "Ln-T/SZ-1-AI", "reg": "xiii-kesz", "conf": 0.965}, "geometry": {"type": "Point", "coordinates": [19.0783947, 47.5502783]}}, {"type": "Feature", "properties": {"code": "Vi-1/Z-28", "reg": "xiii-kesz", "conf": 0.964}, "geometry": {"type": "Point", "coordinates": [19.070849, 47.5465377]}}, {"type": "Feature", "properties": {"code": "Ln-T/SZ-1-AI", "reg": "xiii-kesz", "conf": 0.963}, "geometry": {"type": "Point", "coordinates": [19.07882, 47.5513741]}}, {"type": "Feature", "properties": {"code": "Ln-3/ZSz-3", "reg": "xiii-kesz", "conf": 0.957}, "geometry": {"type": "Point", "coordinates": [19.0678954, 47.5460278]}}, {"type": "Feature", "properties": {"code": "Ln-T/SZ-1-AI", "reg": "xiii-kesz", "conf": 0.955}, "geometry": {"type": "Point", "coordinates": [19.0744942, 47.5441458]}}, {"type": "Feature", "properties": {"code": "Vt-H/SZ-1", "reg": "xiii-kesz", "conf": 0.953}, "geometry": {"type": "Point", "coordinates": [19.0725757, 47.5498111]}}, {"type": "Feature", "properties": {"code": "Vt-H/Z-3", "reg": "xiii-kesz", "conf": 0.953}, "geometry": {"type": "Point", "coordinates": [19.0742753, 47.5469569]}}, {"type": "Feature", "properties": {"code": "Ln-T/T-2", "reg": "xiii-kesz", "conf": 0.938}, "geometry": {"type": "Point", "coordinates": [19.0763507, 47.5460944]}}, {"type": "Feature", "properties": {"code": "Ln-3/ZSz-3", "reg": "xiii-kesz", "conf": 0.937}, "geometry": {"type": "Point", "coordinates": [19.0659752, 47.5486682]}}, {"type": "Feature", "properties": {"code": "Vi-1/Z-29", "reg": "xiii-kesz", "conf": 0.935}, "geometry": {"type": "Point", "coordinates": [19.0735494, 47.5522852]}}, {"type": "Feature", "properties": {"code": "Ln-T/SZ-1-AI", "reg": "xiii-kesz", "conf": 0.929}, "geometry": {"type": "Point", "coordinates": [19.0780655, 47.5493255]}}, {"type": "Feature", "properties": {"code": "Vi-1/Z-30", "reg": "xiii-kesz", "conf": 0.915}, "geometry": {"type": "Point", "coordinates": [19.0794235, 47.553877]}}, {"type": "Feature", "properties": {"code": "Ln-3/ZSz-3", "reg": "xiii-kesz", "conf": 0.915}, "geometry": {"type": "Point", "coordinates": [19.0661206, 47.5463102]}}, {"type": "Feature", "properties": {"code": "Ln-T/SZ-1-AI", "reg": "xiii-kesz", "conf": 0.904}, "geometry": {"type": "Point", "coordinates": [19.0793458, 47.5432109]}}, {"type": "Feature", "properties": {"code": "Ln-3/ZSz-2", "reg": "xiii-kesz", "conf": 0.897}, "geometry": {"type": "Point", "coordinates": [19.0726401, 47.5531815]}}, {"type": "Feature", "properties": {"code": "Ln-T/SZ-1-AI", "reg": "xiii-kesz", "conf": 0.894}, "geometry": {"type": "Point", "coordinates": [19.0787861, 47.5482108]}}, {"type": "Feature", "properties": {"code": "Vi-1/ZSZ-2", "reg": "xiii-kesz", "conf": 0.871}, "geometry": {"type": "Point", "coordinates": [19.0694492, 47.5436325]}}, {"type": "Feature", "properties": {"code": "Ln-3/ZSz-3", "reg": "xiii-kesz", "conf": 0.83}, "geometry": {"type": "Point", "coordinates": [19.0668767, 47.5453797]}}, {"type": "Feature", "properties": {"code": "Ln-T/T-1", "reg": "xiii-kesz", "conf": 0.821}, "geometry": {"type": "Point", "coordinates": [19.0770484, 47.5485549]}}, {"type": "Feature", "properties": {"code": "Vi-1/Z-37", "reg": "xiii-kesz", "conf": 0.841}, "geometry": {"type": "Point", "coordinates": [19.077218, 47.5542809]}}, {"type": "Feature", "properties": {"code": "Ln-T/T-2", "reg": "xiii-kesz", "conf": 0.97}, "geometry": {"type": "Point", "coordinates": [19.0780165, 47.5506297]}}, {"type": "Feature", "properties": {"code": "Ln-3/ZSz-3", "reg": "xiii-kesz", "conf": 0.902}, "geometry": {"type": "Point", "coordinates": [19.0702825, 47.5485035]}}, {"type": "Feature", "properties": {"code": "Vt-H/Z-1", "reg": "xiii-kesz", "conf": 0.879}, "geometry": {"type": "Point", "coordinates": [19.073869, 47.5477855]}}, {"type": "Feature", "properties": {"code": "Vt-H/SZ-Te", "reg": "xiii-kesz", "conf": 0.939}, "geometry": {"type": "Point", "coordinates": [19.0768027, 47.5470414]}}, {"type": "Feature", "properties": {"code": "Ln-T/SZ-1-AI", "reg": "xiii-kesz", "conf": 0.932}, "geometry": {"type": "Point", "coordinates": [19.0755675, 47.5454461]}}, {"type": "Feature", "properties": {"code": "Vi-1/ZSZ-2", "reg": "xiii-kesz", "conf": 0.809}, "geometry": {"type": "Point", "coordinates": [19.0702451, 47.5451869]}}, {"type": "Feature", "properties": {"code": "Vi-1/Z-31a", "reg": "xiii-kesz", "conf": 0.885}, "geometry": {"type": "Point", "coordinates": [19.0719091, 47.5435614]}}, {"type": "Feature", "properties": {"code": "Vi-1/Z-31", "reg": "xiii-kesz", "conf": 0.921}, "geometry": {"type": "Point", "coordinates": [19.0730566, 47.5435597]}}, {"type": "Feature", "properties": {"code": "Zkp-Kp-1", "reg": "xiii-kesz", "conf": 0.999}, "geometry": {"type": "Point", "coordinates": [19.0863638, 47.544689]}}, {"type": "Feature", "properties": {"code": "K-REK/SZ-1", "reg": "xiii-kesz", "conf": 0.996}, "geometry": {"type": "Point", "coordinates": [19.0813185, 47.5510262]}}, {"type": "Feature", "properties": {"code": "Zkp-Kk-1", "reg": "xiii-kesz", "conf": 0.996}, "geometry": {"type": "Point", "coordinates": [19.0825995, 47.5466203]}}, {"type": "Feature", "properties": {"code": "Zkp-Kk-1", "reg": "xiii-kesz", "conf": 0.996}, "geometry": {"type": "Point", "coordinates": [19.0834743, 47.5435013]}}, {"type": "Feature", "properties": {"code": "Ln-T/T-2", "reg": "xiii-kesz", "conf": 0.995}, "geometry": {"type": "Point", "coordinates": [19.0804165, 47.5487326]}}, {"type": "Feature", "properties": {"code": "Ln-T/T-1", "reg": "xiii-kesz", "conf": 0.988}, "geometry": {"type": "Point", "coordinates": [19.0789092, 47.5490966]}}, {"type": "Feature", "properties": {"code": "Vi-1/Z-40", "reg": "xiii-kesz", "conf": 0.987}, "geometry": {"type": "Point", "coordinates": [19.0817189, 47.5528675]}}, {"type": "Feature", "properties": {"code": "Zkp-Kk-1", "reg": "xiii-kesz", "conf": 0.987}, "geometry": {"type": "Point", "coordinates": [19.080058, 47.5478933]}}, {"type": "Feature", "properties": {"code": "Ln-T/Kp-1", "reg": "xiii-kesz", "conf": 0.979}, "geometry": {"type": "Point", "coordinates": [19.0801006, 47.5504914]}}, {"type": "Feature", "properties": {"code": "Vi-2/SZ-9", "reg": "xiii-kesz", "conf": 0.978}, "geometry": {"type": "Point", "coordinates": [19.0839401, 47.5462002]}}, {"type": "Feature", "properties": {"code": "Lke-1/SZ-1", "reg": "xiii-kesz", "conf": 0.972}, "geometry": {"type": "Point", "coordinates": [19.0813031, 47.5452083]}}, {"type": "Feature", "properties": {"code": "Lke-1/SZ-1", "reg": "xiii-kesz", "conf": 0.971}, "geometry": {"type": "Point", "coordinates": [19.0882914, 47.5473526]}}, {"type": "Feature", "properties": {"code": "Lk-2/SZ-1", "reg": "xiii-kesz", "conf": 0.969}, "geometry": {"type": "Point", "coordinates": [19.0878809, 47.5455388]}}, {"type": "Feature", "properties": {"code": "Lke-1/SZ-1", "reg": "xiii-kesz", "conf": 0.968}, "geometry": {"type": "Point", "coordinates": [19.0872522, 47.5478128]}}, {"type": "Feature", "properties": {"code": "Lke-1/SZ-1", "reg": "xiii-kesz", "conf": 0.967}, "geometry": {"type": "Point", "coordinates": [19.0824086, 47.5490466]}}, {"type": "Feature", "properties": {"code": "Lk-2/SZ-2", "reg": "xiii-kesz", "conf": 0.967}, "geometry": {"type": "Point", "coordinates": [19.0823606, 47.5457454]}}, {"type": "Feature", "properties": {"code": "Lke-1/SZ-1", "reg": "xiii-kesz", "conf": 0.957}, "geometry": {"type": "Point", "coordinates": [19.0824354, 47.5496328]}}, {"type": "Feature", "properties": {"code": "Lk-2/SZ-2", "reg": "xiii-kesz", "conf": 0.955}, "geometry": {"type": "Point", "coordinates": [19.0810335, 47.5461025]}}, {"type": "Feature", "properties": {"code": "Lke-1/SZ-1", "reg": "xiii-kesz", "conf": 0.949}, "geometry": {"type": "Point", "coordinates": [19.0837233, 47.544162]}}, {"type": "Feature", "properties": {"code": "Lke-1/SZ-1", "reg": "xiii-kesz", "conf": 0.945}, "geometry": {"type": "Point", "coordinates": [19.0845266, 47.5513266]}}, {"type": "Feature", "properties": {"code": "Lke-1/SZ-1", "reg": "xiii-kesz", "conf": 0.945}, "geometry": {"type": "Point", "coordinates": [19.0853839, 47.5508698]}}, {"type": "Feature", "properties": {"code": "Vi-1/Z-30", "reg": "xiii-kesz", "conf": 0.944}, "geometry": {"type": "Point", "coordinates": [19.0794233, 47.5538817]}}, {"type": "Feature", "properties": {"code": "Lk-2/SZ-2", "reg": "xiii-kesz", "conf": 0.944}, "geometry": {"type": "Point", "coordinates": [19.081631, 47.5473404]}}, {"type": "Feature", "properties": {"code": "Lk-2/SZ-2", "reg": "xiii-kesz", "conf": 0.941}, "geometry": {"type": "Point", "coordinates": [19.0829614, 47.5471676]}}, {"type": "Feature", "properties": {"code": "Lke-1/SZ-1", "reg": "xiii-kesz", "conf": 0.935}, "geometry": {"type": "Point", "coordinates": [19.0883154, 47.5490003]}}, {"type": "Feature", "properties": {"code": "Vi-2/SZ-4", "reg": "xiii-kesz", "conf": 0.934}, "geometry": {"type": "Point", "coordinates": [19.0954024, 47.5431397]}}, {"type": "Feature", "properties": {"code": "Lke-1/Z-1", "reg": "xiii-kesz", "conf": 0.931}, "geometry": {"type": "Point", "coordinates": [19.0840772, 47.5434567]}}, {"type": "Feature", "properties": {"code": "Ln-2/C-1", "reg": "xiii-kesz", "conf": 0.931}, "geometry": {"type": "Point", "coordinates": [19.0887184, 47.5431916]}}, {"type": "Feature", "properties": {"code": "Lke-1/IK-1", "reg": "xiii-kesz", "conf": 0.914}, "geometry": {"type": "Point", "coordinates": [19.0818103, 47.5442385]}}, {"type": "Feature", "properties": {"code": "Ln-T/SZ-1-AI", "reg": "xiii-kesz", "conf": 0.912}, "geometry": {"type": "Point", "coordinates": [19.0793619, 47.5432066]}}, {"type": "Feature", "properties": {"code": "Lke-1/SZ-1", "reg": "xiii-kesz", "conf": 0.911}, "geometry": {"type": "Point", "coordinates": [19.0840136, 47.5486792]}}, {"type": "Feature", "properties": {"code": "Lke-1/SZ-1", "reg": "xiii-kesz", "conf": 0.91}, "geometry": {"type": "Point", "coordinates": [19.0823255, 47.5444275]}}, {"type": "Feature", "properties": {"code": "Lke-1/SZ-1", "reg": "xiii-kesz", "conf": 0.907}, "geometry": {"type": "Point", "coordinates": [19.0803802, 47.5454097]}}, {"type": "Feature", "properties": {"code": "Lke-1/SZ-1", "reg": "xiii-kesz", "conf": 0.898}, "geometry": {"type": "Point", "coordinates": [19.0844071, 47.5440384]}}, {"type": "Feature", "properties": {"code": "Lke-1/IK-1", "reg": "xiii-kesz", "conf": 0.867}, "geometry": {"type": "Point", "coordinates": [19.0846699, 47.5504644]}}, {"type": "Feature", "properties": {"code": "Lke-1/Z-1", "reg": "xiii-kesz", "conf": 0.858}, "geometry": {"type": "Point", "coordinates": [19.0831713, 47.5496295]}}, {"type": "Feature", "properties": {"code": "Lke-1/Z-1", "reg": "xiii-kesz", "conf": 0.829}, "geometry": {"type": "Point", "coordinates": [19.0844487, 47.546198]}}, {"type": "Feature", "properties": {"code": "Lke-1/SZ-1", "reg": "xiii-kesz", "conf": 0.762}, "geometry": {"type": "Point", "coordinates": [19.083043, 47.5443005]}}, {"type": "Feature", "properties": {"code": "Ln-2/Z-16", "reg": "xiii-kesz", "conf": 0.855}, "geometry": {"type": "Point", "coordinates": [19.0811566, 47.5522525]}}, {"type": "Feature", "properties": {"code": "Ln-2/SZ-2", "reg": "xiii-kesz", "conf": 0.961}, "geometry": {"type": "Point", "coordinates": [19.0801767, 47.5512975]}}, {"type": "Feature", "properties": {"code": "Vi-2/SZ-4", "reg": "xiii-kesz", "conf": 0.927}, "geometry": {"type": "Point", "coordinates": [19.0959545, 47.5441153]}}, {"type": "Feature", "properties": {"code": "Ek", "reg": "xiii-kesz", "conf": 0.227}, "geometry": {"type": "Point", "coordinates": [19.0929209, 47.5428769]}}, {"type": "Feature", "properties": {"code": "Zkp-Kp-1", "reg": "xiii-kesz", "conf": 0.999}, "geometry": {"type": "Point", "coordinates": [19.0691098, 47.5425899]}}, {"type": "Feature", "properties": {"code": "Ek", "reg": "xiii-kesz", "conf": 0.997}, "geometry": {"type": "Point", "coordinates": [19.0661845, 47.5393734]}}, {"type": "Feature", "properties": {"code": "Ek", "reg": "xiii-kesz", "conf": 0.996}, "geometry": {"type": "Point", "coordinates": [19.0648669, 47.5394076]}}, {"type": "Feature", "properties": {"code": "Ln-2/Z-20", "reg": "xiii-kesz", "conf": 0.995}, "geometry": {"type": "Point", "coordinates": [19.0635059, 47.5397039]}}, {"type": "Feature", "properties": {"code": "Vt-M/Z-2", "reg": "xiii-kesz", "conf": 0.995}, "geometry": {"type": "Point", "coordinates": [19.0691217, 47.5357896]}}, {"type": "Feature", "properties": {"code": "Vi-1/Z-39m", "reg": "xiii-kesz", "conf": 0.994}, "geometry": {"type": "Point", "coordinates": [19.0676417, 47.5402487]}}, {"type": "Feature", "properties": {"code": "Ln-2/ZSz-6", "reg": "xiii-kesz", "conf": 0.994}, "geometry": {"type": "Point", "coordinates": [19.063167, 47.5383174]}}, {"type": "Feature", "properties": {"code": "Ln-T/T-1", "reg": "xiii-kesz", "conf": 0.993}, "geometry": {"type": "Point", "coordinates": [19.0615624, 47.5368769]}}, {"type": "Feature", "properties": {"code": "Ln-T/T-1", "reg": "xiii-kesz", "conf": 0.992}, "geometry": {"type": "Point", "coordinates": [19.0661206, 47.5354532]}}, {"type": "Feature", "properties": {"code": "Zkk-3/Ln", "reg": "xiii-kesz", "conf": 0.991}, "geometry": {"type": "Point", "coordinates": [19.0645187, 47.5395097]}}, {"type": "Feature", "properties": {"code": "Ln-2/Z-5", "reg": "xiii-kesz", "conf": 0.991}, "geometry": {"type": "Point", "coordinates": [19.0647647, 47.5377188]}}, {"type": "Feature", "properties": {"code": "Zkp-Kk-3", "reg": "xiii-kesz", "conf": 0.991}, "geometry": {"type": "Point", "coordinates": [19.0625148, 47.5358474]}}, {"type": "Feature", "properties": {"code": "Ln-3/SZ-1", "reg": "xiii-kesz", "conf": 0.989}, "geometry": {"type": "Point", "coordinates": [19.0644489, 47.5459417]}}, {"type": "Feature", "properties": {"code": "K-REK/SZ-1", "reg": "xiii-kesz", "conf": 0.989}, "geometry": {"type": "Point", "coordinates": [19.06043, 47.5399558]}}, {"type": "Feature", "properties": {"code": "Vi-2/ZSZ-3", "reg": "xiii-kesz", "conf": 0.988}, "geometry": {"type": "Point", "coordinates": [19.0659809, 47.5432835]}}, {"type": "Feature", "properties": {"code": "Zkp-Kk-4", "reg": "xiii-kesz", "conf": 0.986}, "geometry": {"type": "Point", "coordinates": [19.0652511, 47.5456035]}}, {"type": "Feature", "properties": {"code": "Vi-1/Z-39", "reg": "xiii-kesz", "conf": 0.985}, "geometry": {"type": "Point", "coordinates": [19.0687587, 47.5409836]}}, {"type": "Feature", "properties": {"code": "Vi-1/Z-3", "reg": "xiii-kesz", "conf": 0.984}, "geometry": {"type": "Point", "coordinates": [19.0676119, 47.5375872]}}, {"type": "Feature", "properties": {"code": "Vi-1/SZ-2", "reg": "xiii-kesz", "conf": 0.982}, "geometry": {"type": "Point", "coordinates": [19.0617141, 47.5350906]}}, {"type": "Feature", "properties": {"code": "Vi-1/ZSZ-3", "reg": "xiii-kesz", "conf": 0.981}, "geometry": {"type": "Point", "coordinates": [19.0665325, 47.5381533]}}, {"type": "Feature", "properties": {"code": "Zkk-1/K-Rek", "reg": "xiii-kesz", "conf": 0.978}, "geometry": {"type": "Point", "coordinates": [19.058162, 47.5353577]}}, {"type": "Feature", "properties": {"code": "Ln-T/SZ-1-AI", "reg": "xiii-kesz", "conf": 0.971}, "geometry": {"type": "Point", "coordinates": [19.0666667, 47.5359586]}}, {"type": "Feature", "properties": {"code": "K-REK/SZ-1-ST", "reg": "xiii-kesz", "conf": 0.957}, "geometry": {"type": "Point", "coordinates": [19.0604973, 47.539958]}}, {"type": "Feature", "properties": {"code": "Ln-3/ZSz-3", "reg": "xiii-kesz", "conf": 0.956}, "geometry": {"type": "Point", "coordinates": [19.0671131, 47.5440584]}}, {"type": "Feature", "properties": {"code": "Ln-2/ZSz-1", "reg": "xiii-kesz", "conf": 0.945}, "geometry": {"type": "Point", "coordinates": [19.0654525, 47.53939]}}, {"type": "Feature", "properties": {"code": "Vi-1/SZ-2-AI", "reg": "xiii-kesz", "conf": 0.941}, "geometry": {"type": "Point", "coordinates": [19.0663228, 47.5376043]}}, {"type": "Feature", "properties": {"code": "Vi-1/Z-19", "reg": "xiii-kesz", "conf": 0.933}, "geometry": {"type": "Point", "coordinates": [19.0703974, 47.5387499]}}, {"type": "Feature", "properties": {"code": "Ln-T/SZ-1-AI", "reg": "xiii-kesz", "conf": 0.912}, "geometry": {"type": "Point", "coordinates": [19.0611308, 47.5344708]}}, {"type": "Feature", "properties": {"code": "Vt-M/ZSZ-7", "reg": "xiii-kesz", "conf": 0.898}, "geometry": {"type": "Point", "coordinates": [19.0630468, 47.5339681]}}, {"type": "Feature", "properties": {"code": "Vi-1/ZSZ-2", "reg": "xiii-kesz", "conf": 0.886}, "geometry": {"type": "Point", "coordinates": [19.0694348, 47.543648]}}, {"type": "Feature", "properties": {"code": "Vi-1/Z-19", "reg": "xiii-kesz", "conf": 0.851}, "geometry": {"type": "Point", "coordinates": [19.0696339, 47.5371199]}}, {"type": "Feature", "properties": {"code": "K-SZ/SZ-1", "reg": "xiii-kesz", "conf": 0.864}, "geometry": {"type": "Point", "coordinates": [19.0648662, 47.5409867]}}, {"type": "Feature", "properties": {"code": "Ek", "reg": "xiii-kesz", "conf": 0.304}, "geometry": {"type": "Point", "coordinates": [19.0642283, 47.5405677]}}, {"type": "Feature", "properties": {"code": "Ln-2/SZ-1-AI", "reg": "xiii-kesz", "conf": 0.986}, "geometry": {"type": "Point", "coordinates": [19.0625271, 47.5380787]}}, {"type": "Feature", "properties": {"code": "Vt-M/Z-3", "reg": "xiii-kesz", "conf": 0.929}, "geometry": {"type": "Point", "coordinates": [19.0703724, 47.5339829]}}, {"type": "Feature", "properties": {"code": "Zkp-Kp-1", "reg": "xiii-kesz", "conf": 1.0}, "geometry": {"type": "Point", "coordinates": [19.081461, 47.5405527]}}, {"type": "Feature", "properties": {"code": "Ln-T/T-2", "reg": "xiii-kesz", "conf": 0.999}, "geometry": {"type": "Point", "coordinates": [19.078491, 47.5455469]}}, {"type": "Feature", "properties": {"code": "Zkp-Kp-1", "reg": "xiii-kesz", "conf": 0.999}, "geometry": {"type": "Point", "coordinates": [19.0761158, 47.5424487]}}, {"type": "Feature", "properties": {"code": "Ln-T/T-2", "reg": "xiii-kesz", "conf": 0.998}, "geometry": {"type": "Point", "coordinates": [19.0755687, 47.5440234]}}, {"type": "Feature", "properties": {"code": "Ln-3/B-1", "reg": "xiii-kesz", "conf": 0.998}, "geometry": {"type": "Point", "coordinates": [19.077305, 47.5379572]}}, {"type": "Feature", "properties": {"code": "Zkp-Kk-1", "reg": "xiii-kesz", "conf": 0.997}, "geometry": {"type": "Point", "coordinates": [19.0834557, 47.5435117]}}, {"type": "Feature", "properties": {"code": "Vi-1/Z-19", "reg": "xiii-kesz", "conf": 0.997}, "geometry": {"type": "Point", "coordinates": [19.0717311, 47.5416896]}}, {"type": "Feature", "properties": {"code": "Vi-1/Z-39m", "reg": "xiii-kesz", "conf": 0.996}, "geometry": {"type": "Point", "coordinates": [19.0676581, 47.5402518]}}, {"type": "Feature", "properties": {"code": "Zkk-1/K-Sp", "reg": "xiii-kesz", "conf": 0.996}, "geometry": {"type": "Point", "coordinates": [19.0803104, 47.5398307]}}, {"type": "Feature", "properties": {"code": "Vt-M/Z-2", "reg": "xiii-kesz", "conf": 0.996}, "geometry": {"type": "Point", "coordinates": [19.0691367, 47.5357932]}}, {"type": "Feature", "properties": {"code": "K-REK/SZ-2-SP", "reg": "xiii-kesz", "conf": 0.995}, "geometry": {"type": "Point", "coordinates": [19.0739902, 47.5413604]}}, {"type": "Feature", "properties": {"code": "Vi-2/SZ-7", "reg": "xiii-kesz", "conf": 0.995}, "geometry": {"type": "Point", "coordinates": [19.0761432, 47.5410037]}}, {"type": "Feature", "properties": {"code": "Ln-T/T-2", "reg": "xiii-kesz", "conf": 0.993}, "geometry": {"type": "Point", "coordinates": [19.0770249, 47.5435851]}}, {"type": "Feature", "properties": {"code": "Ln-T/T-2", "reg": "xiii-kesz", "conf": 0.993}, "geometry": {"type": "Point", "coordinates": [19.0804221, 47.5427319]}}, {"type": "Feature", "properties": {"code": "Vi-1/Z-10", "reg": "xiii-kesz", "conf": 0.992}, "geometry": {"type": "Point", "coordinates": [19.0733799, 47.5458822]}}, {"type": "Feature", "properties": {"code": "Vi-1/Z-9", "reg": "xiii-kesz", "conf": 0.992}, "geometry": {"type": "Point", "coordinates": [19.0734689, 47.5449269]}}, {"type": "Feature", "properties": {"code": "Ln-T/T-1", "reg": "xiii-kesz", "conf": 0.992}, "geometry": {"type": "Point", "coordinates": [19.066136, 47.5354573]}}, {"type": "Feature", "properties": {"code": "Zkp-Kk-4", "reg": "xiii-kesz", "conf": 0.99}, "geometry": {"type": "Point", "coordinates": [19.0652659, 47.545607]}}, {"type": "Feature", "properties": {"code": "Vi-2/SZ-3", "reg": "xiii-kesz", "conf": 0.99}, "geometry": {"type": "Point", "coordinates": [19.0815338, 47.534774]}}, {"type": "Feature", "properties": {"code": "Vi-2/ZSZ-3", "reg": "xiii-kesz", "conf": 0.989}, "geometry": {"type": "Point", "coordinates": [19.0659966, 47.5432862]}}, {"type": "Feature", "properties": {"code": "Vi-1/Z-19", "reg": "xiii-kesz", "conf": 0.987}, "geometry": {"type": "Point", "coordinates": [19.0704079, 47.5387529]}}, {"type": "Feature", "properties": {"code": "Ln-3/SZ-3", "reg": "xiii-kesz", "conf": 0.986}, "geometry": {"type": "Point", "coordinates": [19.0780179, 47.5402653]}}, {"type": "Feature", "properties": {"code": "Vt-M/Z-3", "reg": "xiii-kesz", "conf": 0.986}, "geometry": {"type": "Point", "coordinates": [19.0713148, 47.5353611]}}, {"type": "Feature", "properties": {"code": "Ln-2/Z-11", "reg": "xiii-kesz", "conf": 0.982}, "geometry": {"type": "Point", "coordinates": [19.072809, 47.5345188]}}, {"type": "Feature", "properties": {"code": "Ek", "reg": "xiii-kesz", "conf": 0.98}, "geometry": {"type": "Point", "coordinates": [19.064878, 47.5393817]}}, {"type": "Feature", "properties": {"code": "Ln-2/ZSz-1", "reg": "xiii-kesz", "conf": 0.973}, "geometry": {"type": "Point", "coordinates": [19.0654791, 47.5393935]}}, {"type": "Feature", "properties": {"code": "Ln-T/SZ-1-AI", "reg": "xiii-kesz", "conf": 0.972}, "geometry": {"type": "Point", "coordinates": [19.0666821, 47.5359625]}}, {"type": "Feature", "properties": {"code": "Ln-3/SZ-3", "reg": "xiii-kesz", "conf": 0.971}, "geometry": {"type": "Point", "coordinates": [19.0797968, 47.5396115]}}, {"type": "Feature", "properties": {"code": "Ln-3/ZSz-3", "reg": "xiii-kesz", "conf": 0.965}, "geometry": {"type": "Point", "coordinates": [19.0671339, 47.5440609]}}, {"type": "Feature", "properties": {"code": "Ln-T/SZ-1", "reg": "xiii-kesz", "conf": 0.964}, "geometry": {"type": "Point", "coordinates": [19.0782578, 47.5459052]}}, {"type": "Feature", "properties": {"code": "Vi-1/Z-39", "reg": "xiii-kesz", "conf": 0.96}, "geometry": {"type": "Point", "coordinates": [19.0687667, 47.5409864]}}, {"type": "Feature", "properties": {"code": "Ln-3/SZ-2", "reg": "xiii-kesz", "conf": 0.958}, "geometry": {"type": "Point", "coordinates": [19.0775951, 47.5374581]}}, {"type": "Feature", "properties": {"code": "Vi-1/ZSZ-3", "reg": "xiii-kesz", "conf": 0.957}, "geometry": {"type": "Point", "coordinates": [19.0665451, 47.5381569]}}, {"type": "Feature", "properties": {"code": "Ln-2/Z-11", "reg": "xiii-kesz", "conf": 0.955}, "geometry": {"type": "Point", "coordinates": [19.0743647, 47.5350105]}}, {"type": "Feature", "properties": {"code": "Ln-T/SZ-1-AI", "reg": "xiii-kesz", "conf": 0.954}, "geometry": {"type": "Point", "coordinates": [19.0744971, 47.5441605]}}, {"type": "Feature", "properties": {"code": "Zkp-Kk-1", "reg": "xiii-kesz", "conf": 0.953}, "geometry": {"type": "Point", "coordinates": [19.0726412, 47.5424473]}}, {"type": "Feature", "properties": {"code": "Ln-3/ZSz-3", "reg": "xiii-kesz", "conf": 0.949}, "geometry": {"type": "Point", "coordinates": [19.0668875, 47.5453928]}}, {"type": "Feature", "properties": {"code": "Lke-1/SZ-1", "reg": "xiii-kesz", "conf": 0.948}, "geometry": {"type": "Point", "coordinates": [19.0837043, 47.544175]}}, {"type": "Feature", "properties": {"code": "Lk-2/SZ-2", "reg": "xiii-kesz", "conf": 0.946}, "geometry": {"type": "Point", "coordinates": [19.082353, 47.5457551]}}, {"type": "Feature", "properties": {"code": "Lke-1/SZ-1", "reg": "xiii-kesz", "conf": 0.944}, "geometry": {"type": "Point", "coordinates": [19.0812919, 47.5452183]}}, {"type": "Feature", "properties": {"code": "Ln-T/SZ-1-AI", "reg": "xiii-kesz", "conf": 0.938}, "geometry": {"type": "Point", "coordinates": [19.0793496, 47.5432214]}}, {"type": "Feature", "properties": {"code": "Lke-1/SZ-1", "reg": "xiii-kesz", "conf": 0.929}, "geometry": {"type": "Point", "coordinates": [19.0837066, 47.5427701]}}, {"type": "Feature", "properties": {"code": "Vi-1/Z-19", "reg": "xiii-kesz", "conf": 0.928}, "geometry": {"type": "Point", "coordinates": [19.0696492, 47.5371233]}}, {"type": "Feature", "properties": {"code": "Ln-2/Z-21", "reg": "xiii-kesz", "conf": 0.923}, "geometry": {"type": "Point", "coordinates": [19.0759625, 47.5346944]}}, {"type": "Feature", "properties": {"code": "Ln-3/SZ-4", "reg": "xiii-kesz", "conf": 0.919}, "geometry": {"type": "Point", "coordinates": [19.0784542, 47.5388108]}}, {"type": "Feature", "properties": {"code": "Lke-1/SZ-1", "reg": "xiii-kesz", "conf": 0.916}, "geometry": {"type": "Point", "coordinates": [19.0843889, 47.5440486]}}, {"type": "Feature", "properties": {"code": "Vi-1/SZ-2-AI", "reg": "xiii-kesz", "conf": 0.916}, "geometry": {"type": "Point", "coordinates": [19.0663388, 47.537608]}}, {"type": "Feature", "properties": {"code": "Lke-1/SZ-1", "reg": "xiii-kesz", "conf": 0.906}, "geometry": {"type": "Point", "coordinates": [19.0803753, 47.5454228]}}, {"type": "Feature", "properties": {"code": "Lke-1/SZ-1", "reg": "xiii-kesz", "conf": 0.904}, "geometry": {"type": "Point", "coordinates": [19.0830404, 47.5428028]}}, {"type": "Feature", "properties": {"code": "Lke-1/Z-1", "reg": "xiii-kesz", "conf": 0.902}, "geometry": {"type": "Point", "coordinates": [19.0840462, 47.5434666]}}, {"type": "Feature", "properties": {"code": "Vi-1/Z-3", "reg": "xiii-kesz", "conf": 0.9}, "geometry": {"type": "Point", "coordinates": [19.0676293, 47.5375919]}}, {"type": "Feature", "properties": {"code": "K-SP/ZSz-1", "reg": "xiii-kesz", "conf": 0.893}, "geometry": {"type": "Point", "coordinates": [19.0809492, 47.5378097]}}, {"type": "Feature", "properties": {"code": "Vi-1/Z-39b", "reg": "xiii-kesz", "conf": 0.884}, "geometry": {"type": "Point", "coordinates": [19.0679066, 47.5391258]}}, {"type": "Feature", "properties": {"code": "Lke-1/IK-1", "reg": "xiii-kesz", "conf": 0.879}, "geometry": {"type": "Point", "coordinates": [19.0817981, 47.5442489]}}, {"type": "Feature", "properties": {"code": "Vi-1/ZSZ-2", "reg": "xiii-kesz", "conf": 0.85}, "geometry": {"type": "Point", "coordinates": [19.0694483, 47.5436503]}}, {"type": "Feature", "properties": {"code": "Lke-1/Z-1", "reg": "xiii-kesz", "conf": 0.837}, "geometry": {"type": "Point", "coordinates": [19.0827411, 47.5437904]}}, {"type": "Feature", "properties": {"code": "Ek", "reg": "xiii-kesz", "conf": 0.805}, "geometry": {"type": "Point", "coordinates": [19.0808156, 47.5357586]}}, {"type": "Feature", "properties": {"code": "Ln-T/SZ-1-AI", "reg": "xiii-kesz", "conf": 0.94}, "geometry": {"type": "Point", "coordinates": [19.0755715, 47.5454604]}}, {"type": "Feature", "properties": {"code": "Vi-1/Z-31a", "reg": "xiii-kesz", "conf": 0.918}, "geometry": {"type": "Point", "coordinates": [19.0719115, 47.5435749]}}, {"type": "Feature", "properties": {"code": "Vi-1/Z-31", "reg": "xiii-kesz", "conf": 0.925}, "geometry": {"type": "Point", "coordinates": [19.073059, 47.5435727]}}, {"type": "Feature", "properties": {"code": "Zkp-Kp-1", "reg": "xiii-kesz", "conf": 0.916}, "geometry": {"type": "Point", "coordinates": [19.0721931, 47.5428262]}}, {"type": "Feature", "properties": {"code": "Zkp-Kp-1", "reg": "xiii-kesz", "conf": 0.991}, "geometry": {"type": "Point", "coordinates": [19.0691114, 47.5425901]}}, {"type": "Feature", "properties": {"code": "Ln-T/SZ-1-AI", "reg": "xiii-kesz", "conf": 0.9}, "geometry": {"type": "Point", "coordinates": [19.0814576, 47.5422402]}}, {"type": "Feature", "properties": {"code": "Ln-T/SZ-1-AI", "reg": "xiii-kesz", "conf": 0.948}, "geometry": {"type": "Point", "coordinates": [19.0823289, 47.5412372]}}, {"type": "Feature", "properties": {"code": "Ln-T/SZ-1-AI", "reg": "xiii-kesz", "conf": 0.934}, "geometry": {"type": "Point", "coordinates": [19.0827167, 47.5407648]}}, {"type": "Feature", "properties": {"code": "Ek", "reg": "xiii-kesz", "conf": 0.304}, "geometry": {"type": "Point", "coordinates": [19.0708815, 47.540007]}}, {"type": "Feature", "properties": {"code": "Ln-3/B-1", "reg": "xiii-kesz", "conf": 0.96}, "geometry": {"type": "Point", "coordinates": [19.077297, 47.5390269]}}, {"type": "Feature", "properties": {"code": "Ek", "reg": "xiii-kesz", "conf": 0.494}, "geometry": {"type": "Point", "coordinates": [19.0667585, 47.5386612]}}, {"type": "Feature", "properties": {"code": "Ln-2/ZSz-1", "reg": "xiii-kesz", "conf": 0.795}, "geometry": {"type": "Point", "coordinates": [19.0649179, 47.538092]}}, {"type": "Feature", "properties": {"code": "Vi-2/Z-5", "reg": "xiii-kesz", "conf": 0.856}, "geometry": {"type": "Point", "coordinates": [19.0743673, 47.5380274]}}, {"type": "Feature", "properties": {"code": "Vt-M/Z-1", "reg": "xiii-kesz", "conf": 0.857}, "geometry": {"type": "Point", "coordinates": [19.0684913, 47.5344587]}}, {"type": "Feature", "properties": {"code": "Vi-2/SZ-8", "reg": "xiii-kesz", "conf": 0.958}, "geometry": {"type": "Point", "coordinates": [19.0786487, 47.5342161]}}, {"type": "Feature", "properties": {"code": "Vt-M/Z-3", "reg": "xiii-kesz", "conf": 0.935}, "geometry": {"type": "Point", "coordinates": [19.0703884, 47.5339868]}}, {"type": "Feature", "properties": {"code": "Zkp-Kp-1", "reg": "xiii-kesz", "conf": 0.999}, "geometry": {"type": "Point", "coordinates": [19.0863669, 47.5447023]}}, {"type": "Feature", "properties": {"code": "Zkp-Kp-1", "reg": "xiii-kesz", "conf": 0.999}, "geometry": {"type": "Point", "coordinates": [19.0814873, 47.540554]}}, {"type": "Feature", "properties": {"code": "Ln-2/B-11", "reg": "xiii-kesz", "conf": 0.999}, "geometry": {"type": "Point", "coordinates": [19.0867615, 47.5352798]}}, {"type": "Feature", "properties": {"code": "Zkp-Kk-1", "reg": "xiii-kesz", "conf": 0.997}, "geometry": {"type": "Point", "coordinates": [19.0834776, 47.5435165]}}, {"type": "Feature", "properties": {"code": "Zkk-2/Ln", "reg": "xiii-kesz", "conf": 0.997}, "geometry": {"type": "Point", "coordinates": [19.0888953, 47.541743]}}, {"type": "Feature", "properties": {"code": "Ln-T/T-2", "reg": "xiii-kesz", "conf": 0.997}, "geometry": {"type": "Point", "coordinates": [19.0899861, 47.5395954]}}, {"type": "Feature", "properties": {"code": "Zkk-1/K-Sp", "reg": "xiii-kesz", "conf": 0.996}, "geometry": {"type": "Point", "coordinates": [19.0803339, 47.5398306]}}, {"type": "Feature", "properties": {"code": "Ln-T/T-2", "reg": "xiii-kesz", "conf": 0.995}, "geometry": {"type": "Point", "coordinates": [19.0876309, 47.5412234]}}, {"type": "Feature", "properties": {"code": "Ln-T/T-1", "reg": "xiii-kesz", "conf": 0.995}, "geometry": {"type": "Point", "coordinates": [19.0867181, 47.5388274]}}, {"type": "Feature", "properties": {"code": "Ln-T/T-2", "reg": "xiii-kesz", "conf": 0.993}, "geometry": {"type": "Point", "coordinates": [19.080442, 47.5427337]}}, {"type": "Feature", "properties": {"code": "Ln-2/C-3", "reg": "xiii-kesz", "conf": 0.991}, "geometry": {"type": "Point", "coordinates": [19.0906223, 47.5373974]}}, {"type": "Feature", "properties": {"code": "Ln-T/T-2", "reg": "xiii-kesz", "conf": 0.99}, "geometry": {"type": "Point", "coordinates": [19.0924797, 47.5409438]}}, {"type": "Feature", "properties": {"code": "Ln-T/SZ-5", "reg": "xiii-kesz", "conf": 0.988}, "geometry": {"type": "Point", "coordinates": [19.0918414, 47.5395633]}}, {"type": "Feature", "properties": {"code": "Vi-2/SZ-3", "reg": "xiii-kesz", "conf": 0.988}, "geometry": {"type": "Point", "coordinates": [19.0815657, 47.5347718]}}, {"type": "Feature", "properties": {"code": "Ln-2/C-1", "reg": "xiii-kesz", "conf": 0.986}, "geometry": {"type": "Point", "coordinates": [19.0887238, 47.5432037]}}, {"type": "Feature", "properties": {"code": "Ln-2/Z-17", "reg": "xiii-kesz", "conf": 0.986}, "geometry": {"type": "Point", "coordinates": [19.0865058, 47.5372282]}}, {"type": "Feature", "properties": {"code": "Ln-T/T-2", "reg": "xiii-kesz", "conf": 0.984}, "geometry": {"type": "Point", "coordinates": [19.0914525, 47.539031]}}, {"type": "Feature", "properties": {"code": "Zkp-Kk-1", "reg": "xiii-kesz", "conf": 0.982}, "geometry": {"type": "Point", "coordinates": [19.090112, 47.5367587]}}, {"type": "Feature", "properties": {"code": "Ln-2/Z-23", "reg": "xiii-kesz", "conf": 0.981}, "geometry": {"type": "Point", "coordinates": [19.0946837, 47.5418938]}}, {"type": "Feature", "properties": {"code": "Ln-T/SZ-3", "reg": "xiii-kesz", "conf": 0.978}, "geometry": {"type": "Point", "coordinates": [19.087764, 47.5419743]}}, {"type": "Feature", "properties": {"code": "Zkp-Kk-1", "reg": "xiii-kesz", "conf": 0.978}, "geometry": {"type": "Point", "coordinates": [19.0884655, 47.5374227]}}, {"type": "Feature", "properties": {"code": "Ln-2/B-12", "reg": "xiii-kesz", "conf": 0.977}, "geometry": {"type": "Point", "coordinates": [19.0902633, 47.5342757]}}, {"type": "Feature", "properties": {"code": "Ln-3/SZ-3", "reg": "xiii-kesz", "conf": 0.973}, "geometry": {"type": "Point", "coordinates": [19.0798204, 47.5396108]}}, {"type": "Feature", "properties": {"code": "Ln-2/B-12", "reg": "xiii-kesz", "conf": 0.968}, "geometry": {"type": "Point", "coordinates": [19.0909436, 47.5354536]}}, {"type": "Feature", "properties": {"code": "Lke-1/SZ-1", "reg": "xiii-kesz", "conf": 0.967}, "geometry": {"type": "Point", "coordinates": [19.081306, 47.5452235]}}, {"type": "Feature", "properties": {"code": "Lk-2/SZ-1", "reg": "xiii-kesz", "conf": 0.965}, "geometry": {"type": "Point", "coordinates": [19.0878856, 47.5455517]}}, {"type": "Feature", "properties": {"code": "Ln-2/Z-18", "reg": "xiii-kesz", "conf": 0.965}, "geometry": {"type": "Point", "coordinates": [19.085701, 47.5375843]}}, {"type": "Feature", "properties": {"code": "Ln-T/SZ-1-AI", "reg": "xiii-kesz", "conf": 0.965}, "geometry": {"type": "Point", "coordinates": [19.088885, 47.5394226]}}, {"type": "Feature", "properties": {"code": "Ln-T/SZ-5", "reg": "xiii-kesz", "conf": 0.964}, "geometry": {"type": "Point", "coordinates": [19.0924291, 47.540526]}}, {"type": "Feature", "properties": {"code": "Lke-1/SZ-1", "reg": "xiii-kesz", "conf": 0.96}, "geometry": {"type": "Point", "coordinates": [19.0837286, 47.5441782]}}, {"type": "Feature", "properties": {"code": "Ln-T/T-2", "reg": "xiii-kesz", "conf": 0.96}, "geometry": {"type": "Point", "coordinates": [19.084656, 47.5416894]}}, {"type": "Feature", "properties": {"code": "K-SP/ZSz-1", "reg": "xiii-kesz", "conf": 0.954}, "geometry": {"type": "Point", "coordinates": [19.0809768, 47.5378089]}}, {"type": "Feature", "properties": {"code": "Lke-1/SZ-1", "reg": "xiii-kesz", "conf": 0.952}, "geometry": {"type": "Point", "coordinates": [19.0823312, 47.5444438]}}, {"type": "Feature", "properties": {"code": "Ln-T/T-2", "reg": "xiii-kesz", "conf": 0.951}, "geometry": {"type": "Point", "coordinates": [19.0879353, 47.5379929]}}, {"type": "Feature", "properties": {"code": "Lk-2/SZ-2", "reg": "xiii-kesz", "conf": 0.947}, "geometry": {"type": "Point", "coordinates": [19.0823667, 47.5457603]}}, {"type": "Feature", "properties": {"code": "Ln-2/SZ-1-AI", "reg": "xiii-kesz", "conf": 0.945}, "geometry": {"type": "Point", "coordinates": [19.0908434, 47.5428362]}}, {"type": "Feature", "properties": {"code": "Ln-2/B-11", "reg": "xiii-kesz", "conf": 0.939}, "geometry": {"type": "Point", "coordinates": [19.0860963, 47.5338673]}}, {"type": "Feature", "properties": {"code": "Lke-1/SZ-1", "reg": "xiii-kesz", "conf": 0.938}, "geometry": {"type": "Point", "coordinates": [19.0837284, 47.5427747]}}, {"type": "Feature", "properties": {"code": "Ln-T/SZ-1-AI", "reg": "xiii-kesz", "conf": 0.936}, "geometry": {"type": "Point", "coordinates": [19.0793662, 47.5432225]}}, {"type": "Feature", "properties": {"code": "Ln-2/B-11", "reg": "xiii-kesz", "conf": 0.926}, "geometry": {"type": "Point", "coordinates": [19.089558, 47.5359356]}}, {"type": "Feature", "properties": {"code": "Ln-2/B-11", "reg": "xiii-kesz", "conf": 0.925}, "geometry": {"type": "Point", "coordinates": [19.0874955, 47.5350886]}}, {"type": "Feature", "properties": {"code": "Lke-1/Z-1", "reg": "xiii-kesz", "conf": 0.922}, "geometry": {"type": "Point", "coordinates": [19.0840787, 47.5434719]}}, {"type": "Feature", "properties": {"code": "Zkp-Kk-1", "reg": "xiii-kesz", "conf": 0.92}, "geometry": {"type": "Point", "coordinates": [19.086218, 47.5384039]}}, {"type": "Feature", "properties": {"code": "Lke-1/SZ-1", "reg": "xiii-kesz", "conf": 0.915}, "geometry": {"type": "Point", "coordinates": [19.080385, 47.5454284]}}, {"type": "Feature", "properties": {"code": "Lke-1/SZ-1", "reg": "xiii-kesz", "conf": 0.912}, "geometry": {"type": "Point", "coordinates": [19.0805681, 47.5440101]}}, {"type": "Feature", "properties": {"code": "Lke-1/SZ-1", "reg": "xiii-kesz", "conf": 0.907}, "geometry": {"type": "Point", "coordinates": [19.0844121, 47.5440557]}}, {"type": "Feature", "properties": {"code": "Vi-2/SZ-4", "reg": "xiii-kesz", "conf": 0.907}, "geometry": {"type": "Point", "coordinates": [19.0954027, 47.543153]}}, {"type": "Feature", "properties": {"code": "Lke-1/IK-1", "reg": "xiii-kesz", "conf": 0.901}, "geometry": {"type": "Point", "coordinates": [19.0809809, 47.5444016]}}, {"type": "Feature", "properties": {"code": "Ln-2/B-1", "reg": "xiii-kesz", "conf": 0.895}, "geometry": {"type": "Point", "coordinates": [19.0833756, 47.5344798]}}, {"type": "Feature", "properties": {"code": "Ln-2/B-11", "reg": "xiii-kesz", "conf": 0.887}, "geometry": {"type": "Point", "coordinates": [19.0885629, 47.5347978]}}, {"type": "Feature", "properties": {"code": "Lke-1/SZ-1", "reg": "xiii-kesz", "conf": 0.867}, "geometry": {"type": "Point", "coordinates": [19.0830617, 47.5428079]}}, {"type": "Feature", "properties": {"code": "Lke-1/IK-1", "reg": "xiii-kesz", "conf": 0.859}, "geometry": {"type": "Point", "coordinates": [19.0818244, 47.5442527]}}, {"type": "Feature", "properties": {"code": "Ln-T/SZ-1-AI", "reg": "xiii-kesz", "conf": 0.819}, "geometry": {"type": "Point", "coordinates": [19.0827551, 47.5407646]}}, {"type": "Feature", "properties": {"code": "Lke-1/SZ-1", "reg": "xiii-kesz", "conf": 0.783}, "geometry": {"type": "Point", "coordinates": [19.0830484, 47.544311]}}, {"type": "Feature", "properties": {"code": "Vi-2/SZ-4", "reg": "xiii-kesz", "conf": 0.924}, "geometry": {"type": "Point", "coordinates": [19.0959567, 47.5441295]}}, {"type": "Feature", "properties": {"code": "Ln-T/SZ-1-AI", "reg": "xiii-kesz", "conf": 0.903}, "geometry": {"type": "Point", "coordinates": [19.0814807, 47.5422425]}}, {"type": "Feature", "properties": {"code": "Ln-T/SZ-1-AI", "reg": "xiii-kesz", "conf": 0.957}, "geometry": {"type": "Point", "coordinates": [19.082351, 47.5412397]}}, {"type": "Feature", "properties": {"code": "Ln-2/C-1", "reg": "xiii-kesz", "conf": 0.827}, "geometry": {"type": "Point", "coordinates": [19.0902001, 47.5410996]}}, {"type": "Feature", "properties": {"code": "Ek", "reg": "xiii-kesz", "conf": 0.274}, "geometry": {"type": "Point", "coordinates": [19.0906424, 47.5372358]}}, {"type": "Feature", "properties": {"code": "Ek", "reg": "xiii-kesz", "conf": 0.267}, "geometry": {"type": "Point", "coordinates": [19.089179, 47.5369547]}}, {"type": "Feature", "properties": {"code": "Ln-T/Kp-1", "reg": "xiii-kesz", "conf": 1.0}, "geometry": {"type": "Point", "coordinates": [19.0675737, 47.5280962]}}, {"type": "Feature", "properties": {"code": "Zkp-Kp-2", "reg": "xiii-kesz", "conf": 0.999}, "geometry": {"type": "Point", "coordinates": [19.0572288, 47.5309891]}}, {"type": "Feature", "properties": {"code": "Zkp-Kp-2", "reg": "xiii-kesz", "conf": 0.998}, "geometry": {"type": "Point", "coordinates": [19.0556938, 47.5274095]}}, {"type": "Feature", "properties": {"code": "Zkk-1/K-Rek", "reg": "xiii-kesz", "conf": 0.997}, "geometry": {"type": "Point", "coordinates": [19.0581604, 47.5353653]}}, {"type": "Feature", "properties": {"code": "Ln-T/T-1", "reg": "xiii-kesz", "conf": 0.996}, "geometry": {"type": "Point", "coordinates": [19.0661186, 47.5354634]}}, {"type": "Feature", "properties": {"code": "Ln-T/T-2", "reg": "xiii-kesz", "conf": 0.996}, "geometry": {"type": "Point", "coordinates": [19.0626832, 47.5330461]}}, {"type": "Feature", "properties": {"code": "Zkk-2/Ln", "reg": "xiii-kesz", "conf": 0.996}, "geometry": {"type": "Point", "coordinates": [19.0622546, 47.5318838]}}, {"type": "Feature", "properties": {"code": "Ln-2/ZSz-2", "reg": "xiii-kesz", "conf": 0.996}, "geometry": {"type": "Point", "coordinates": [19.0592, 47.5282946]}}, {"type": "Feature", "properties": {"code": "Ln-T/T-1", "reg": "xiii-kesz", "conf": 0.996}, "geometry": {"type": "Point", "coordinates": [19.0682656, 47.5300583]}}, {"type": "Feature", "properties": {"code": "Ln-2/B-8", "reg": "xiii-kesz", "conf": 0.996}, "geometry": {"type": "Point", "coordinates": [19.0671089, 47.5261616]}}, {"type": "Feature", "properties": {"code": "Ln-T/T-1", "reg": "xiii-kesz", "conf": 0.995}, "geometry": {"type": "Point", "coordinates": [19.0615629, 47.5368867]}}, {"type": "Feature", "properties": {"code": "Vi-1/Z-7", "reg": "xiii-kesz", "conf": 0.995}, "geometry": {"type": "Point", "coordinates": [19.0655857, 47.5276235]}}, {"type": "Feature", "properties": {"code": "Vt-M/Z-2", "reg": "xiii-kesz", "conf": 0.994}, "geometry": {"type": "Point", "coordinates": [19.0691212, 47.5357996]}}, {"type": "Feature", "properties": {"code": "Vi-1/Z-24", "reg": "xiii-kesz", "conf": 0.993}, "geometry": {"type": "Point", "coordinates": [19.0621755, 47.5285015]}}, {"type": "Feature", "properties": {"code": "Vi-1/Z-24", "reg": "xiii-kesz", "conf": 0.992}, "geometry": {"type": "Point", "coordinates": [19.0624845, 47.5295277]}}, {"type": "Feature", "properties": {"code": "Zkp-Kk-3", "reg": "xiii-kesz", "conf": 0.991}, "geometry": {"type": "Point", "coordinates": [19.0625144, 47.5358576]}}, {"type": "Feature", "properties": {"code": "Vi-1/Z-5", "reg": "xiii-kesz", "conf": 0.991}, "geometry": {"type": "Point", "coordinates": [19.0629782, 47.5267631]}}, {"type": "Feature", "properties": {"code": "Vi-1/Z-24", "reg": "xiii-kesz", "conf": 0.99}, "geometry": {"type": "Point", "coordinates": [19.061624, 47.52729]}}, {"type": "Feature", "properties": {"code": "Vt-M/Z-3", "reg": "xiii-kesz", "conf": 0.986}, "geometry": {"type": "Point", "coordinates": [19.0674762, 47.531601]}}, {"type": "Feature", "properties": {"code": "Vi-1/Z-7", "reg": "xiii-kesz", "conf": 0.985}, "geometry": {"type": "Point", "coordinates": [19.0640156, 47.5292227]}}, {"type": "Feature", "properties": {"code": "Vi-1/Z-14", "reg": "xiii-kesz", "conf": 0.985}, "geometry": {"type": "Point", "coordinates": [19.0659252, 47.5288659]}}, {"type": "Feature", "properties": {"code": "Vi-1/SZ-2", "reg": "xiii-kesz", "conf": 0.984}, "geometry": {"type": "Point", "coordinates": [19.0617126, 47.5350982]}}, {"type": "Feature", "properties": {"code": "Ln-T/T-1", "reg": "xiii-kesz", "conf": 0.984}, "geometry": {"type": "Point", "coordinates": [19.0595425, 47.5257612]}}, {"type": "Feature", "properties": {"code": "Vi-1/Z-7", "reg": "xiii-kesz", "conf": 0.983}, "geometry": {"type": "Point", "coordinates": [19.0651102, 47.5266213]}}, {"type": "Feature", "properties": {"code": "Ln-1/ZU-3", "reg": "xiii-kesz", "conf": 0.982}, "geometry": {"type": "Point", "coordinates": [19.0684333, 47.5261427]}}, {"type": "Feature", "properties": {"code": "Vi-2/Z-2", "reg": "xiii-kesz", "conf": 0.981}, "geometry": {"type": "Point", "coordinates": [19.056713, 47.5268449]}}, {"type": "Feature", "properties": {"code": "Vt-M/ZU-2", "reg": "xiii-kesz", "conf": 0.979}, "geometry": {"type": "Point", "coordinates": [19.06495, 47.5313413]}}, {"type": "Feature", "properties": {"code": "Ln-T/T-1", "reg": "xiii-kesz", "conf": 0.978}, "geometry": {"type": "Point", "coordinates": [19.067872, 47.5285607]}}, {"type": "Feature", "properties": {"code": "Vt-M/Z-4", "reg": "xiii-kesz", "conf": 0.977}, "geometry": {"type": "Point", "coordinates": [19.0665675, 47.5299229]}}, {"type": "Feature", "properties": {"code": "Ln-T/SZ-1-AI", "reg": "xiii-kesz", "conf": 0.975}, "geometry": {"type": "Point", "coordinates": [19.0666644, 47.5359689]}}, {"type": "Feature", "properties": {"code": "Vi-2/Z-3", "reg": "xiii-kesz", "conf": 0.974}, "geometry": {"type": "Point", "coordinates": [19.0562704, 47.5268623]}}, {"type": "Feature", "properties": {"code": "Ln-T/SZ-1-AI", "reg": "xiii-kesz", "conf": 0.973}, "geometry": {"type": "Point", "coordinates": [19.060378, 47.5316627]}}, {"type": "Feature", "properties": {"code": "Vt-M/Kt-1", "reg": "xiii-kesz", "conf": 0.965}, "geometry": {"type": "Point", "coordinates": [19.068459, 47.5333398]}}, {"type": "Feature", "properties": {"code": "Ln-1/ZU-2", "reg": "xiii-kesz", "conf": 0.965}, "geometry": {"type": "Point", "coordinates": [19.0665444, 47.5253346]}}, {"type": "Feature", "properties": {"code": "Ln-T/SZ-2-AI", "reg": "xiii-kesz", "conf": 0.959}, "geometry": {"type": "Point", "coordinates": [19.0583385, 47.5267469]}}, {"type": "Feature", "properties": {"code": "Lk-1/B-1", "reg": "xiii-kesz", "conf": 0.959}, "geometry": {"type": "Point", "coordinates": [19.0694823, 47.5250655]}}, {"type": "Feature", "properties": {"code": "Ln-T/SZ-2", "reg": "xiii-kesz", "conf": 0.958}, "geometry": {"type": "Point", "coordinates": [19.062077, 47.5310063]}}, {"type": "Feature", "properties": {"code": "Ln-1/ZU-3", "reg": "xiii-kesz", "conf": 0.958}, "geometry": {"type": "Point", "coordinates": [19.0678449, 47.5249964]}}, {"type": "Feature", "properties": {"code": "Vi-1/Z-11", "reg": "xiii-kesz", "conf": 0.957}, "geometry": {"type": "Point", "coordinates": [19.0622766, 47.5252702]}}, {"type": "Feature", "properties": {"code": "Vt-M/ZSz-2", "reg": "xiii-kesz", "conf": 0.953}, "geometry": {"type": "Point", "coordinates": [19.0696838, 47.5330417]}}, {"type": "Feature", "properties": {"code": "Ln-T/SZ-1-AI", "reg": "xiii-kesz", "conf": 0.952}, "geometry": {"type": "Point", "coordinates": [19.0611845, 47.5337448]}}, {"type": "Feature", "properties": {"code": "Vt-M/ZSZ-7", "reg": "xiii-kesz", "conf": 0.951}, "geometry": {"type": "Point", "coordinates": [19.0630544, 47.5339728]}}, {"type": "Feature", "properties": {"code": "Vt-M/ZU-1", "reg": "xiii-kesz", "conf": 0.95}, "geometry": {"type": "Point", "coordinates": [19.0699535, 47.5317578]}}, {"type": "Feature", "properties": {"code": "Zkp-Kp-1", "reg": "xiii-kesz", "conf": 0.946}, "geometry": {"type": "Point", "coordinates": [19.0608919, 47.5255557]}}, {"type": "Feature", "properties": {"code": "Vi-2/SZ-10", "reg": "xiii-kesz", "conf": 0.943}, "geometry": {"type": "Point", "coordinates": [19.0566132, 47.5296529]}}, {"type": "Feature", "properties": {"code": "Ln-T/SZ-1-AI", "reg": "xiii-kesz", "conf": 0.941}, "geometry": {"type": "Point", "coordinates": [19.059658, 47.5302522]}}, {"type": "Feature", "properties": {"code": "Vt-M/ZU-2", "reg": "xiii-kesz", "conf": 0.94}, "geometry": {"type": "Point", "coordinates": [19.0645114, 47.5303381]}}, {"type": "Feature", "properties": {"code": "Zkp-Kp-2", "reg": "xiii-kesz", "conf": 0.939}, "geometry": {"type": "Point", "coordinates": [19.0563045, 47.5289425]}}, {"type": "Feature", "properties": {"code": "Ln-T/SZ-1-AI", "reg": "xiii-kesz", "conf": 0.938}, "geometry": {"type": "Point", "coordinates": [19.0607225, 47.5328079]}}, {"type": "Feature", "properties": {"code": "Vi-2/SZ-12", "reg": "xiii-kesz", "conf": 0.934}, "geometry": {"type": "Point", "coordinates": [19.0568494, 47.5303073]}}, {"type": "Feature", "properties": {"code": "Ln-2/ZSz-3", "reg": "xiii-kesz", "conf": 0.93}, "geometry": {"type": "Point", "coordinates": [19.057485, 47.5280769]}}, {"type": "Feature", "properties": {"code": "Ln-T/T-1", "reg": "xiii-kesz", "conf": 0.926}, "geometry": {"type": "Point", "coordinates": [19.0592389, 47.526735]}}, {"type": "Feature", "properties": {"code": "Vt-M/Z-4", "reg": "xiii-kesz", "conf": 0.92}, "geometry": {"type": "Point", "coordinates": [19.0670463, 47.5308621]}}, {"type": "Feature", "properties": {"code": "Ln-T/SZ-2-AI", "reg": "xiii-kesz", "conf": 0.912}, "geometry": {"type": "Point", "coordinates": [19.070028, 47.5254634]}}, {"type": "Feature", "properties": {"code": "Vi-1/Z-14", "reg": "xiii-kesz", "conf": 0.911}, "geometry": {"type": "Point", "coordinates": [19.064417, 47.5250541]}}, {"type": "Feature", "properties": {"code": "Ln-2/ZSz-5", "reg": "xiii-kesz", "conf": 0.908}, "geometry": {"type": "Point", "coordinates": [19.070309, 47.5287724]}}, {"type": "Feature", "properties": {"code": "Ln-T/T-2", "reg": "xiii-kesz", "conf": 0.892}, "geometry": {"type": "Point", "coordinates": [19.0605256, 47.5277414]}}, {"type": "Feature", "properties": {"code": "Ln-2/B-9", "reg": "xiii-kesz", "conf": 0.892}, "geometry": {"type": "Point", "coordinates": [19.0700738, 47.5292611]}}, {"type": "Feature", "properties": {"code": "Vt-M/ZSz-4", "reg": "xiii-kesz", "conf": 0.89}, "geometry": {"type": "Point", "coordinates": [19.0638458, 47.5327332]}}, {"type": "Feature", "properties": {"code": "Vi-1/Z-2", "reg": "xiii-kesz", "conf": 0.87}, "geometry": {"type": "Point", "coordinates": [19.0635198, 47.5315274]}}, {"type": "Feature", "properties": {"code": "Vi-2/SZ-11", "reg": "xiii-kesz", "conf": 0.808}, "geometry": {"type": "Point", "coordinates": [19.0558104, 47.5278969]}}, {"type": "Feature", "properties": {"code": "Vt-M/Z-3", "reg": "xiii-kesz", "conf": 0.902}, "geometry": {"type": "Point", "coordinates": [19.0703731, 47.5339957]}}, {"type": "Feature", "properties": {"code": "Ln-2/ZSz-3", "reg": "xiii-kesz", "conf": 0.944}, "geometry": {"type": "Point", "coordinates": [19.0578327, 47.5291237]}}, {"type": "Feature", "properties": {"code": "Vi-1/SZ-1", "reg": "xiii-kesz", "conf": 0.927}, "geometry": {"type": "Point", "coordinates": [19.0631857, 47.5273442]}}, {"type": "Feature", "properties": {"code": "Vi-2/SZ-6", "reg": "xiii-kesz", "conf": 0.981}, "geometry": {"type": "Point", "coordinates": [19.055606, 47.525438]}}, {"type": "Feature", "properties": {"code": "Ln-T/Kp-1", "reg": "xiii-kesz", "conf": 1.0}, "geometry": {"type": "Point", "coordinates": [19.0675871, 47.5280951]}}, {"type": "Feature", "properties": {"code": "Zkp-Kp-1", "reg": "xiii-kesz", "conf": 0.999}, "geometry": {"type": "Point", "coordinates": [19.082052, 47.5305935]}}, {"type": "Feature", "properties": {"code": "Ln-T/Kp-1", "reg": "xiii-kesz", "conf": 0.999}, "geometry": {"type": "Point", "coordinates": [19.0719847, 47.5265283]}}, {"type": "Feature", "properties": {"code": "Vi-1/Z-14", "reg": "xiii-kesz", "conf": 0.997}, "geometry": {"type": "Point", "coordinates": [19.0659332, 47.5288647]}}, {"type": "Feature", "properties": {"code": "Ln-T/T-1", "reg": "xiii-kesz", "conf": 0.996}, "geometry": {"type": "Point", "coordinates": [19.0771945, 47.5315133]}}, {"type": "Feature", "properties": {"code": "Ln-T/T-1", "reg": "xiii-kesz", "conf": 0.996}, "geometry": {"type": "Point", "coordinates": [19.0682727, 47.5300579]}}, {"type": "Feature", "properties": {"code": "Vi-1/Z-7", "reg": "xiii-kesz", "conf": 0.996}, "geometry": {"type": "Point", "coordinates": [19.0655962, 47.527621]}}, {"type": "Feature", "properties": {"code": "Vt-M/Z-2", "reg": "xiii-kesz", "conf": 0.995}, "geometry": {"type": "Point", "coordinates": [19.069127, 47.5358069]}}, {"type": "Feature", "properties": {"code": "Ek", "reg": "xiii-kesz", "conf": 0.994}, "geometry": {"type": "Point", "coordinates": [19.0648032, 47.531903]}}, {"type": "Feature", "properties": {"code": "Ln-T/T-1", "reg": "xiii-kesz", "conf": 0.994}, "geometry": {"type": "Point", "coordinates": [19.0747457, 47.5330285]}}, {"type": "Feature", "properties": {"code": "Ln-T/T-1", "reg": "xiii-kesz", "conf": 0.994}, "geometry": {"type": "Point", "coordinates": [19.0789597, 47.5311502]}}, {"type": "Feature", "properties": {"code": "Vi-1/Z-19", "reg": "xiii-kesz", "conf": 0.994}, "geometry": {"type": "Point", "coordinates": [19.0773694, 47.5269748]}}, {"type": "Feature", "properties": {"code": "Ln-2/SZ-1", "reg": "xiii-kesz", "conf": 0.994}, "geometry": {"type": "Point", "coordinates": [19.084206, 47.5264638]}}, {"type": "Feature", "properties": {"code": "Vi-2/SZ-5", "reg": "xiii-kesz", "conf": 0.993}, "geometry": {"type": "Point", "coordinates": [19.072704, 47.5281545]}}, {"type": "Feature", "properties": {"code": "Ln-T/T-1", "reg": "xiii-kesz", "conf": 0.992}, "geometry": {"type": "Point", "coordinates": [19.0661239, 47.5354691]}}, {"type": "Feature", "properties": {"code": "Ln-T/T-1", "reg": "xiii-kesz", "conf": 0.992}, "geometry": {"type": "Point", "coordinates": [19.0714828, 47.5275682]}}, {"type": "Feature", "properties": {"code": "Ln-2/B-8", "reg": "xiii-kesz", "conf": 0.992}, "geometry": {"type": "Point", "coordinates": [19.0671221, 47.5261585]}}, {"type": "Feature", "properties": {"code": "Vt-M/Kt-1", "reg": "xiii-kesz", "conf": 0.99}, "geometry": {"type": "Point", "coordinates": [19.06847, 47.5333436]}}, {"type": "Feature", "properties": {"code": "Vt-H/SZ-3", "reg": "xiii-kesz", "conf": 0.99}, "geometry": {"type": "Point", "coordinates": [19.07994, 47.5323355]}}, {"type": "Feature", "properties": {"code": "Zkp-Kk-1", "reg": "xiii-kesz", "conf": 0.99}, "geometry": {"type": "Point", "coordinates": [19.0800915, 47.5309291]}}, {"type": "Feature", "properties": {"code": "Vi-2/SZ-3", "reg": "xiii-kesz", "conf": 0.989}, "geometry": {"type": "Point", "coordinates": [19.0815369, 47.5347976]}}, {"type": "Feature", "properties": {"code": "Vi-1/Z-4", "reg": "xiii-kesz", "conf": 0.989}, "geometry": {"type": "Point", "coordinates": [19.0741441, 47.5286515]}}, {"type": "Feature", "properties": {"code": "Vi-1/Z-21", "reg": "xiii-kesz", "conf": 0.989}, "geometry": {"type": "Point", "coordinates": [19.0746191, 47.5290259]}}, {"type": "Feature", "properties": {"code": "Vi-1/Z-4", "reg": "xiii-kesz", "conf": 0.989}, "geometry": {"type": "Point", "coordinates": [19.0756161, 47.5276826]}}, {"type": "Feature", "properties": {"code": "Vi-1/Z-32", "reg": "xiii-kesz", "conf": 0.989}, "geometry": {"type": "Point", "coordinates": [19.0830473, 47.5280168]}}, {"type": "Feature", "properties": {"code": "Ln-1/ZU-3", "reg": "xiii-kesz", "conf": 0.989}, "geometry": {"type": "Point", "coordinates": [19.0684493, 47.526139]}}, {"type": "Feature", "properties": {"code": "Vt-M/Z-3", "reg": "xiii-kesz", "conf": 0.986}, "geometry": {"type": "Point", "coordinates": [19.0713081, 47.5353751]}}, {"type": "Feature", "properties": {"code": "Vt-M/ZU-2", "reg": "xiii-kesz", "conf": 0.986}, "geometry": {"type": "Point", "coordinates": [19.0649497, 47.531343]}}, {"type": "Feature", "properties": {"code": "Vt-H/B-1", "reg": "xiii-kesz", "conf": 0.986}, "geometry": {"type": "Point", "coordinates": [19.0822323, 47.5316116]}}, {"type": "Feature", "properties": {"code": "Ln-2/Z-2", "reg": "xiii-kesz", "conf": 0.986}, "geometry": {"type": "Point", "coordinates": [19.0784778, 47.5277043]}}, {"type": "Feature", "properties": {"code": "Vt-M/ZSz-2", "reg": "xiii-kesz", "conf": 0.985}, "geometry": {"type": "Point", "coordinates": [19.0696894, 47.5330446]}}, {"type": "Feature", "properties": {"code": "Vt-H/SZ-Te", "reg": "xiii-kesz", "conf": 0.985}, "geometry": {"type": "Point", "coordinates": [19.0816966, 47.5309245]}}, {"type": "Feature", "properties": {"code": "Ln-2/B-11", "reg": "xiii-kesz", "conf": 0.985}, "geometry": {"type": "Point", "coordinates": [19.0831907, 47.5328954]}}, {"type": "Feature", "properties": {"code": "Ln-2/B-5", "reg": "xiii-kesz", "conf": 0.985}, "geometry": {"type": "Point", "coordinates": [19.0820013, 47.5267754]}}, {"type": "Feature", "properties": {"code": "Vt-H/SZ-4", "reg": "xiii-kesz", "conf": 0.983}, "geometry": {"type": "Point", "coordinates": [19.0826921, 47.5320067]}}, {"type": "Feature", "properties": {"code": "Vi-1/Z-7", "reg": "xiii-kesz", "conf": 0.981}, "geometry": {"type": "Point", "coordinates": [19.073797, 47.5264733]}}, {"type": "Feature", "properties": {"code": "Vi-1/Z-7", "reg": "xiii-kesz", "conf": 0.978}, "geometry": {"type": "Point", "coordinates": [19.0651229, 47.5266178]}}, {"type": "Feature", "properties": {"code": "Vt-M/Z-3", "reg": "xiii-kesz", "conf": 0.977}, "geometry": {"type": "Point", "coordinates": [19.0674829, 47.5316029]}}, {"type": "Feature", "properties": {"code": "Ln-2/Z-21", "reg": "xiii-kesz", "conf": 0.973}, "geometry": {"type": "Point", "coordinates": [19.0759618, 47.5347119]}}, {"type": "Feature", "properties": {"code": "Ln-T/SZ-1-AI", "reg": "xiii-kesz", "conf": 0.967}, "geometry": {"type": "Point", "coordinates": [19.0666696, 47.5359742]}}, {"type": "Feature", "properties": {"code": "Ln-T/SZ-1-AI", "reg": "xiii-kesz", "conf": 0.967}, "geometry": {"type": "Point", "coordinates": [19.0777925, 47.5325325]}}, {"type": "Feature", "properties": {"code": "Ln-2/Z-11", "reg": "xiii-kesz", "conf": 0.965}, "geometry": {"type": "Point", "coordinates": [19.0728054, 47.5345379]}}, {"type": "Feature", "properties": {"code": "Ln-2/Z-11", "reg": "xiii-kesz", "conf": 0.964}, "geometry": {"type": "Point", "coordinates": [19.0743634, 47.5350292]}}, {"type": "Feature", "properties": {"code": "Vt-M/ZU-1", "reg": "xiii-kesz", "conf": 0.961}, "geometry": {"type": "Point", "coordinates": [19.0699655, 47.5317585]}}, {"type": "Feature", "properties": {"code": "Ln-T/SZ-1-AI", "reg": "xiii-kesz", "conf": 0.961}, "geometry": {"type": "Point", "coordinates": [19.0758388, 47.5328944]}}, {"type": "Feature", "properties": {"code": "Ln-T/SZ-1-AI", "reg": "xiii-kesz", "conf": 0.959}, "geometry": {"type": "Point", "coordinates": [19.0708259, 47.5260141]}}, {"type": "Feature", "properties": {"code": "Ln-2/B-9", "reg": "xiii-kesz", "conf": 0.955}, "geometry": {"type": "Point", "coordinates": [19.0701018, 47.5292643]}}, {"type": "Feature", "properties": {"code": "Ln-T/SZ-2-AI", "reg": "xiii-kesz", "conf": 0.954}, "geometry": {"type": "Point", "coordinates": [19.0700443, 47.5254633]}}, {"type": "Feature", "properties": {"code": "Ln-2/B-11", "reg": "xiii-kesz", "conf": 0.952}, "geometry": {"type": "Point", "coordinates": [19.0843882, 47.5310103]}}, {"type": "Feature", "properties": {"code": "Vi-2/SZ-3", "reg": "xiii-kesz", "conf": 0.948}, "geometry": {"type": "Point", "coordinates": [19.0783922, 47.533664]}}, {"type": "Feature", "properties": {"code": "Vi-1/Z-12", "reg": "xiii-kesz", "conf": 0.948}, "geometry": {"type": "Point", "coordinates": [19.0768927, 47.5255444]}}, {"type": "Feature", "properties": {"code": "Ln-T/T-1", "reg": "xiii-kesz", "conf": 0.941}, "geometry": {"type": "Point", "coordinates": [19.0678836, 47.5285589]}}, {"type": "Feature", "properties": {"code": "Vi-1/Z-46", "reg": "xiii-kesz", "conf": 0.94}, "geometry": {"type": "Point", "coordinates": [19.0750536, 47.5279689]}}, {"type": "Feature", "properties": {"code": "Ln-1/ZU-3", "reg": "xiii-kesz", "conf": 0.937}, "geometry": {"type": "Point", "coordinates": [19.0678598, 47.5249927]}}, {"type": "Feature", "properties": {"code": "Lk-1/B-1", "reg": "xiii-kesz", "conf": 0.936}, "geometry": {"type": "Point", "coordinates": [19.069507, 47.5250602]}}, {"type": "Feature", "properties": {"code": "Ek", "reg": "xiii-kesz", "conf": 0.93}, "geometry": {"type": "Point", "coordinates": [19.0674479, 47.5298996]}}, {"type": "Feature", "properties": {"code": "Vi-2/Z-6", "reg": "xiii-kesz", "conf": 0.929}, "geometry": {"type": "Point", "coordinates": [19.0804605, 47.5334807]}}, {"type": "Feature", "properties": {"code": "Lk-1/B-1", "reg": "xiii-kesz", "conf": 0.927}, "geometry": {"type": "Point", "coordinates": [19.0695003, 47.5250602]}}, {"type": "Feature", "properties": {"code": "Vt-M/Z-4", "reg": "xiii-kesz", "conf": 0.921}, "geometry": {"type": "Point", "coordinates": [19.0665766, 47.5299229]}}, {"type": "Feature", "properties": {"code": "Vt-M/ZU-1", "reg": "xiii-kesz", "conf": 0.92}, "geometry": {"type": "Point", "coordinates": [19.0712591, 47.5327216]}}, {"type": "Feature", "properties": {"code": "Vi-1/Z-33", "reg": "xiii-kesz", "conf": 0.913}, "geometry": {"type": "Point", "coordinates": [19.0825083, 47.5275484]}}, {"type": "Feature", "properties": {"code": "Vi-1/Z-20", "reg": "xiii-kesz", "conf": 0.906}, "geometry": {"type": "Point", "coordinates": [19.0762141, 47.5282483]}}, {"type": "Feature", "properties": {"code": "Ln-2/Z-15", "reg": "xiii-kesz", "conf": 0.879}, "geometry": {"type": "Point", "coordinates": [19.0752306, 47.5308697]}}, {"type": "Feature", "properties": {"code": "Zkp-Kk-1", "reg": "xiii-kesz", "conf": 0.877}, "geometry": {"type": "Point", "coordinates": [19.0733898, 47.5327227]}}, {"type": "Feature", "properties": {"code": "Vi-1/Z-13", "reg": "xiii-kesz", "conf": 0.857}, "geometry": {"type": "Point", "coordinates": [19.0744437, 47.5253028]}}, {"type": "Feature", "properties": {"code": "Vi-1/Z-1", "reg": "xiii-kesz", "conf": 0.794}, "geometry": {"type": "Point", "coordinates": [19.0744109, 47.525304]}}, {"type": "Feature", "properties": {"code": "Vi-2/SZ-8", "reg": "xiii-kesz", "conf": 0.911}, "geometry": {"type": "Point", "coordinates": [19.0786516, 47.5342366]}}, {"type": "Feature", "properties": {"code": "Vt-M/Z-3", "reg": "xiii-kesz", "conf": 0.873}, "geometry": {"type": "Point", "coordinates": [19.0703834, 47.5339997]}}, {"type": "Feature", "properties": {"code": "Ek", "reg": "xiii-kesz", "conf": 0.702}, "geometry": {"type": "Point", "coordinates": [19.0650518, 47.5318707]}}, {"type": "Feature", "properties": {"code": "Zkk-2/Vt", "reg": "xiii-kesz", "conf": 0.955}, "geometry": {"type": "Point", "coordinates": [19.0795981, 47.5317881]}}, {"type": "Feature", "properties": {"code": "Ek", "reg": "xiii-kesz", "conf": 0.337}, "geometry": {"type": "Point", "coordinates": [19.0842605, 47.530885]}}, {"type": "Feature", "properties": {"code": "K-Hon/SZ-1-Eü", "reg": "xiii-kesz", "conf": 0.961}, "geometry": {"type": "Point", "coordinates": [19.0725509, 47.5307266]}}, {"type": "Feature", "properties": {"code": "Vt-H/B-2", "reg": "xiii-kesz", "conf": 0.928}, "geometry": {"type": "Point", "coordinates": [19.0837935, 47.5295708]}}, {"type": "Feature", "properties": {"code": "Ek", "reg": "xiii-kesz", "conf": 0.26}, "geometry": {"type": "Point", "coordinates": [19.0843482, 47.5273605]}}, {"type": "Feature", "properties": {"code": "K-EÜ/SZ-1", "reg": "xiii-kesz", "conf": 0.978}, "geometry": {"type": "Point", "coordinates": [19.0801267, 47.527182]}}, {"type": "Feature", "properties": {"code": "Ln-T/SZ-1-AI", "reg": "xiii-kesz", "conf": 0.943}, "geometry": {"type": "Point", "coordinates": [19.0726416, 47.5269199]}}, {"type": "Feature", "properties": {"code": "Ln-2/B-11", "reg": "xiii-kesz", "conf": 1.0}, "geometry": {"type": "Point", "coordinates": [19.0868744, 47.5308485]}}, {"type": "Feature", "properties": {"code": "Ln-2/B-11", "reg": "xiii-kesz", "conf": 0.999}, "geometry": {"type": "Point", "coordinates": [19.0867581, 47.5352896]}}, {"type": "Feature", "properties": {"code": "Zkp-Kp-1", "reg": "xiii-kesz", "conf": 0.999}, "geometry": {"type": "Point", "coordinates": [19.0820686, 47.5305872]}}, {"type": "Feature", "properties": {"code": "Ln-T/T-1", "reg": "xiii-kesz", "conf": 0.994}, "geometry": {"type": "Point", "coordinates": [19.078984, 47.5311458]}}, {"type": "Feature", "properties": {"code": "Vt-H/SZ-3", "reg": "xiii-kesz", "conf": 0.991}, "geometry": {"type": "Point", "coordinates": [19.079962, 47.532329]}}, {"type": "Feature", "properties": {"code": "Ln-2/SZ-1", "reg": "xiii-kesz", "conf": 0.991}, "geometry": {"type": "Point", "coordinates": [19.0842146, 47.5264613]}}, {"type": "Feature", "properties": {"code": "Zkp-Kk-1", "reg": "xiii-kesz", "conf": 0.99}, "geometry": {"type": "Point", "coordinates": [19.0801108, 47.5309195]}}, {"type": "Feature", "properties": {"code": "Vi-2/SZ-3", "reg": "xiii-kesz", "conf": 0.988}, "geometry": {"type": "Point", "coordinates": [19.081565, 47.5347873]}}, {"type": "Feature", "properties": {"code": "Vi-1/Z-32", "reg": "xiii-kesz", "conf": 0.988}, "geometry": {"type": "Point", "coordinates": [19.0830616, 47.5280124]}}, {"type": "Feature", "properties": {"code": "Ln-2/B-10", "reg": "xiii-kesz", "conf": 0.986}, "geometry": {"type": "Point", "coordinates": [19.0851046, 47.5309953]}}, {"type": "Feature", "properties": {"code": "Ln-2/B-13", "reg": "xiii-kesz", "conf": 0.986}, "geometry": {"type": "Point", "coordinates": [19.0871618, 47.5288703]}}, {"type": "Feature", "properties": {"code": "Vt-H/SZ-4", "reg": "xiii-kesz", "conf": 0.982}, "geometry": {"type": "Point", "coordinates": [19.0827123, 47.5319995]}}, {"type": "Feature", "properties": {"code": "Ln-2/B-11", "reg": "xiii-kesz", "conf": 0.982}, "geometry": {"type": "Point", "coordinates": [19.0844014, 47.5310005]}}, {"type": "Feature", "properties": {"code": "Vt-H/B-1", "reg": "xiii-kesz", "conf": 0.979}, "geometry": {"type": "Point", "coordinates": [19.0822539, 47.5316041]}}, {"type": "Feature", "properties": {"code": "Ln-2/B-12", "reg": "xiii-kesz", "conf": 0.978}, "geometry": {"type": "Point", "coordinates": [19.0902559, 47.5342856]}}, {"type": "Feature", "properties": {"code": "Ln-2/B-11", "reg": "xiii-kesz", "conf": 0.969}, "geometry": {"type": "Point", "coordinates": [19.0832153, 47.5328822]}}, {"type": "Feature", "properties": {"code": "Ln-2/B-12", "reg": "xiii-kesz", "conf": 0.967}, "geometry": {"type": "Point", "coordinates": [19.0909361, 47.5354599]}}, {"type": "Feature", "properties": {"code": "Vt-H/SZ-Te", "reg": "xiii-kesz", "conf": 0.967}, "geometry": {"type": "Point", "coordinates": [19.0817176, 47.5309181]}}, {"type": "Feature", "properties": {"code": "Ln-2/B-11", "reg": "xiii-kesz", "conf": 0.96}, "geometry": {"type": "Point", "coordinates": [19.089554, 47.535945]}}, {"type": "Feature", "properties": {"code": "Ln-2/SZ-1-AI", "reg": "xiii-kesz", "conf": 0.952}, "geometry": {"type": "Point", "coordinates": [19.0846242, 47.5313996]}}, {"type": "Feature", "properties": {"code": "Ln-2/B-13", "reg": "xiii-kesz", "conf": 0.95}, "geometry": {"type": "Point", "coordinates": [19.0886625, 47.5315299]}}, {"type": "Feature", "properties": {"code": "Ln-2/B-11", "reg": "xiii-kesz", "conf": 0.948}, "geometry": {"type": "Point", "coordinates": [19.0860875, 47.5338819]}}, {"type": "Feature", "properties": {"code": "Ln-2/B-5", "reg": "xiii-kesz", "conf": 0.948}, "geometry": {"type": "Point", "coordinates": [19.0849438, 47.5249883]}}, {"type": "Feature", "properties": {"code": "Ln-2/B-5", "reg": "xiii-kesz", "conf": 0.946}, "geometry": {"type": "Point", "coordinates": [19.0820128, 47.526772]}}, {"type": "Feature", "properties": {"code": "Ln-2/B-6", "reg": "xiii-kesz", "conf": 0.945}, "geometry": {"type": "Point", "coordinates": [19.0866823, 47.5261434]}}, {"type": "Feature", "properties": {"code": "Ln-2/Kp-1", "reg": "xiii-kesz", "conf": 0.924}, "geometry": {"type": "Point", "coordinates": [19.0914204, 47.5362088]}}, {"type": "Feature", "properties": {"code": "Ln-2/B-14", "reg": "xiii-kesz", "conf": 0.909}, "geometry": {"type": "Point", "coordinates": [19.0852453, 47.5324446]}}, {"type": "Feature", "properties": {"code": "Ln-2/B-11", "reg": "xiii-kesz", "conf": 0.892}, "geometry": {"type": "Point", "coordinates": [19.0885964, 47.5330916]}}, {"type": "Feature", "properties": {"code": "Ln-2/B-11", "reg": "xiii-kesz", "conf": 0.889}, "geometry": {"type": "Point", "coordinates": [19.087488, 47.5350979]}}, {"type": "Feature", "properties": {"code": "Vt-H/SZ-5", "reg": "xiii-kesz", "conf": 0.782}, "geometry": {"type": "Point", "coordinates": [19.0816987, 47.5297742]}}, {"type": "Feature", "properties": {"code": "Zkp-Kk-1", "reg": "xiii-kesz", "conf": 0.949}, "geometry": {"type": "Point", "coordinates": [19.0901023, 47.5367625]}}, {"type": "Feature", "properties": {"code": "Zkk-2/Vt", "reg": "xiii-kesz", "conf": 0.987}, "geometry": {"type": "Point", "coordinates": [19.0796211, 47.5317825]}}, {"type": "Feature", "properties": {"code": "Ek", "reg": "xiii-kesz", "conf": 0.286}, "geometry": {"type": "Point", "coordinates": [19.0842776, 47.530877]}}, {"type": "Feature", "properties": {"code": "Vt-H/B-2", "reg": "xiii-kesz", "conf": 0.747}, "geometry": {"type": "Point", "coordinates": [19.0838115, 47.5295641]}}, {"type": "Feature", "properties": {"code": "Ek", "reg": "xiii-kesz", "conf": 0.41}, "geometry": {"type": "Point", "coordinates": [19.0855628, 47.5256456]}}, {"type": "Feature", "properties": {"code": "Zkp-Kp-2", "reg": "xiii-kesz", "conf": 0.998}, "geometry": {"type": "Point", "coordinates": [19.0556877, 47.5274312]}}, {"type": "Feature", "properties": {"code": "Zkp-Kk-1", "reg": "xiii-kesz", "conf": 0.998}, "geometry": {"type": "Point", "coordinates": [19.0521762, 47.5182408]}}, {"type": "Feature", "properties": {"code": "Vi-1/Z-7", "reg": "xiii-kesz", "conf": 0.997}, "geometry": {"type": "Point", "coordinates": [19.0655893, 47.5276459]}}, {"type": "Feature", "properties": {"code": "K-Hon/SZ-SP", "reg": "xiii-kesz", "conf": 0.997}, "geometry": {"type": "Point", "coordinates": [19.0696026, 47.5226264]}}, {"type": "Feature", "properties": {"code": "Vi-1/Z-34", "reg": "xiii-kesz", "conf": 0.997}, "geometry": {"type": "Point", "coordinates": [19.0677101, 47.5211522]}}, {"type": "Feature", "properties": {"code": "Zkp-Kp-2", "reg": "xiii-kesz", "conf": 0.996}, "geometry": {"type": "Point", "coordinates": [19.0539799, 47.5237362]}}, {"type": "Feature", "properties": {"code": "Vi-1/Z-22", "reg": "xiii-kesz", "conf": 0.996}, "geometry": {"type": "Point", "coordinates": [19.0559306, 47.5221428]}}, {"type": "Feature", "properties": {"code": "Ln-2/T-1", "reg": "xiii-kesz", "conf": 0.996}, "geometry": {"type": "Point", "coordinates": [19.059639, 47.5207188]}}, {"type": "Feature", "properties": {"code": "Vi-1/Z-11", "reg": "xiii-kesz", "conf": 0.995}, "geometry": {"type": "Point", "coordinates": [19.0643647, 47.5245997]}}, {"type": "Feature", "properties": {"code": "Ln-2/Z-24", "reg": "xiii-kesz", "conf": 0.994}, "geometry": {"type": "Point", "coordinates": [19.0547843, 47.5198233]}}, {"type": "Feature", "properties": {"code": "Ln-2/Z-10", "reg": "xiii-kesz", "conf": 0.993}, "geometry": {"type": "Point", "coordinates": [19.0651639, 47.5180461]}}, {"type": "Feature", "properties": {"code": "Vi-1/Z-5", "reg": "xiii-kesz", "conf": 0.992}, "geometry": {"type": "Point", "coordinates": [19.0629821, 47.5267868]}}, {"type": "Feature", "properties": {"code": "Vi-1/Z-23", "reg": "xiii-kesz", "conf": 0.992}, "geometry": {"type": "Point", "coordinates": [19.0617735, 47.5243643]}}, {"type": "Feature", "properties": {"code": "Vi-1/Z-35", "reg": "xiii-kesz", "conf": 0.992}, "geometry": {"type": "Point", "coordinates": [19.0657371, 47.5236842]}}, {"type": "Feature", "properties": {"code": "Ln-2/KA-1", "reg": "xiii-kesz", "conf": 0.991}, "geometry": {"type": "Point", "coordinates": [19.0591664, 47.5222839]}}, {"type": "Feature", "properties": {"code": "Ln-T/T-1", "reg": "xiii-kesz", "conf": 0.99}, "geometry": {"type": "Point", "coordinates": [19.0595448, 47.5257805]}}, {"type": "Feature", "properties": {"code": "Zkp-Kk-2", "reg": "xiii-kesz", "conf": 0.99}, "geometry": {"type": "Point", "coordinates": [19.0533251, 47.5225462]}}, {"type": "Feature", "properties": {"code": "Ln-2/B-4", "reg": "xiii-kesz", "conf": 0.99}, "geometry": {"type": "Point", "coordinates": [19.0646856, 47.5204341]}}, {"type": "Feature", "properties": {"code": "Ln-2/B-8", "reg": "xiii-kesz", "conf": 0.989}, "geometry": {"type": "Point", "coordinates": [19.0671142, 47.5261798]}}, {"type": "Feature", "properties": {"code": "Ek", "reg": "xiii-kesz", "conf": 0.988}, "geometry": {"type": "Point", "coordinates": [19.0576161, 47.5222516]}}, {"type": "Feature", "properties": {"code": "Ln-2/Z-1", "reg": "xiii-kesz", "conf": 0.988}, "geometry": {"type": "Point", "coordinates": [19.0648262, 47.5173171]}}, {"type": "Feature", "properties": {"code": "Ln-2/ZSz-7", "reg": "xiii-kesz", "conf": 0.986}, "geometry": {"type": "Point", "coordinates": [19.055127, 47.5205168]}}, {"type": "Feature", "properties": {"code": "K-Hon/SZ-2", "reg": "xiii-kesz", "conf": 0.986}, "geometry": {"type": "Point", "coordinates": [19.0697143, 47.5218171]}}, {"type": "Feature", "properties": {"code": "Zkp-Kp-1", "reg": "xiii-kesz", "conf": 0.985}, "geometry": {"type": "Point", "coordinates": [19.060893, 47.5255782]}}, {"type": "Feature", "properties": {"code": "Ln-1/ZU-3", "reg": "xiii-kesz", "conf": 0.985}, "geometry": {"type": "Point", "coordinates": [19.0684374, 47.526163]}}, {"type": "Feature", "properties": {"code": "Ln-2/Z-19", "reg": "xiii-kesz", "conf": 0.985}, "geometry": {"type": "Point", "coordinates": [19.0660754, 47.5173473]}}, {"type": "Feature", "properties": {"code": "Vi-1/Z-24", "reg": "xiii-kesz", "conf": 0.984}, "geometry": {"type": "Point", "coordinates": [19.0616277, 47.5273119]}}, {"type": "Feature", "properties": {"code": "Vi-1/Z-41", "reg": "xiii-kesz", "conf": 0.984}, "geometry": {"type": "Point", "coordinates": [19.0639856, 47.5218711]}}, {"type": "Feature", "properties": {"code": "Vi-1/Z-25", "reg": "xiii-kesz", "conf": 0.983}, "geometry": {"type": "Point", "coordinates": [19.0648182, 47.522642]}}, {"type": "Feature", "properties": {"code": "Vi-2/Z-2", "reg": "xiii-kesz", "conf": 0.982}, "geometry": {"type": "Point", "coordinates": [19.0567113, 47.5268663]}}, {"type": "Feature", "properties": {"code": "Ln-2/Z-6", "reg": "xiii-kesz", "conf": 0.982}, "geometry": {"type": "Point", "coordinates": [19.0588219, 47.5215126]}}, {"type": "Feature", "properties": {"code": "Vi-1/Z-22", "reg": "xiii-kesz", "conf": 0.98}, "geometry": {"type": "Point", "coordinates": [19.0575462, 47.5217641]}}, {"type": "Feature", "properties": {"code": "Ln-2/A-2", "reg": "xiii-kesz", "conf": 0.979}, "geometry": {"type": "Point", "coordinates": [19.052, 47.5199098]}}, {"type": "Feature", "properties": {"code": "Vi-1/SZ-5", "reg": "xiii-kesz", "conf": 0.978}, "geometry": {"type": "Point", "coordinates": [19.0642881, 47.5215389]}}, {"type": "Feature", "properties": {"code": "Ln-2/Z-13", "reg": "xiii-kesz", "conf": 0.978}, "geometry": {"type": "Point", "coordinates": [19.0555726, 47.5213441]}}, {"type": "Feature", "properties": {"code": "Ln-2/Z-7", "reg": "xiii-kesz", "conf": 0.978}, "geometry": {"type": "Point", "coordinates": [19.0571427, 47.5209711]}}, {"type": "Feature", "properties": {"code": "Ln-2/SZ-3", "reg": "xiii-kesz", "conf": 0.977}, "geometry": {"type": "Point", "coordinates": [19.061311, 47.5234718]}}, {"type": "Feature", "properties": {"code": "Ln-2/Z-7", "reg": "xiii-kesz", "conf": 0.977}, "geometry": {"type": "Point", "coordinates": [19.0567292, 47.5201426]}}, {"type": "Feature", "properties": {"code": "Ln-2/ZSz-7", "reg": "xiii-kesz", "conf": 0.976}, "geometry": {"type": "Point", "coordinates": [19.0533202, 47.520147]}}, {"type": "Feature", "properties": {"code": "Ln-2/ZU-1", "reg": "xiii-kesz", "conf": 0.975}, "geometry": {"type": "Point", "coordinates": [19.0574861, 47.5209274]}}, {"type": "Feature", "properties": {"code": "Vt-V/Z-Vcs", "reg": "xiii-kesz", "conf": 0.974}, "geometry": {"type": "Point", "coordinates": [19.0612319, 47.5184778]}}, {"type": "Feature", "properties": {"code": "Ln-2/KA-1", "reg": "xiii-kesz", "conf": 0.973}, "geometry": {"type": "Point", "coordinates": [19.0595564, 47.5231146]}}, {"type": "Feature", "properties": {"code": "Zkk-1/Ln", "reg": "xiii-kesz", "conf": 0.968}, "geometry": {"type": "Point", "coordinates": [19.0578321, 47.5191129]}}, {"type": "Feature", "properties": {"code": "Ln-1/ZU-2", "reg": "xiii-kesz", "conf": 0.967}, "geometry": {"type": "Point", "coordinates": [19.0665458, 47.5253538]}}, {"type": "Feature", "properties": {"code": "Ln-T/SZ-2-AI", "reg": "xiii-kesz", "conf": 0.965}, "geometry": {"type": "Point", "coordinates": [19.0583425, 47.5267657]}}, {"type": "Feature", "properties": {"code": "Ln-T/Z-2", "reg": "xiii-kesz", "conf": 0.963}, "geometry": {"type": "Point", "coordinates": [19.0577196, 47.5255356]}}, {"type": "Feature", "properties": {"code": "Lk-1/B-1", "reg": "xiii-kesz", "conf": 0.959}, "geometry": {"type": "Point", "coordinates": [19.0694797, 47.5250795]}}, {"type": "Feature", "properties": {"code": "Vi-1/Z-7", "reg": "xiii-kesz", "conf": 0.958}, "geometry": {"type": "Point", "coordinates": [19.0651132, 47.5266412]}}, {"type": "Feature", "properties": {"code": "Ln-T/SZ-1", "reg": "xiii-kesz", "conf": 0.958}, "geometry": {"type": "Point", "coordinates": [19.0524747, 47.5211354]}}, {"type": "Feature", "properties": {"code": "Vt-V/SZ-Te", "reg": "xiii-kesz", "conf": 0.956}, "geometry": {"type": "Point", "coordinates": [19.0604989, 47.5167303]}}, {"type": "Feature", "properties": {"code": "Vi-1/Z-25", "reg": "xiii-kesz", "conf": 0.955}, "geometry": {"type": "Point", "coordinates": [19.066465, 47.5203929]}}, {"type": "Feature", "properties": {"code": "Ln-T/T-2", "reg": "xiii-kesz", "conf": 0.954}, "geometry": {"type": "Point", "coordinates": [19.0605273, 47.5277636]}}, {"type": "Feature", "properties": {"code": "Vi-2/SZ-6", "reg": "xiii-kesz", "conf": 0.953}, "geometry": {"type": "Point", "coordinates": [19.0556101, 47.5254568]}}, {"type": "Feature", "properties": {"code": "Vi-1/Z-11", "reg": "xiii-kesz", "conf": 0.952}, "geometry": {"type": "Point", "coordinates": [19.0622764, 47.5252889]}}, {"type": "Feature", "properties": {"code": "Ln-2/SZ-1-AI", "reg": "xiii-kesz", "conf": 0.951}, "geometry": {"type": "Point", "coordinates": [19.0604605, 47.5206817]}}, {"type": "Feature", "properties": {"code": "Vi-1/Z-14", "reg": "xiii-kesz", "conf": 0.95}, "geometry": {"type": "Point", "coordinates": [19.0644192, 47.5250747]}}, {"type": "Feature", "properties": {"code": "Vi-1/Z-15", "reg": "xiii-kesz", "conf": 0.948}, "geometry": {"type": "Point", "coordinates": [19.0702063, 47.5183462]}}, {"type": "Feature", "properties": {"code": "Ln-T/SZ-2-AI", "reg": "xiii-kesz", "conf": 0.945}, "geometry": {"type": "Point", "coordinates": [19.0700341, 47.5254821]}}, {"type": "Feature", "properties": {"code": "Ln-2/Z-6", "reg": "xiii-kesz", "conf": 0.942}, "geometry": {"type": "Point", "coordinates": [19.0607411, 47.5228151]}}, {"type": "Feature", "properties": {"code": "Ln-T/T-1", "reg": "xiii-kesz", "conf": 0.932}, "geometry": {"type": "Point", "coordinates": [19.0539872, 47.5216621]}}, {"type": "Feature", "properties": {"code": "Ln-2/SZ-2-AI", "reg": "xiii-kesz", "conf": 0.928}, "geometry": {"type": "Point", "coordinates": [19.0640401, 47.5198771]}}, {"type": "Feature", "properties": {"code": "Vi-2/Z-3", "reg": "xiii-kesz", "conf": 0.921}, "geometry": {"type": "Point", "coordinates": [19.0562686, 47.5268837]}}, {"type": "Feature", "properties": {"code": "Zkp-Kk-1", "reg": "xiii-kesz", "conf": 0.921}, "geometry": {"type": "Point", "coordinates": [19.0654205, 47.5210655]}}, {"type": "Feature", "properties": {"code": "Ln-2/A-1", "reg": "xiii-kesz", "conf": 0.917}, "geometry": {"type": "Point", "coordinates": [19.0574823, 47.5193626]}}, {"type": "Feature", "properties": {"code": "Vi-1/SZ-1-AI", "reg": "xiii-kesz", "conf": 0.904}, "geometry": {"type": "Point", "coordinates": [19.0629776, 47.5222071]}}, {"type": "Feature", "properties": {"code": "Ek", "reg": "xiii-kesz", "conf": 0.89}, "geometry": {"type": "Point", "coordinates": [19.0629205, 47.5228313]}}, {"type": "Feature", "properties": {"code": "Ln-2/Z-24", "reg": "xiii-kesz", "conf": 0.888}, "geometry": {"type": "Point", "coordinates": [19.0538729, 47.5192916]}}, {"type": "Feature", "properties": {"code": "Ln-T/T-1", "reg": "xiii-kesz", "conf": 0.881}, "geometry": {"type": "Point", "coordinates": [19.0535569, 47.5209126]}}, {"type": "Feature", "properties": {"code": "Lk-1/SZ-1", "reg": "xiii-kesz", "conf": 0.871}, "geometry": {"type": "Point", "coordinates": [19.068301, 47.5236723]}}, {"type": "Feature", "properties": {"code": "Ln-2/A-2", "reg": "xiii-kesz", "conf": 0.848}, "geometry": {"type": "Point", "coordinates": [19.0524932, 47.5186538]}}, {"type": "Feature", "properties": {"code": "Ek", "reg": "xiii-kesz", "conf": 0.815}, "geometry": {"type": "Point", "coordinates": [19.0669356, 47.5207391]}}, {"type": "Feature", "properties": {"code": "Vi-1/SZ-1-AI", "reg": "xiii-kesz", "conf": 0.925}, "geometry": {"type": "Point", "coordinates": [19.0632405, 47.5273647]}}, {"type": "Feature", "properties": {"code": "Ek", "reg": "xiii-kesz", "conf": 0.239}, "geometry": {"type": "Point", "coordinates": [19.0612594, 47.5266143]}}, {"type": "Feature", "properties": {"code": "Vi-1/T-1", "reg": "xiii-kesz", "conf": 0.922}, "geometry": {"type": "Point", "coordinates": [19.0627169, 47.5260773]}}, {"type": "Feature", "properties": {"code": "Ln-2/KA-2", "reg": "xiii-kesz", "conf": 0.905}, "geometry": {"type": "Point", "coordinates": [19.0588624, 47.524104]}}, {"type": "Feature", "properties": {"code": "Ln-2/Z-6", "reg": "xiii-kesz", "conf": 0.945}, "geometry": {"type": "Point", "coordinates": [19.0599784, 47.5239568]}}, {"type": "Feature", "properties": {"code": "Ek", "reg": "xiii-kesz", "conf": 0.298}, "geometry": {"type": "Point", "coordinates": [19.0632259, 47.5223342]}}, {"type": "Feature", "properties": {"code": "Ln-2/Z-24", "reg": "xiii-kesz", "conf": 0.938}, "geometry": {"type": "Point", "coordinates": [19.0608521, 47.5202007]}}, {"type": "Feature", "properties": {"code": "Ln-2/SZ-1-AI", "reg": "xiii-kesz", "conf": 0.947}, "geometry": {"type": "Point", "coordinates": [19.0546814, 47.5196208]}}, {"type": "Feature", "properties": {"code": "Ln-T/Kp-1", "reg": "xiii-kesz", "conf": 0.999}, "geometry": {"type": "Point", "coordinates": [19.071994, 47.5265457]}}, {"type": "Feature", "properties": {"code": "K-Hon/SZ-2", "reg": "xiii-kesz", "conf": 0.997}, "geometry": {"type": "Point", "coordinates": [19.0747609, 47.5225711]}}, {"type": "Feature", "properties": {"code": "Ln-2/B-5", "reg": "xiii-kesz", "conf": 0.995}, "geometry": {"type": "Point", "coordinates": [19.0847603, 47.5239516]}}, {"type": "Feature", "properties": {"code": "K-Hon/SZ-2", "reg": "xiii-kesz", "conf": 0.995}, "geometry": {"type": "Point", "coordinates": [19.0712997, 47.5210173]}}, {"type": "Feature", "properties": {"code": "Vi-2/SZ-5", "reg": "xiii-kesz", "conf": 0.994}, "geometry": {"type": "Point", "coordinates": [19.0728281, 47.5223104]}}, {"type": "Feature", "properties": {"code": "Vi-2/SZ-5", "reg": "xiii-kesz", "conf": 0.994}, "geometry": {"type": "Point", "coordinates": [19.0715683, 47.5201923]}}, {"type": "Feature", "properties": {"code": "Vi-1/SZ-6", "reg": "xiii-kesz", "conf": 0.993}, "geometry": {"type": "Point", "coordinates": [19.0774202, 47.5235648]}}, {"type": "Feature", "properties": {"code": "Vi-1/Z-32", "reg": "xiii-kesz", "conf": 0.992}, "geometry": {"type": "Point", "coordinates": [19.0825127, 47.5237533]}}, {"type": "Feature", "properties": {"code": "Vi-2/SZ-5", "reg": "xiii-kesz", "conf": 0.991}, "geometry": {"type": "Point", "coordinates": [19.078616, 47.5224395]}}, {"type": "Feature", "properties": {"code": "Ln-2/SZ-1", "reg": "xiii-kesz", "conf": 0.99}, "geometry": {"type": "Point", "coordinates": [19.0842173, 47.5264663]}}, {"type": "Feature", "properties": {"code": "K-Hon/SZ-SP", "reg": "xiii-kesz", "conf": 0.99}, "geometry": {"type": "Point", "coordinates": [19.0696203, 47.5226254]}}, {"type": "Feature", "properties": {"code": "Vi-2/SZ-1", "reg": "xiii-kesz", "conf": 0.988}, "geometry": {"type": "Point", "coordinates": [19.0795115, 47.5233109]}}, {"type": "Feature", "properties": {"code": "Vi-1/Z-4", "reg": "xiii-kesz", "conf": 0.987}, "geometry": {"type": "Point", "coordinates": [19.0756325, 47.5276983]}}, {"type": "Feature", "properties": {"code": "K-Hon/SZ-2", "reg": "xiii-kesz", "conf": 0.987}, "geometry": {"type": "Point", "coordinates": [19.0697273, 47.5218144]}}, {"type": "Feature", "properties": {"code": "Ln-2/B-5", "reg": "xiii-kesz", "conf": 0.985}, "geometry": {"type": "Point", "coordinates": [19.0820151, 47.5267775]}}, {"type": "Feature", "properties": {"code": "K-Hon/SZ-2", "reg": "xiii-kesz", "conf": 0.984}, "geometry": {"type": "Point", "coordinates": [19.076936, 47.5233055]}}, {"type": "Feature", "properties": {"code": "Ln-T/T-1", "reg": "xiii-kesz", "conf": 0.983}, "geometry": {"type": "Point", "coordinates": [19.071502, 47.5275897]}}, {"type": "Feature", "properties": {"code": "Vi-1/Z-19", "reg": "xiii-kesz", "conf": 0.983}, "geometry": {"type": "Point", "coordinates": [19.0773854, 47.5269846]}}, {"type": "Feature", "properties": {"code": "Vi-1/SZ-3", "reg": "xiii-kesz", "conf": 0.983}, "geometry": {"type": "Point", "coordinates": [19.0761182, 47.5241141]}}, {"type": "Feature", "properties": {"code": "Ln-2/Z-2", "reg": "xiii-kesz", "conf": 0.982}, "geometry": {"type": "Point", "coordinates": [19.078496, 47.5277137]}}, {"type": "Feature", "properties": {"code": "Vi-1/Z-12", "reg": "xiii-kesz", "conf": 0.972}, "geometry": {"type": "Point", "coordinates": [19.0769026, 47.525556]}}, {"type": "Feature", "properties": {"code": "Zkk-3/Ln", "reg": "xiii-kesz", "conf": 0.963}, "geometry": {"type": "Point", "coordinates": [19.0859768, 47.5240713]}}, {"type": "Feature", "properties": {"code": "Ln-T/T-1", "reg": "xiii-kesz", "conf": 0.961}, "geometry": {"type": "Point", "coordinates": [19.0728191, 47.5239298]}}, {"type": "Feature", "properties": {"code": "Ln-T/SZ-1-AI", "reg": "xiii-kesz", "conf": 0.958}, "geometry": {"type": "Point", "coordinates": [19.0708352, 47.5260331]}}, {"type": "Feature", "properties": {"code": "Ln-T/SZ-2-AI", "reg": "xiii-kesz", "conf": 0.955}, "geometry": {"type": "Point", "coordinates": [19.0700385, 47.5254822]}}, {"type": "Feature", "properties": {"code": "Vi-1/Z-15", "reg": "xiii-kesz", "conf": 0.916}, "geometry": {"type": "Point", "coordinates": [19.0702134, 47.5183424]}}, {"type": "Feature", "properties": {"code": "Vi-1/Z-13", "reg": "xiii-kesz", "conf": 0.867}, "geometry": {"type": "Point", "coordinates": [19.0744528, 47.5253179]}}, {"type": "Feature", "properties": {"code": "Vi-1/Z-13", "reg": "xiii-kesz", "conf": 0.841}, "geometry": {"type": "Point", "coordinates": [19.0744494, 47.525319]}}, {"type": "Feature", "properties": {"code": "Ek", "reg": "xiii-kesz", "conf": 0.827}, "geometry": {"type": "Point", "coordinates": [19.0743027, 47.5261317]}}, {"type": "Feature", "properties": {"code": "Vi-2/ZSz-2", "reg": "xiii-kesz", "conf": 0.81}, "geometry": {"type": "Point", "coordinates": [19.0768715, 47.5215144]}}, {"type": "Feature", "properties": {"code": "K-EÜ/SZ-1", "reg": "xiii-kesz", "conf": 0.981}, "geometry": {"type": "Point", "coordinates": [19.0801417, 47.5271856]}}, {"type": "Feature", "properties": {"code": "Ln-T/SZ-1-AI", "reg": "xiii-kesz", "conf": 0.908}, "geometry": {"type": "Point", "coordinates": [19.0726555, 47.5269387]}}, {"type": "Feature", "properties": {"code": "Vi-1/Z-7", "reg": "xiii-kesz", "conf": 0.989}, "geometry": {"type": "Point", "coordinates": [19.0737961, 47.5264904]}}, {"type": "Feature", "properties": {"code": "Ln-T/SZ-1-AI", "reg": "xiii-kesz", "conf": 0.909}, "geometry": {"type": "Point", "coordinates": [19.0718575, 47.5248921]}}]}