{"type": "FeatureCollection", "features": [{"type": "Feature", "properties": {"code": "Ln-2-XI-03", "reg": "xi2-kesz", "conf": 1.0}, "geometry": {"type": "Point", "coordinates": [19.0357201, 47.4751843]}}, {"type": "Feature", "properties": {"code": "Vt-V-XI-11", "reg": "xi2-kesz", "conf": 1.0}, "geometry": {"type": "Point", "coordinates": [19.0474386, 47.4747836]}}, {"type": "Feature", "properties": {"code": "Zkp-XI-Kk-01", "reg": "xi2-kesz", "conf": 1.0}, "geometry": {"type": "Point", "coordinates": [19.0322957, 47.486358]}}, {"type": "Feature", "properties": {"code": "Lk-2-XI-04", "reg": "xi2-kesz", "conf": 1.0}, "geometry": {"type": "Point", "coordinates": [19.0373403, 47.4866547]}}, {"type": "Feature", "properties": {"code": "Lk-2-XI-03", "reg": "xi2-kesz", "conf": 1.0}, "geometry": {"type": "Point", "coordinates": [19.0357116, 47.4862831]}}, {"type": "Feature", "properties": {"code": "K-Okt-XI-01", "reg": "xi2-kesz", "conf": 1.0}, "geometry": {"type": "Point", "coordinates": [19.0401289, 47.4821323]}}, {"type": "Feature", "properties": {"code": "K-Közl-XI-01", "reg": "xi2-kesz", "conf": 1.0}, "geometry": {"type": "Point", "coordinates": [19.0278221, 47.4739545]}}, {"type": "Feature", "properties": {"code": "Vi-2-XI-09", "reg": "xi2-kesz", "conf": 1.0}, "geometry": {"type": "Point", "coordinates": [19.0349315, 47.4775945]}}, {"type": "Feature", "properties": {"code": "Vt-V-XI-I-11", "reg": "xi2-kesz", "conf": 1.0}, "geometry": {"type": "Point", "coordinates": [19.0517219, 47.4838189]}}, {"type": "Feature", "properties": {"code": "Vt-V-XI-06", "reg": "xi2-kesz", "conf": 1.0}, "geometry": {"type": "Point", "coordinates": [19.0509416, 47.4828862]}}, {"type": "Feature", "properties": {"code": "Vt-V-XI-I-09", "reg": "xi2-kesz", "conf": 1.0}, "geometry": {"type": "Point", "coordinates": [19.0555665, 47.4810473]}}, {"type": "Feature", "properties": {"code": "Vt-V-XI-05", "reg": "xi2-kesz", "conf": 1.0}, "geometry": {"type": "Point", "coordinates": [19.0515076, 47.4814314]}}, {"type": "Feature", "properties": {"code": "Vi-2-XI-08", "reg": "xi2-kesz", "conf": 1.0}, "geometry": {"type": "Point", "coordinates": [19.0332017, 47.4775621]}}, {"type": "Feature", "properties": {"code": "Vt-V-XI-05", "reg": "xi2-kesz", "conf": 1.0}, "geometry": {"type": "Point", "coordinates": [19.0479012, 47.4787338]}}, {"type": "Feature", "properties": {"code": "Vi-2-XI-11", "reg": "xi2-kesz", "conf": 1.0}, "geometry": {"type": "Point", "coordinates": [19.0375027, 47.4774943]}}, {"type": "Feature", "properties": {"code": "Vt-V-XI-02", "reg": "xi2-kesz", "conf": 1.0}, "geometry": {"type": "Point", "coordinates": [19.044644, 47.47756]}}, {"type": "Feature", "properties": {"code": "ZKk-XI-01", "reg": "xi2-kesz", "conf": 1.0}, "geometry": {"type": "Point", "coordinates": [19.0616332, 47.4760033]}}, {"type": "Feature", "properties": {"code": "Zkp-XI-Kp-01", "reg": "xi2-kesz", "conf": 1.0}, "geometry": {"type": "Point", "coordinates": [19.0413663, 47.4772385]}}, {"type": "Feature", "properties": {"code": "Zkp-XI-Kk-01", "reg": "xi2-kesz", "conf": 1.0}, "geometry": {"type": "Point", "coordinates": [19.0368157, 47.4784335]}}, {"type": "Feature", "properties": {"code": "Zkp-XI-Kk-01", "reg": "xi2-kesz", "conf": 1.0}, "geometry": {"type": "Point", "coordinates": [19.0333973, 47.4766273]}}, {"type": "Feature", "properties": {"code": "Zkp-XI-Kk-01", "reg": "xi2-kesz", "conf": 1.0}, "geometry": {"type": "Point", "coordinates": [19.0442488, 47.4735089]}}, {"type": "Feature", "properties": {"code": "Zvp-XI-01", "reg": "xi2-kesz", "conf": 1.0}, "geometry": {"type": "Point", "coordinates": [19.0461581, 47.4855774]}}, {"type": "Feature", "properties": {"code": "Zkp-XI-Kp-01", "reg": "xi2-kesz", "conf": 1.0}, "geometry": {"type": "Point", "coordinates": [19.0599304, 47.4759686]}}, {"type": "Feature", "properties": {"code": "Kb-Kt-XI-03", "reg": "xi2-kesz", "conf": 1.0}, "geometry": {"type": "Point", "coordinates": [19.0406972, 47.4758407]}}, {"type": "Feature", "properties": {"code": "Kb-Kt-XI-03", "reg": "xi2-kesz", "conf": 1.0}, "geometry": {"type": "Point", "coordinates": [19.0406169, 47.4749471]}}, {"type": "Feature", "properties": {"code": "Kb-Kt-XI-01", "reg": "xi2-kesz", "conf": 1.0}, "geometry": {"type": "Point", "coordinates": [19.0473379, 47.4742657]}}, {"type": "Feature", "properties": {"code": "Kb-Kt-XI-01", "reg": "xi2-kesz", "conf": 1.0}, "geometry": {"type": "Point", "coordinates": [19.0474398, 47.4722632]}}, {"type": "Feature", "properties": {"code": "Kb-Kt-XI-03", "reg": "xi2-kesz", "conf": 1.0}, "geometry": {"type": "Point", "coordinates": [19.0334954, 47.4756192]}}, {"type": "Feature", "properties": {"code": "Kb-Kt-XI-01", "reg": "xi2-kesz", "conf": 1.0}, "geometry": {"type": "Point", "coordinates": [19.0536572, 47.4833657]}}, {"type": "Feature", "properties": {"code": "Kb-Kt-XI-01", "reg": "xi2-kesz", "conf": 1.0}, "geometry": {"type": "Point", "coordinates": [19.0531521, 47.4838994]}}, {"type": "Feature", "properties": {"code": "Kb-Kt-XI-02", "reg": "xi2-kesz", "conf": 1.0}, "geometry": {"type": "Point", "coordinates": [19.0513067, 47.4793486]}}, {"type": "Feature", "properties": {"code": "Vi-1-XI-03", "reg": "xi2-kesz", "conf": 1.0}, "geometry": {"type": "Point", "coordinates": [19.0299761, 47.4808699]}}, {"type": "Feature", "properties": {"code": "Vi-1-XI-03", "reg": "xi2-kesz", "conf": 1.0}, "geometry": {"type": "Point", "coordinates": [19.0287988, 47.4796462]}}, {"type": "Feature", "properties": {"code": "Lk-2-XI-03", "reg": "xi2-kesz", "conf": 1.0}, "geometry": {"type": "Point", "coordinates": [19.0317419, 47.4830333]}}, {"type": "Feature", "properties": {"code": "Lk-2-XI-I-03", "reg": "xi2-kesz", "conf": 1.0}, "geometry": {"type": "Point", "coordinates": [19.0429701, 47.4803458]}}, {"type": "Feature", "properties": {"code": "Vt-V-XI-03", "reg": "xi2-kesz", "conf": 1.0}, "geometry": {"type": "Point", "coordinates": [19.0532721, 47.4793307]}}, {"type": "Feature", "properties": {"code": "Vt-V-XI-03", "reg": "xi2-kesz", "conf": 1.0}, "geometry": {"type": "Point", "coordinates": [19.0491804, 47.4779871]}}, {"type": "Feature", "properties": {"code": "Vt-V-XI-I-10", "reg": "xi2-kesz", "conf": 1.0}, "geometry": {"type": "Point", "coordinates": [19.057204, 47.4768157]}}, {"type": "Feature", "properties": {"code": "Vt-V-XI-I-08", "reg": "xi2-kesz", "conf": 1.0}, "geometry": {"type": "Point", "coordinates": [19.0548416, 47.4766617]}}, {"type": "Feature", "properties": {"code": "Vt-V-XI-07", "reg": "xi2-kesz", "conf": 1.0}, "geometry": {"type": "Point", "coordinates": [19.0495815, 47.4766216]}}, {"type": "Feature", "properties": {"code": "Vt-V-XI-01", "reg": "xi2-kesz", "conf": 1.0}, "geometry": {"type": "Point", "coordinates": [19.0455466, 47.4762725]}}, {"type": "Feature", "properties": {"code": "Vt-V-XI-02", "reg": "xi2-kesz", "conf": 1.0}, "geometry": {"type": "Point", "coordinates": [19.0461622, 47.4767217]}}, {"type": "Feature", "properties": {"code": "Ln-2-XI-I-01", "reg": "xi2-kesz", "conf": 1.0}, "geometry": {"type": "Point", "coordinates": [19.0363192, 47.4750126]}}, {"type": "Feature", "properties": {"code": "Ln-2-XI-03", "reg": "xi2-kesz", "conf": 1.0}, "geometry": {"type": "Point", "coordinates": [19.0352553, 47.4759861]}}, {"type": "Feature", "properties": {"code": "Lk-1-XI-05", "reg": "xi2-kesz", "conf": 1.0}, "geometry": {"type": "Point", "coordinates": [19.0303191, 47.4741704]}}, {"type": "Feature", "properties": {"code": "Lk-1-XI-02", "reg": "xi2-kesz", "conf": 1.0}, "geometry": {"type": "Point", "coordinates": [19.032444, 47.4786388]}}, {"type": "Feature", "properties": {"code": "Lk-1-XI-02", "reg": "xi2-kesz", "conf": 1.0}, "geometry": {"type": "Point", "coordinates": [19.0314131, 47.4808886]}}, {"type": "Feature", "properties": {"code": "Lk-1-XI-02", "reg": "xi2-kesz", "conf": 1.0}, "geometry": {"type": "Point", "coordinates": [19.0312376, 47.4819288]}}, {"type": "Feature", "properties": {"code": "Lk-1-XI-02", "reg": "xi2-kesz", "conf": 1.0}, "geometry": {"type": "Point", "coordinates": [19.0325778, 47.4804581]}}, {"type": "Feature", "properties": {"code": "Lk-1-XI-02", "reg": "xi2-kesz", "conf": 1.0}, "geometry": {"type": "Point", "coordinates": [19.0335876, 47.480023]}}, {"type": "Feature", "properties": {"code": "Lk-1-XI-02", "reg": "xi2-kesz", "conf": 1.0}, "geometry": {"type": "Point", "coordinates": [19.0347321, 47.4794664]}}, {"type": "Feature", "properties": {"code": "Lk-1-XI-02", "reg": "xi2-kesz", "conf": 1.0}, "geometry": {"type": "Point", "coordinates": [19.033723, 47.4782266]}}, {"type": "Feature", "properties": {"code": "Lk-1-XI-02", "reg": "xi2-kesz", "conf": 1.0}, "geometry": {"type": "Point", "coordinates": [19.0360111, 47.4791253]}}, {"type": "Feature", "properties": {"code": "Ln-2-XI-01", "reg": "xi2-kesz", "conf": 1.0}, "geometry": {"type": "Point", "coordinates": [19.0392903, 47.4762138]}}, {"type": "Feature", "properties": {"code": "Lk-2-XI-12", "reg": "xi2-kesz", "conf": 1.0}, "geometry": {"type": "Point", "coordinates": [19.0266029, 47.4759705]}}, {"type": "Feature", "properties": {"code": "Lk-2-XI-12", "reg": "xi2-kesz", "conf": 1.0}, "geometry": {"type": "Point", "coordinates": [19.0260986, 47.4749943]}}, {"type": "Feature", "properties": {"code": "Lk-2-XI-12", "reg": "xi2-kesz", "conf": 1.0}, "geometry": {"type": "Point", "coordinates": [19.0259167, 47.4753746]}}, {"type": "Feature", "properties": {"code": "Lk-2-XI-12", "reg": "xi2-kesz", "conf": 1.0}, "geometry": {"type": "Point", "coordinates": [19.0258693, 47.4757848]}}, {"type": "Feature", "properties": {"code": "Lk-2-XI-12", "reg": "xi2-kesz", "conf": 1.0}, "geometry": {"type": "Point", "coordinates": [19.0258287, 47.4763003]}}, {"type": "Feature", "properties": {"code": "Lk-2-XI-I-04", "reg": "xi2-kesz", "conf": 1.0}, "geometry": {"type": "Point", "coordinates": [19.0271211, 47.4761608]}}, {"type": "Feature", "properties": {"code": "Lk-2-XI-10", "reg": "xi2-kesz", "conf": 1.0}, "geometry": {"type": "Point", "coordinates": [19.0308164, 47.4760081]}}, {"type": "Feature", "properties": {"code": "Lk-2-XI-09", "reg": "xi2-kesz", "conf": 1.0}, "geometry": {"type": "Point", "coordinates": [19.0301163, 47.4762119]}}, {"type": "Feature", "properties": {"code": "Ln-T-XI-I-02", "reg": "xi2-kesz", "conf": 1.0}, "geometry": {"type": "Point", "coordinates": [19.0495193, 47.4728869]}}, {"type": "Feature", "properties": {"code": "Ln-T-XI-T-01", "reg": "xi2-kesz", "conf": 1.0}, "geometry": {"type": "Point", "coordinates": [19.0520773, 47.472168]}}, {"type": "Feature", "properties": {"code": "Ln-T-XI-I-03", "reg": "xi2-kesz", "conf": 1.0}, "geometry": {"type": "Point", "coordinates": [19.0531101, 47.4729747]}}, {"type": "Feature", "properties": {"code": "Ln-T-XI-I-01", "reg": "xi2-kesz", "conf": 1.0}, "geometry": {"type": "Point", "coordinates": [19.0557349, 47.4735275]}}, {"type": "Feature", "properties": {"code": "Ln-T-XI-GK-01", "reg": "xi2-kesz", "conf": 1.0}, "geometry": {"type": "Point", "coordinates": [19.0554989, 47.4743179]}}, {"type": "Feature", "properties": {"code": "Ln-T-XI-GK-01", "reg": "xi2-kesz", "conf": 1.0}, "geometry": {"type": "Point", "coordinates": [19.0548159, 47.4739809]}}, {"type": "Feature", "properties": {"code": "Ln-T-XI-GK-01", "reg": "xi2-kesz", "conf": 1.0}, "geometry": {"type": "Point", "coordinates": [19.0541363, 47.4736554]}}, {"type": "Feature", "properties": {"code": "Ln-T-XI-T-02", "reg": "xi2-kesz", "conf": 1.0}, "geometry": {"type": "Point", "coordinates": [19.0464103, 47.4715618]}}, {"type": "Feature", "properties": {"code": "Lk-2-XI-I-02", "reg": "xi2-kesz", "conf": 1.0}, "geometry": {"type": "Point", "coordinates": [19.0464164, 47.4801976]}}, {"type": "Feature", "properties": {"code": "Vt-V-XI-06", "reg": "xi2-kesz", "conf": 1.0}, "geometry": {"type": "Point", "coordinates": [19.047672, 47.4793524]}}, {"type": "Feature", "properties": {"code": "K-Okt-XI-01", "reg": "xi2-kesz", "conf": 1.0}, "geometry": {"type": "Point", "coordinates": [19.0390864, 47.4804412]}}, {"type": "Feature", "properties": {"code": "Vt-V-XI-06", "reg": "xi2-kesz", "conf": 1.0}, "geometry": {"type": "Point", "coordinates": [19.0499265, 47.4801502]}}, {"type": "Feature", "properties": {"code": "Vt-V-XI-06", "reg": "xi2-kesz", "conf": 1.0}, "geometry": {"type": "Point", "coordinates": [19.05037, 47.4817175]}}, {"type": "Feature", "properties": {"code": "Vt-V-XI-05", "reg": "xi2-kesz", "conf": 1.0}, "geometry": {"type": "Point", "coordinates": [19.0522743, 47.4827215]}}, {"type": "Feature", "properties": {"code": "Ln-2-XI-01", "reg": "xi2-kesz", "conf": 1.0}, "geometry": {"type": "Point", "coordinates": [19.0376819, 47.4757965]}}, {"type": "Feature", "properties": {"code": "Ln-2-XI-01", "reg": "xi2-kesz", "conf": 1.0}, "geometry": {"type": "Point", "coordinates": [19.0387893, 47.4752743]}}, {"type": "Feature", "properties": {"code": "Ln-2-XI-01", "reg": "xi2-kesz", "conf": 1.0}, "geometry": {"type": "Point", "coordinates": [19.037255, 47.4746026]}}, {"type": "Feature", "properties": {"code": "Ln-2-XI-01", "reg": "xi2-kesz", "conf": 1.0}, "geometry": {"type": "Point", "coordinates": [19.0356836, 47.4740112]}}, {"type": "Feature", "properties": {"code": "Ln-2-XI-03", "reg": "xi2-kesz", "conf": 1.0}, "geometry": {"type": "Point", "coordinates": [19.0343099, 47.4754979]}}, {"type": "Feature", "properties": {"code": "Ln-2-XI-01", "reg": "xi2-kesz", "conf": 1.0}, "geometry": {"type": "Point", "coordinates": [19.0367877, 47.4735119]}}, {"type": "Feature", "properties": {"code": "Ln-2-XI-01", "reg": "xi2-kesz", "conf": 1.0}, "geometry": {"type": "Point", "coordinates": [19.0385981, 47.4739453]}}, {"type": "Feature", "properties": {"code": "Ln-2-XI-01", "reg": "xi2-kesz", "conf": 1.0}, "geometry": {"type": "Point", "coordinates": [19.0410852, 47.4737053]}}, {"type": "Feature", "properties": {"code": "Ln-2-XI-01", "reg": "xi2-kesz", "conf": 1.0}, "geometry": {"type": "Point", "coordinates": [19.0395468, 47.4747177]}}, {"type": "Feature", "properties": {"code": "Ln-2-XI-01", "reg": "xi2-kesz", "conf": 1.0}, "geometry": {"type": "Point", "coordinates": [19.0415728, 47.4745096]}}, {"type": "Feature", "properties": {"code": "Ln-2-XI-01", "reg": "xi2-kesz", "conf": 1.0}, "geometry": {"type": "Point", "coordinates": [19.043296, 47.4744436]}}, {"type": "Feature", "properties": {"code": "Ln-2-XI-01", "reg": "xi2-kesz", "conf": 1.0}, "geometry": {"type": "Point", "coordinates": [19.0441846, 47.4740978]}}, {"type": "Feature", "properties": {"code": "Ln-2-XI-01", "reg": "xi2-kesz", "conf": 1.0}, "geometry": {"type": "Point", "coordinates": [19.0457598, 47.4737384]}}, {"type": "Feature", "properties": {"code": "Ln-2-XI-02", "reg": "xi2-kesz", "conf": 1.0}, "geometry": {"type": "Point", "coordinates": [19.0434821, 47.4722692]}}, {"type": "Feature", "properties": {"code": "Lk-1-XI-05", "reg": "xi2-kesz", "conf": 1.0}, "geometry": {"type": "Point", "coordinates": [19.030689, 47.4747937]}}, {"type": "Feature", "properties": {"code": "Lk-1-XI-04", "reg": "xi2-kesz", "conf": 1.0}, "geometry": {"type": "Point", "coordinates": [19.0298209, 47.4744842]}}, {"type": "Feature", "properties": {"code": "Vi-1-XI-02", "reg": "xi2-kesz", "conf": 1.0}, "geometry": {"type": "Point", "coordinates": [19.0302928, 47.4800818]}}, {"type": "Feature", "properties": {"code": "Vi-2-XI-01", "reg": "xi2-kesz", "conf": 1.0}, "geometry": {"type": "Point", "coordinates": [19.0342154, 47.4831507]}}, {"type": "Feature", "properties": {"code": "Vi-2-XI-01", "reg": "xi2-kesz", "conf": 1.0}, "geometry": {"type": "Point", "coordinates": [19.033435, 47.4823371]}}, {"type": "Feature", "properties": {"code": "Vi-2-XI-01", "reg": "xi2-kesz", "conf": 1.0}, "geometry": {"type": "Point", "coordinates": [19.0486744, 47.4805601]}}, {"type": "Feature", "properties": {"code": "Lk-2-XI-03", "reg": "xi2-kesz", "conf": 1.0}, "geometry": {"type": "Point", "coordinates": [19.0323137, 47.4838537]}}, {"type": "Feature", "properties": {"code": "Lk-2-XI-03", "reg": "xi2-kesz", "conf": 1.0}, "geometry": {"type": "Point", "coordinates": [19.0362991, 47.4821842]}}, {"type": "Feature", "properties": {"code": "Lk-2-XI-03", "reg": "xi2-kesz", "conf": 1.0}, "geometry": {"type": "Point", "coordinates": [19.0353503, 47.4815127]}}, {"type": "Feature", "properties": {"code": "Lk-2-XI-03", "reg": "xi2-kesz", "conf": 1.0}, "geometry": {"type": "Point", "coordinates": [19.0370456, 47.4833369]}}, {"type": "Feature", "properties": {"code": "Lk-2-XI-03", "reg": "xi2-kesz", "conf": 1.0}, "geometry": {"type": "Point", "coordinates": [19.0354497, 47.4848969]}}, {"type": "Feature", "properties": {"code": "Lk-2-XI-03", "reg": "xi2-kesz", "conf": 1.0}, "geometry": {"type": "Point", "coordinates": [19.0330065, 47.4847864]}}, {"type": "Feature", "properties": {"code": "Lk-2-XI-03", "reg": "xi2-kesz", "conf": 1.0}, "geometry": {"type": "Point", "coordinates": [19.037866, 47.4851082]}}, {"type": "Feature", "properties": {"code": "Lk-2-XI-03", "reg": "xi2-kesz", "conf": 1.0}, "geometry": {"type": "Point", "coordinates": [19.0385993, 47.4859149]}}, {"type": "Feature", "properties": {"code": "Lk-2-XI-03", "reg": "xi2-kesz", "conf": 1.0}, "geometry": {"type": "Point", "coordinates": [19.0391851, 47.4853536]}}, {"type": "Feature", "properties": {"code": "Lk-2-XI-03", "reg": "xi2-kesz", "conf": 1.0}, "geometry": {"type": "Point", "coordinates": [19.0395761, 47.4840866]}}, {"type": "Feature", "properties": {"code": "Lk-2-XI-03", "reg": "xi2-kesz", "conf": 1.0}, "geometry": {"type": "Point", "coordinates": [19.0409491, 47.4841855]}}, {"type": "Feature", "properties": {"code": "Lk-2-XI-03", "reg": "xi2-kesz", "conf": 1.0}, "geometry": {"type": "Point", "coordinates": [19.0436422, 47.4824676]}}, {"type": "Feature", "properties": {"code": "Lk-2-XI-03", "reg": "xi2-kesz", "conf": 1.0}, "geometry": {"type": "Point", "coordinates": [19.0410986, 47.4811152]}}, {"type": "Feature", "properties": {"code": "Lk-2-XI-03", "reg": "xi2-kesz", "conf": 1.0}, "geometry": {"type": "Point", "coordinates": [19.0435015, 47.4811112]}}, {"type": "Feature", "properties": {"code": "Lk-2-XI-03", "reg": "xi2-kesz", "conf": 1.0}, "geometry": {"type": "Point", "coordinates": [19.0455208, 47.4809879]}}, {"type": "Feature", "properties": {"code": "Lk-2-XI-03", "reg": "xi2-kesz", "conf": 1.0}, "geometry": {"type": "Point", "coordinates": [19.0428493, 47.4796309]}}, {"type": "Feature", "properties": {"code": "Lk-2-XI-03", "reg": "xi2-kesz", "conf": 1.0}, "geometry": {"type": "Point", "coordinates": [19.0492088, 47.4819143]}}, {"type": "Feature", "properties": {"code": "Vt-V-XI-03", "reg": "xi2-kesz", "conf": 1.0}, "geometry": {"type": "Point", "coordinates": [19.0506137, 47.4786496]}}, {"type": "Feature", "properties": {"code": "Vt-V-XI-03", "reg": "xi2-kesz", "conf": 1.0}, "geometry": {"type": "Point", "coordinates": [19.0503854, 47.477591]}}, {"type": "Feature", "properties": {"code": "Vt-V-XI-03", "reg": "xi2-kesz", "conf": 1.0}, "geometry": {"type": "Point", "coordinates": [19.0515937, 47.4772751]}}, {"type": "Feature", "properties": {"code": "Vt-V-XI-03", "reg": "xi2-kesz", "conf": 1.0}, "geometry": {"type": "Point", "coordinates": [19.0528828, 47.4769294]}}, {"type": "Feature", "properties": {"code": "Vt-V-XI-03", "reg": "xi2-kesz", "conf": 1.0}, "geometry": {"type": "Point", "coordinates": [19.0516333, 47.4790393]}}, {"type": "Feature", "properties": {"code": "Vt-V-XI-03", "reg": "xi2-kesz", "conf": 1.0}, "geometry": {"type": "Point", "coordinates": [19.0548343, 47.4778784]}}, {"type": "Feature", "properties": {"code": "Vt-V-XI-03", "reg": "xi2-kesz", "conf": 1.0}, "geometry": {"type": "Point", "coordinates": [19.0548338, 47.4788132]}}, {"type": "Feature", "properties": {"code": "Vt-V-XI-03", "reg": "xi2-kesz", "conf": 1.0}, "geometry": {"type": "Point", "coordinates": [19.0527199, 47.4798255]}}, {"type": "Feature", "properties": {"code": "Vt-V-XI-03", "reg": "xi2-kesz", "conf": 1.0}, "geometry": {"type": "Point", "coordinates": [19.0531297, 47.4814271]}}, {"type": "Feature", "properties": {"code": "Vt-V-XI-03", "reg": "xi2-kesz", "conf": 1.0}, "geometry": {"type": "Point", "coordinates": [19.0533985, 47.4825224]}}, {"type": "Feature", "properties": {"code": "Vt-V-XI-I-09", "reg": "xi2-kesz", "conf": 1.0}, "geometry": {"type": "Point", "coordinates": [19.0576541, 47.4787771]}}, {"type": "Feature", "properties": {"code": "Vt-V-XI-05", "reg": "xi2-kesz", "conf": 1.0}, "geometry": {"type": "Point", "coordinates": [19.0505795, 47.4798983]}}, {"type": "Feature", "properties": {"code": "Vt-V-XI-02", "reg": "xi2-kesz", "conf": 1.0}, "geometry": {"type": "Point", "coordinates": [19.0481409, 47.4769742]}}, {"type": "Feature", "properties": {"code": "Vt-V-XI-07", "reg": "xi2-kesz", "conf": 1.0}, "geometry": {"type": "Point", "coordinates": [19.0537115, 47.4751103]}}, {"type": "Feature", "properties": {"code": "Vt-V-XI-07", "reg": "xi2-kesz", "conf": 1.0}, "geometry": {"type": "Point", "coordinates": [19.0547749, 47.4753213]}}, {"type": "Feature", "properties": {"code": "Vt-V-XI-12", "reg": "xi2-kesz", "conf": 1.0}, "geometry": {"type": "Point", "coordinates": [19.047815, 47.4758743]}}, {"type": "Feature", "properties": {"code": "Vi-2-XI-02", "reg": "xi2-kesz", "conf": 1.0}, "geometry": {"type": "Point", "coordinates": [19.0412307, 47.4793281]}}, {"type": "Feature", "properties": {"code": "Ln-3-XI-02", "reg": "xi2-kesz", "conf": 1.0}, "geometry": {"type": "Point", "coordinates": [19.0450204, 47.4786644]}}, {"type": "Feature", "properties": {"code": "Ln-3-XI-03", "reg": "xi2-kesz", "conf": 1.0}, "geometry": {"type": "Point", "coordinates": [19.0463193, 47.4789694]}}, {"type": "Feature", "properties": {"code": "Ln-3-XI-03", "reg": "xi2-kesz", "conf": 1.0}, "geometry": {"type": "Point", "coordinates": [19.0446197, 47.4792738]}}, {"type": "Feature", "properties": {"code": "Vi-2-XI-05", "reg": "xi2-kesz", "conf": 1.0}, "geometry": {"type": "Point", "coordinates": [19.0247692, 47.4750926]}}, {"type": "Feature", "properties": {"code": "Ln-T-XI-T-03", "reg": "xi2-kesz", "conf": 1.0}, "geometry": {"type": "Point", "coordinates": [19.0468537, 47.4732689]}}, {"type": "Feature", "properties": {"code": "Ln-T-XI-I-04", "reg": "xi2-kesz", "conf": 1.0}, "geometry": {"type": "Point", "coordinates": [19.0541369, 47.4722028]}}, {"type": "Feature", "properties": {"code": "Vt-V-XI-I-02", "reg": "xi2-kesz", "conf": 1.0}, "geometry": {"type": "Point", "coordinates": [19.0633319, 47.4705459]}}, {"type": "Feature", "properties": {"code": "Lk-2-XI-03", "reg": "xi2-kesz", "conf": 1.0}, "geometry": {"type": "Point", "coordinates": [19.0495986, 47.4832433]}}, {"type": "Feature", "properties": {"code": "Lk-2-XI-02", "reg": "xi2-kesz", "conf": 1.0}, "geometry": {"type": "Point", "coordinates": [19.0385604, 47.482714]}}, {"type": "Feature", "properties": {"code": "Lk-2-XI-02", "reg": "xi2-kesz", "conf": 1.0}, "geometry": {"type": "Point", "coordinates": [19.0440791, 47.4837691]}}, {"type": "Feature", "properties": {"code": "Lk-2-XI-02", "reg": "xi2-kesz", "conf": 1.0}, "geometry": {"type": "Point", "coordinates": [19.0474709, 47.484943]}}, {"type": "Feature", "properties": {"code": "Lk-2-XI-02", "reg": "xi2-kesz", "conf": 1.0}, "geometry": {"type": "Point", "coordinates": [19.0466269, 47.4834031]}}, {"type": "Feature", "properties": {"code": "Lk-2-XI-02", "reg": "xi2-kesz", "conf": 1.0}, "geometry": {"type": "Point", "coordinates": [19.0474518, 47.4825303]}}, {"type": "Feature", "properties": {"code": "Lk-2-XI-02", "reg": "xi2-kesz", "conf": 1.0}, "geometry": {"type": "Point", "coordinates": [19.0486904, 47.482251]}}, {"type": "Feature", "properties": {"code": "Lk-2-XI-02", "reg": "xi2-kesz", "conf": 1.0}, "geometry": {"type": "Point", "coordinates": [19.0490129, 47.4835044]}}, {"type": "Feature", "properties": {"code": "Lk-2-XI-02", "reg": "xi2-kesz", "conf": 1.0}, "geometry": {"type": "Point", "coordinates": [19.0467726, 47.4813502]}}, {"type": "Feature", "properties": {"code": "Lk-2-XI-02", "reg": "xi2-kesz", "conf": 1.0}, "geometry": {"type": "Point", "coordinates": [19.0419396, 47.4819334]}}, {"type": "Feature", "properties": {"code": "Lk-2-XI-06", "reg": "xi2-kesz", "conf": 1.0}, "geometry": {"type": "Point", "coordinates": [19.02953, 47.4776117]}}, {"type": "Feature", "properties": {"code": "Lk-2-XI-07", "reg": "xi2-kesz", "conf": 1.0}, "geometry": {"type": "Point", "coordinates": [19.029833, 47.4773758]}}, {"type": "Feature", "properties": {"code": "Lk-2-XI-07", "reg": "xi2-kesz", "conf": 1.0}, "geometry": {"type": "Point", "coordinates": [19.0306207, 47.4769154]}}, {"type": "Feature", "properties": {"code": "Lk-2-XI-10", "reg": "xi2-kesz", "conf": 1.0}, "geometry": {"type": "Point", "coordinates": [19.0288041, 47.475554]}}, {"type": "Feature", "properties": {"code": "Vi-2-XI-08", "reg": "xi2-kesz", "conf": 1.0}, "geometry": {"type": "Point", "coordinates": [19.0362576, 47.4773428]}}, {"type": "Feature", "properties": {"code": "Vi-2-XI-10", "reg": "xi2-kesz", "conf": 1.0}, "geometry": {"type": "Point", "coordinates": [19.0370185, 47.4766785]}}, {"type": "Feature", "properties": {"code": "Zkp-XI-Kk-01", "reg": "xi2-kesz", "conf": 1.0}, "geometry": {"type": "Point", "coordinates": [19.0578978, 47.4757252]}}, {"type": "Feature", "properties": {"code": "Zkp-XI-Kk-01", "reg": "xi2-kesz", "conf": 1.0}, "geometry": {"type": "Point", "coordinates": [19.0271317, 47.4751137]}}, {"type": "Feature", "properties": {"code": "Vt-V-XI-10", "reg": "xi2-kesz", "conf": 1.0}, "geometry": {"type": "Point", "coordinates": [19.049054, 47.4748343]}}, {"type": "Feature", "properties": {"code": "Lk-2-XI-08", "reg": "xi2-kesz", "conf": 1.0}, "geometry": {"type": "Point", "coordinates": [19.0303649, 47.4771192]}}, {"type": "Feature", "properties": {"code": "Ln-2-XI-03", "reg": "xi2-kesz", "conf": 1.0}, "geometry": {"type": "Point", "coordinates": [19.0342766, 47.4747349]}}, {"type": "Feature", "properties": {"code": "Ln-2-XI-I-02", "reg": "xi2-kesz", "conf": 1.0}, "geometry": {"type": "Point", "coordinates": [19.0341522, 47.4744049]}}, {"type": "Feature", "properties": {"code": "Ln-T-XI-I-01", "reg": "xi2-kesz", "conf": 1.0}, "geometry": {"type": "Point", "coordinates": [19.0530769, 47.4719757]}}, {"type": "Feature", "properties": {"code": "Lk-2-XI-10", "reg": "xi2-kesz", "conf": 1.0}, "geometry": {"type": "Point", "coordinates": [19.0298473, 47.4757283]}}, {"type": "Feature", "properties": {"code": "Lk-2-XI-09", "reg": "xi2-kesz", "conf": 1.0}, "geometry": {"type": "Point", "coordinates": [19.0308364, 47.4764343]}}, {"type": "Feature", "properties": {"code": "Lk-2-XI-11", "reg": "xi2-kesz", "conf": 1.0}, "geometry": {"type": "Point", "coordinates": [19.0278417, 47.4753613]}}, {"type": "Feature", "properties": {"code": "Vi-2-XI-06", "reg": "xi2-kesz", "conf": 1.0}, "geometry": {"type": "Point", "coordinates": [19.0276694, 47.4767818]}}, {"type": "Feature", "properties": {"code": "Vi-2-XI-07", "reg": "xi2-kesz", "conf": 1.0}, "geometry": {"type": "Point", "coordinates": [19.027373, 47.4772629]}}, {"type": "Feature", "properties": {"code": "Vt-V-XI-I-04", "reg": "xi2-kesz", "conf": 1.0}, "geometry": {"type": "Point", "coordinates": [19.0589683, 47.4750198]}}, {"type": "Feature", "properties": {"code": "Vt-V-XI-I-03", "reg": "xi2-kesz", "conf": 1.0}, "geometry": {"type": "Point", "coordinates": [19.0581739, 47.4755145]}}, {"type": "Feature", "properties": {"code": "Vt-V-XI-I-05", "reg": "xi2-kesz", "conf": 1.0}, "geometry": {"type": "Point", "coordinates": [19.0579054, 47.4738418]}}, {"type": "Feature", "properties": {"code": "Vt-V-XI-I-07", "reg": "xi2-kesz", "conf": 1.0}, "geometry": {"type": "Point", "coordinates": [19.0605386, 47.4706003]}}, {"type": "Feature", "properties": {"code": "Vi-2-XI-12", "reg": "xi2-kesz", "conf": 1.0}, "geometry": {"type": "Point", "coordinates": [19.0384442, 47.4791258]}}, {"type": "Feature", "properties": {"code": "Vi-1-XI-04", "reg": "xi2-kesz", "conf": 1.0}, "geometry": {"type": "Point", "coordinates": [19.0290554, 47.4778476]}}, {"type": "Feature", "properties": {"code": "Vi-1-XI-05", "reg": "xi2-kesz", "conf": 1.0}, "geometry": {"type": "Point", "coordinates": [19.0276486, 47.4780604]}}, {"type": "Feature", "properties": {"code": "Vi-1-XI-07", "reg": "xi2-kesz", "conf": 1.0}, "geometry": {"type": "Point", "coordinates": [19.0266182, 47.4792837]}}, {"type": "Feature", "properties": {"code": "Ln-2-XI-03", "reg": "xi2-kesz", "conf": 1.0}, "geometry": {"type": "Point", "coordinates": [19.0409006, 47.4727384]}}, {"type": "Feature", "properties": {"code": "Vt-V-XI-I-01", "reg": "xi2-kesz", "conf": 1.0}, "geometry": {"type": "Point", "coordinates": [19.0618095, 47.4733821]}}, {"type": "Feature", "properties": {"code": "Vi-1-XI-01", "reg": "xi2-kesz", "conf": 1.0}, "geometry": {"type": "Point", "coordinates": [19.0307577, 47.4790509]}}, {"type": "Feature", "properties": {"code": "Lk-1-XI-01", "reg": "xi2-kesz", "conf": 1.0}, "geometry": {"type": "Point", "coordinates": [19.0311249, 47.4782307]}}, {"type": "Feature", "properties": {"code": "Ln-T-XI-I-05", "reg": "xi2-kesz", "conf": 1.0}, "geometry": {"type": "Point", "coordinates": [19.0542141, 47.4727619]}}, {"type": "Feature", "properties": {"code": "Ln-T-XI-I-01", "reg": "xi2-kesz", "conf": 1.0}, "geometry": {"type": "Point", "coordinates": [19.0550654, 47.4730874]}}, {"type": "Feature", "properties": {"code": "Lk-1-XI-04", "reg": "xi2-kesz", "conf": 1.0}, "geometry": {"type": "Point", "coordinates": [19.0323852, 47.4746932]}}, {"type": "Feature", "properties": {"code": "Lk-1-XI-04", "reg": "xi2-kesz", "conf": 1.0}, "geometry": {"type": "Point", "coordinates": [19.0318329, 47.475518]}}, {"type": "Feature", "properties": {"code": "Lk-1-XI-06", "reg": "xi2-kesz", "conf": 1.0}, "geometry": {"type": "Point", "coordinates": [19.0314498, 47.4744754]}}, {"type": "Feature", "properties": {"code": "Lk-1-XI-03", "reg": "xi2-kesz", "conf": 1.0}, "geometry": {"type": "Point", "coordinates": [19.0317653, 47.4762466]}}, {"type": "Feature", "properties": {"code": "Lk-1-XI-03", "reg": "xi2-kesz", "conf": 1.0}, "geometry": {"type": "Point", "coordinates": [19.0311187, 47.477289]}}, {"type": "Feature", "properties": {"code": "Lk-1-XI-07", "reg": "xi2-kesz", "conf": 1.0}, "geometry": {"type": "Point", "coordinates": [19.03227, 47.4764621]}}, {"type": "Feature", "properties": {"code": "Lk-1-XI-07", "reg": "xi2-kesz", "conf": 1.0}, "geometry": {"type": "Point", "coordinates": [19.0320543, 47.4770852]}}, {"type": "Feature", "properties": {"code": "Lk-1-XI-08", "reg": "xi2-kesz", "conf": 1.0}, "geometry": {"type": "Point", "coordinates": [19.0327148, 47.4753349]}}, {"type": "Feature", "properties": {"code": "Lk-1-XI-08", "reg": "xi2-kesz", "conf": 1.0}, "geometry": {"type": "Point", "coordinates": [19.032796, 47.4743038]}}, {"type": "Feature", "properties": {"code": "Vt-V-XI-08", "reg": "xi2-kesz", "conf": 1.0}, "geometry": {"type": "Point", "coordinates": [19.0522441, 47.4754147]}}, {"type": "Feature", "properties": {"code": "Ln-2-XI-01", "reg": "xi2-kesz", "conf": 1.0}, "geometry": {"type": "Point", "coordinates": [19.0355076, 47.4763436]}}, {"type": "Feature", "properties": {"code": "Ln-2-XI-03", "reg": "xi2-kesz", "conf": 1.0}, "geometry": {"type": "Point", "coordinates": [19.0363829, 47.4757091]}}, {"type": "Feature", "properties": {"code": "Ln-2-XI-01", "reg": "xi2-kesz", "conf": 1.0}, "geometry": {"type": "Point", "coordinates": [19.0366284, 47.4760529]}}, {"type": "Feature", "properties": {"code": "Ln-2-XI-03", "reg": "xi2-kesz", "conf": 1.0}, "geometry": {"type": "Point", "coordinates": [19.0372277, 47.4754275]}}, {"type": "Feature", "properties": {"code": "Ln-2-XI-03", "reg": "xi2-kesz", "conf": 1.0}, "geometry": {"type": "Point", "coordinates": [19.0370833, 47.4748432]}}, {"type": "Feature", "properties": {"code": "Ln-2-XI-01", "reg": "xi2-kesz", "conf": 1.0}, "geometry": {"type": "Point", "coordinates": [19.0343005, 47.4738665]}}, {"type": "Feature", "properties": {"code": "Ln-2-XI-03", "reg": "xi2-kesz", "conf": 1.0}, "geometry": {"type": "Point", "coordinates": [19.0355994, 47.4743548]}}, {"type": "Feature", "properties": {"code": "Ln-2-XI-03", "reg": "xi2-kesz", "conf": 1.0}, "geometry": {"type": "Point", "coordinates": [19.0412167, 47.4733525]}}, {"type": "Feature", "properties": {"code": "Ln-2-XI-03", "reg": "xi2-kesz", "conf": 1.0}, "geometry": {"type": "Point", "coordinates": [19.0439293, 47.4730094]}}, {"type": "Feature", "properties": {"code": "Ln-2-XI-03", "reg": "xi2-kesz", "conf": 1.0}, "geometry": {"type": "Point", "coordinates": [19.0451104, 47.4733991]}}, {"type": "Feature", "properties": {"code": "Ln-2-XI-I-03", "reg": "xi2-kesz", "conf": 1.0}, "geometry": {"type": "Point", "coordinates": [19.0446424, 47.4739169]}}, {"type": "Feature", "properties": {"code": "Ln-2-XI-03", "reg": "xi2-kesz", "conf": 1.0}, "geometry": {"type": "Point", "coordinates": [19.0430202, 47.4739807]}}, {"type": "Feature", "properties": {"code": "Ln-2-XI-01", "reg": "xi2-kesz", "conf": 1.0}, "geometry": {"type": "Point", "coordinates": [19.0453631, 47.4726683]}}, {"type": "Feature", "properties": {"code": "Vi-2-XI-10", "reg": "xi2-kesz", "conf": 1.0}, "geometry": {"type": "Point", "coordinates": [19.0381694, 47.4767704]}}, {"type": "Feature", "properties": {"code": "Vi-2-XI-16", "reg": "xi2-kesz", "conf": 1.0}, "geometry": {"type": "Point", "coordinates": [19.0385192, 47.4771645]}}, {"type": "Feature", "properties": {"code": "Vi-2-XI-11", "reg": "xi2-kesz", "conf": 1.0}, "geometry": {"type": "Point", "coordinates": [19.0384253, 47.4764244]}}, {"type": "Feature", "properties": {"code": "Vi-2-XI-04", "reg": "xi2-kesz", "conf": 1.0}, "geometry": {"type": "Point", "coordinates": [19.0245277, 47.4732435]}}, {"type": "Feature", "properties": {"code": "Ln-2-XI-01", "reg": "xi2-kesz", "conf": 1.0}, "geometry": {"type": "Point", "coordinates": [19.0423363, 47.4755386]}}, {"type": "Feature", "properties": {"code": "Zkp-XI-Kp-01", "reg": "xi2-kesz", "conf": 1.0}, "geometry": {"type": "Point", "coordinates": [19.0518627, 47.4705778]}}, {"type": "Feature", "properties": {"code": "Zkp-XI-Kp-01", "reg": "xi2-kesz", "conf": 1.0}, "geometry": {"type": "Point", "coordinates": [19.0479654, 47.4708244]}}, {"type": "Feature", "properties": {"code": "Zkp-XI-Kk-02", "reg": "xi2-kesz", "conf": 1.0}, "geometry": {"type": "Point", "coordinates": [19.0451582, 47.4719007]}}, {"type": "Feature", "properties": {"code": "Zkp-XI-Kp-01", "reg": "xi2-kesz", "conf": 1.0}, "geometry": {"type": "Point", "coordinates": [19.0427637, 47.4719334]}}, {"type": "Feature", "properties": {"code": "Zkp-XI-Kp-01", "reg": "xi2-kesz", "conf": 1.0}, "geometry": {"type": "Point", "coordinates": [19.0369074, 47.473017]}}, {"type": "Feature", "properties": {"code": "Zkp-XI-Kk-01", "reg": "xi2-kesz", "conf": 1.0}, "geometry": {"type": "Point", "coordinates": [19.0328939, 47.4736623]}}, {"type": "Feature", "properties": {"code": "Zkp-XI-Kk-01", "reg": "xi2-kesz", "conf": 1.0}, "geometry": {"type": "Point", "coordinates": [19.027025, 47.4729324]}}, {"type": "Feature", "properties": {"code": "Zkp-XI-Kk-01", "reg": "xi2-kesz", "conf": 1.0}, "geometry": {"type": "Point", "coordinates": [19.0247501, 47.472712]}}, {"type": "Feature", "properties": {"code": "Kb-Kt-XI-04", "reg": "xi2-kesz", "conf": 1.0}, "geometry": {"type": "Point", "coordinates": [19.0233502, 47.472423]}}, {"type": "Feature", "properties": {"code": "Vi-2-XI-15", "reg": "xi2-kesz", "conf": 1.0}, "geometry": {"type": "Point", "coordinates": [19.0391717, 47.4779368]}}, {"type": "Feature", "properties": {"code": "Vi-2-XI-03", "reg": "xi2-kesz", "conf": 1.0}, "geometry": {"type": "Point", "coordinates": [19.0422472, 47.4789892]}}, {"type": "Feature", "properties": {"code": "Vt-V-XI-07", "reg": "xi2-kesz", "conf": 1.0}, "geometry": {"type": "Point", "coordinates": [19.0506961, 47.4752265]}}, {"type": "Feature", "properties": {"code": "Vt-V-XI-09", "reg": "xi2-kesz", "conf": 1.0}, "geometry": {"type": "Point", "coordinates": [19.0512418, 47.4742162]}}, {"type": "Feature", "properties": {"code": "Ln-2-XI-01", "reg": "xi2-kesz", "conf": 1.0}, "geometry": {"type": "Point", "coordinates": [19.0449377, 47.475601]}}, {"type": "Feature", "properties": {"code": "Ln-2-XI-01", "reg": "xi2-kesz", "conf": 1.0}, "geometry": {"type": "Point", "coordinates": [19.0446924, 47.4749709]}}, {"type": "Feature", "properties": {"code": "Vi-2-XI-14", "reg": "xi2-kesz", "conf": 1.0}, "geometry": {"type": "Point", "coordinates": [19.0381619, 47.4783078]}}, {"type": "Feature", "properties": {"code": "Vi-2-XI-13", "reg": "xi2-kesz", "conf": 1.0}, "geometry": {"type": "Point", "coordinates": [19.0373203, 47.478924]}}, {"type": "Feature", "properties": {"code": "Zkp-XI-Kk-02", "reg": "xi2-kesz", "conf": 1.0}, "geometry": {"type": "Point", "coordinates": [19.0322479, 47.4733987]}}, {"type": "Feature", "properties": {"code": "Vi-2-XI-02", "reg": "xi2-kesz", "conf": 1.0}, "geometry": {"type": "Point", "coordinates": [19.04323, 47.478719]}}]}