{"type": "FeatureCollection", "features": [{"type": "Feature", "properties": {"code": "Vt-V/VI/7", "reg": "vi2-kesz", "conf": 0.974}, "geometry": {"type": "Point", "coordinates": [19.0636494, 47.5163275]}}, {"type": "Feature", "properties": {"code": "Vi-1/VI/1", "reg": "vi2-kesz", "conf": 0.984}, "geometry": {"type": "Point", "coordinates": [19.066523, 47.5163202]}}, {"type": "Feature", "properties": {"code": "KÖk/VI/1", "reg": "vi2-kesz", "conf": 0.949}, "geometry": {"type": "Point", "coordinates": [19.0678937, 47.516111]}}, {"type": "Feature", "properties": {"code": "Vi-1/VI/1", "reg": "vi2-kesz", "conf": 0.947}, "geometry": {"type": "Point", "coordinates": [19.069172, 47.5159431]}}, {"type": "Feature", "properties": {"code": "Zkp/VI/2", "reg": "vi2-kesz", "conf": 0.971}, "geometry": {"type": "Point", "coordinates": [19.0624177, 47.5157473]}}, {"type": "Feature", "properties": {"code": "KÖu-4/VI/1", "reg": "vi2-kesz", "conf": 0.97}, "geometry": {"type": "Point", "coordinates": [19.0605802, 47.5151427]}}, {"type": "Feature", "properties": {"code": "KÖu-4/VI/1", "reg": "vi2-kesz", "conf": 0.934}, "geometry": {"type": "Point", "coordinates": [19.0672076, 47.5145098]}}, {"type": "Feature", "properties": {"code": "Vt-V/VI/5", "reg": "vi2-kesz", "conf": 0.942}, "geometry": {"type": "Point", "coordinates": [19.059212, 47.5132985]}}, {"type": "Feature", "properties": {"code": "K-Közl/VI/2", "reg": "vi2-kesz", "conf": 0.917}, "geometry": {"type": "Point", "coordinates": [19.0600449, 47.5125174]}}, {"type": "Feature", "properties": {"code": "KÖu-3/VI/1", "reg": "vi2-kesz", "conf": 0.908}, "geometry": {"type": "Point", "coordinates": [19.0566924, 47.5117303]}}, {"type": "Feature", "properties": {"code": "Kt-Fk/VI/4", "reg": "vi2-kesz", "conf": 0.956}, "geometry": {"type": "Point", "coordinates": [19.0602194, 47.511052]}}, {"type": "Feature", "properties": {"code": "K-Közl/VI/1", "reg": "vi2-kesz", "conf": 0.916}, "geometry": {"type": "Point", "coordinates": [19.0575412, 47.510663]}}, {"type": "Feature", "properties": {"code": "Vt-V/VI/5", "reg": "vi2-kesz", "conf": 0.923}, "geometry": {"type": "Point", "coordinates": [19.0584564, 47.509824]}}]}